State/Region P_code,Division/State (Myanmar),Division/State ,Township  (Myanmar),Township ,Type (Myanmar),Type,Name (Myanmar),Name,Latitude,Longitude,Phone Number,
ျပည္နယ္နွင့္တိုင္းအမွတ္စဥ္,တိုင္း/ျပည္နယ္ (ျမန္မာ),တိုင္း/ျပည္နယ္,ျမို့နယ္ (ျမန္မာ),ျမို့နယ္ ,အမ်ိုးအစား (ျမန္မာ),အမ်ိုးအစား,အမည္ (ျမန္မာ),အမည္,လတၱီက်ု့,ေလာင္ဂ်ီက်ု့,ဖုန္းနံပါတ္,
SR_PCODE,SR_MM_NAME,SR_NAME,TS_MM_NAME,TS_NAME,TYPE_MM,TYPE,NAME_MM,NAME,LAT,LONG,Ph_no,
MR001,စစ္ကိုင္းတိုင္းေဒသႀကီး,Sagaing Division,စစ္ကိုင္းျမိဳ ့,Sagaing,လ်ွပ္စစ္ပစၥည္းအေရာင္းဆိုင္,Electronic Store,ထြန္းလင္း,Htun Lin,21.88166,95.982358,09 797262667,
MR001,စစ္ကိုင္းတိုင္းေဒသႀကီး,Sagaing Division,စစ္ကိုင္းျမိဳ ့,Sagaing,လ်ွပ္စစ္ပစၥည္းအေရာင္းဆိုင္,Electronic Store,နယူးစတား,New Star,21.880752,95.98206,09 2061415,
MR001,စစ္ကိုင္းတိုင္းေဒသႀကီး,Sagaing Division,စစ္ကိုင္းျမိဳ ့,Sagaing,လ်ွပ္စစ္ပစၥည္းအေရာင္းဆိုင္,Electronic Store,ေဇယ်,Zaya,21.884646,95.980926,072 22057,
MR001,စစ္ကိုင္းတိုင္းေဒသႀကီး,Sagaing Division,စစ္ကိုင္းျမိဳ ့,Sagaing,လ်ွပ္စစ္ပစၥည္းအေရာင္းဆိုင္,Electronic Store,မင္းႀကီးႀကိဳက္,Min Gyi Kyite,21.885291,95.980121,09 33196639,
MR001,စစ္ကိုင္းတိုင္းေဒသႀကီး,Sagaing Division,စစ္ကိုင္းျမိဳ ့,Sagaing,လ်ွပ္စစ္ပစၥည္းအေရာင္းဆိုင္,Electronic Store,ဇြဲ,Zwe,21.879868,95.980545,09 979720087,
MR001,စစ္ကိုင္းတိုင္းေဒသႀကီး,Sagaing Division,စစ္ကိုင္းျမိဳ ့,Sagaing,လ်ွပ္စစ္ပစၥည္းအေရာင္းဆိုင္,Electronic Store,မဂၤလာ,Mingalar,21.879857,95.980504,09 780907693,
MR001,စစ္ကိုင္းတိုင္းေဒသႀကီး,Sagaing Division,စစ္ကိုင္းျမိဳ ့,Sagaing,လ်ွပ္စစ္ပစၥည္းအေရာင္းဆိုင္,Electronic Store,နီလာ,Nilar,21.881913,95.979345,09 442252214,
MR001,စစ္ကိုင္းတိုင္းေဒသႀကီး,Sagaing Division,စစ္ကိုင္းျမိဳ ့,Sagaing,လ်ွပ္စစ္ပစၥည္းအေရာင္းဆိုင္,Electronic Store,သစ္ဆန္း,Thit Sann,21.903799,95.967228,09 400461026,
MR001,စစ္ကိုင္းတိုင္းေဒသႀကီး,Sagaing Division,စစ္ကိုင္းျမိဳ ့,Sagaing,လ်ွပ္စစ္ပစၥည္းအေရာင္းဆိုင္,Electronic Store,ေငြႀကယ္မိုး,Ngwe Kyal Moe,21.879884,95.980801,09 965645500,
MR001,စစ္ကိုင္းတိုင္းေဒသႀကီး,Sagaing Division,စစ္ကိုင္းျမိဳ ့,Sagaing,လ်ွပ္စစ္ပစၥည္းအေရာင္းဆိုင္,Electronic Store,ဦးေမာင္ေမာင္,U Maung Maung,21.881363,95.981709,072 22623,
MR001,စစ္ကိုင္းတိုင္းေဒသႀကီး,Sagaing Division,စစ္ကိုင္းျမိဳ ့,Sagaing,လ်ွပ္စစ္ပစၥည္းအေရာင္းဆိုင္,Electronic Store,ေအာင္,Aung,21.879372,95.979338,09 970868734,
MR001,စစ္ကိုင္းတိုင္းေဒသႀကီး,Sagaing Division,မံုရြာျမိဳ ့,Monywa,လ်ွပ္စစ္ပစၥည္းအေရာင္းဆိုင္,Electronic Store,စူပါပါ၀ါ,Super Power,22.106095,95.1137061,09 974113788,
MR001,စစ္ကိုင္းတိုင္းေဒသႀကီး,Sagaing Division,မံုရြာျမိဳ ့,Monywa,လ်ွပ္စစ္ပစၥည္းအေရာင္းဆိုင္,Electronic Store,သစ္ဆန္း,Thit San,22.113664,95.130847,071 22488,
MR001,စစ္ကိုင္းတိုင္းေဒသႀကီး,Sagaing Division,မံုရြာျမိဳ ့,Monywa,လ်ွပ္စစ္ပစၥည္းအေရာင္းဆိုင္,Electronic Store,စူပါစတား,Super Star,22.117129,95.155747,09 445466466,
MR001,စစ္ကိုင္းတိုင္းေဒသႀကီး,Sagaing Division,မံုရြာျမိဳ ့,Monywa,လ်ွပ္စစ္ပစၥည္းအေရာင္းဆိုင္,Electronic Store,ဒိုင္းမြန္း,Diamond,22.111695,95.141621,09 443667272,
MR001,စစ္ကိုင္းတိုင္းေဒသႀကီး,Sagaing Division,မံုရြာျမိဳ ့,Monywa,လ်ွပ္စစ္ပစၥည္းအေရာင္းဆိုင္,Electronic Store,ေအာင္မိသားစု,Aung Family,22.126285,95.134925,09 400453356,
MR001,စစ္ကိုင္းတိုင္းေဒသႀကီး,Sagaing Division,မံုရြာျမိဳ ့,Monywa,လ်ွပ္စစ္ပစၥည္းအေရာင္းဆိုင္,Electronic Store,အိန္ဂ်ယ္,Angel,22.134978,95.157791,09 770646696,
MR001,စစ္ကိုင္းတိုင္းေဒသႀကီး,Sagaing Division,မံုရြာျမိဳ ့,Monywa,လ်ွပ္စစ္ပစၥည္းအေရာင္းဆိုင္,Electronic Store,ကူဒီဟိန္း,Kude Hein,22.126539,95.139351,09 455888808,
MR001,စစ္ကိုင္းတိုင္းေဒသႀကီး,Sagaing Division,မံုရြာျမိဳ ့,Monywa,လ်ွပ္စစ္ပစၥည္းအေရာင္းဆိုင္,Electronic Store,ဆန္းယူနုိက္တက္,San United,22.121329,95.169517,09 256119872,
MR001,စစ္ကိုင္းတိုင္းေဒသႀကီး,Sagaing Division,ေရႊဘိုျမိဳ ့,Shwe Bo,လ်ွပ္စစ္ပစၥည္းအေရာင္းဆိုင္,Electronic Store,သာထူး,Tha Htoo,22.571119,95.690998,09 455534440,
MR001,စစ္ကိုင္းတိုင္းေဒသႀကီး,Sagaing Division,ေရႊဘိုျမိဳ ့,Shwe Bo,လ်ွပ္စစ္ပစၥည္းအေရာင္းဆိုင္,Electronic Store,ေက်ာ္,Kyaw,22.573131,95.720541,057 21548,
MR001,စစ္ကိုင္းတိုင္းေဒသၾကီး,Sagaing Division,စစ္ကိုင္းျမို့,Saging ,လ်ွပ္စစ္ပစၥည္းအေရာင္းဆိုင္,Electronic Store,နက္ဆန္း,Nat San,21.918322,95.956615,,
MR001,စစ္ကိုင္းတိုင္းေဒသၾကီး,Sagaing Division,စစ္ကိုင္းျမို့,Saging ,လ်ွပ္စစ္ပစၥည္းအေရာင္းဆိုင္,Electronic Store,ေဂ်ေဂ်,JJ Bussiness Group,21.917848,96.967492,,
MR001,စစ္ကိုင္းတိုင္းေဒသၾကီး,Sagaing Division,စစ္ကိုင္းျမို့,Saging ,လ်ွပ္စစ္ပစၥည္းအေရာင္းဆိုင္,Electronic Store,ေနာ္လွ်န္ဟုမ္း,Naw Shwan Home,21.928041,95.969896,,
MR001,စစ္ကိုင္းတိုင္းေဒသၾကီး,Sagaing Division,စစ္ကိုင္းျမို့,Saging ,လ်ွပ္စစ္ပစၥည္းအေရာင္းဆိုင္,Electronic Store,ေရႊေတာင္ရိုး,Shwe Taung Yoe,21.891263,95.987281,,
MR001,စစ္ကိုင္းတိုင္းေဒသၾကီး,Sagaing Division,စစ္ကိုင္းျမို့,Saging ,လ်ွပ္စစ္ပစၥည္းအေရာင္းဆိုင္,Electronic Store,ေအာင္စတား,Aung Star,21.885415,95.984868,,
MR001,စစ္ကိုင္းတိုင္းေဒသၾကီး,Sagaing Division,စစ္ကိုင္းျမို့,Saging ,လ်ွပ္စစ္ပစၥည္းအေရာင္းဆိုင္,Electronic Store,တိုးႀကီး,Toe Gyi,21.883299,95.981258,,
MR001,စစ္ကိုင္းတိုင္းေဒသၾကီး,Sagaing Division,စစ္ကိုင္းျမို့,Saging ,လ်ွပ္စစ္ပစၥည္းအေရာင္းဆိုင္,Electronic Store,စကိုင္းနက္,Skynet,21.880747,95.987289,,
MR001,စစ္ကိုင္းတိုင္းေဒသၾကီး,Sagaing Division,စစ္ကိုင္းျမို့,Saging ,လ်ွပ္စစ္ပစၥည္းအေရာင္းဆိုင္,Electronic Store,ေတာ့ပ္ဝမ္း,Top1,21.880133,95.981996,,
MR001,စစ္ကိုင္းတိုင္းေဒသၾကီး,Sagaing Division,စစ္ကိုင္းျမို့,Saging ,လ်ွပ္စစ္ပစၥည္းအေရာင္းဆိုင္,Electronic Store,ေငြငန္းဦး,Ngwe Ngann Oo,21.879123,95.98168,,
MR001,စစ္ကိုင္းတိုင္းေဒသၾကီး,Sagaing Division,စစ္ကိုင္းျမို့,Saging ,လ်ွပ္စစ္ပစၥည္းအေရာင္းဆိုင္,Electronic Store,ဇြဲ,Zwe,21.879861,95.980625,,
MR001,စစ္ကိုင္းတိုင္းေဒသၾကီး,Sagaing Division,စစ္ကိုင္းျမို့,Saging ,လ်ွပ္စစ္ပစၥည္းအေရာင္းဆိုင္,Electronic Store,ေငြၾကယ္မိုး,Ngwe Kyal Moe,22.766215,95.427699,,
MR001,စစ္ကိုင္းတိုင္းေဒသၾကီး,Sagaing Division,စစ္ကိုင္းျမို့,Saging ,လ်ွပ္စစ္ပစၥည္းအေရာင္းဆိုင္,Electronic Store,သိန္းဆန္း,Thein San,21.879008,95.979396,,
MR001,စစ္ကိုင္းတိုင္းေဒသၾကီး,Sagaing Division,ေရႊဘိုျမို့,Shwebo ,လ်ွပ္စစ္ပစၥည္းအေရာင္းဆိုင္,Electronic Store,အာ၀ိုင္ဘီ,RYB,22.580336,95.694413,,
MR001,စစ္ကိုင္းတိုင္းေဒသၾကီး,Sagaing Division,ေရႊဘိုျမို့,Shwebo ,လ်ွပ္စစ္ပစၥည္းအေရာင္းဆိုင္,Electronic Store,သာထူး,Tha Htoo,22.571097,95.691039,,
MR001,စစ္ကိုင္းတိုင္းေဒသၾကီး,Sagaing Division,ေရႊဘိုျမို့,Shwebo ,လ်ွပ္စစ္ပစၥည္းအေရာင္းဆိုင္,Electronic Store,ယိုရိုဇု,Yo Ro Zu,22.569131,95.694659,,
MR001,စစ္ကိုင္းတိုင္းေဒသၾကီး,Sagaing Division,ေရႊဘိုျမို့,Shwebo ,လ်ွပ္စစ္ပစၥည္းျပဳျပင္ေရး,Electronic Service,ေက်ာ္စြာ,Kyaw Swar,22.567522,95.698343,,
MR001,စစ္ကိုင္းတိုင္းေဒသၾကီး,Sagaing Division,ေရႊဘိုျမို့,Shwebo ,လ်ွပ္စစ္ပစၥည္းအေရာင္းဆိုင္,Electronic Store,ေဇာ္,Zaw,22.566489,95.698279,,
MR001,စစ္ကိုင္းတိုင္းေဒသၾကီး,Sagaing Division,ေရႊဘိုျမို့,Shwebo ,လ်ွပ္စစ္ပစၥည္းအေရာင္းဆိုင္,Electronic Store,လင္း,Linn,22.568453,95.69848,,
MR001,စစ္ကိုင္းတိုင္းေဒသၾကီး,Sagaing Division,ေရႊဘိုျမို့,Shwebo ,လ်ွပ္စစ္ပစၥည္းအေရာင္းဆိုင္,Electronic Store,ထြန္း,Tun,22.568303,95.698563,,
MR001,စစ္ကိုင္းတိုင္းေဒသၾကီး,Sagaing Division,ေရႊဘိုျမို့,Shwebo ,လ်ွပ္စစ္ပစၥည္းအေရာင္းဆိုင္,Electronic Store,ပါဖက္,Perfect,22.564929,95.698254,,
MR001,စစ္ကိုင္းတိုင္းေဒသၾကီး,Sagaing Division,ေရႊဘိုျမို့,Shwebo ,ဓာတ္အားခြဲရံု,Electrical Substation,၂၃၀ေကဗြီ,Land 230 KV ,22.615338,95.737217,,
MR001,စစ္ကိုင္းတိုင္းေဒသၾကီး,Sagaing Division,ေရဦးျမို့,Ye Oo ,ျမိဳ႕နယ္လ်ွပ္စစ္အင္ဂ်င္နီယာရံုး,Electrical Power Office,ေရဦးလွ်ပ္စစ္ရံုး,Ye Oo EPC,22.76602,95.427737,,
MR001,စစ္ကိုင္းတိုင္းေဒသၾကီး,Sagaing Division,ေရဦးျမို့,Ye Oo ,လ်ွပ္စစ္ပစၥည္းအေရာင္းဆိုင္,Electronic Store,ရတနာပံု,Yatanapone,22.763846,95.428668,,
MR001,စစ္ကိုင္းတိုင္းေဒသၾကီး,Sagaing Division,ေရဦးျမို့,Ye Oo ,လ်ွပ္စစ္ပစၥည္းအေရာင္းဆိုင္,Electronic Store,ျပည့္စံု,Pyae Sone,22.763121,95.428921,,
MR001,စစ္ကိုင္းတိုင္းေဒသၾကီး,Sagaing Division,ေရဦးျမို့,Ye Oo ,လ်ွပ္စစ္ပစၥည္းအေရာင္းဆိုင္,Electronic Store,ေအာင္ေက်ာ္မိုး,Aung Kyaw Moe,22.763555,95.4256,,
MR001,စစ္ကိုင္းတိုင္းေဒသၾကီး,Sagaing Division,ေရဦးျမို့,Ye Oo ,လ်ွပ္စစ္ပစၥည္းအေရာင္းဆိုင္,Electronic Store,ကိုထိုက္,Ko Htike,22.765532,95.426999,,
MR001,စစ္ကိုင္းတိုင္းေဒသၾကီး,Sagaing Division,ေရဦးျမို့,Ye Oo ,လ်ွပ္စစ္ပစၥည္းအေရာင္းဆိုင္,Electronic Store,နယူးအဲနဂ်ီ,New Energy,22.7671289,95.421031,,
MR001,စစ္ကိုင္းတိုင္းေဒသၾကီး,Sagaing Division,ေရဦးျမို့,Ye Oo ,လ်ွပ္စစ္ပစၥည္းအေရာင္းဆိုင္,Electronic Store,လ၀န္းသစ္,La Wun Thit,22.764268,95.429043,,
MR001,စစ္ကိုင္းတိုင္းေဒသၾကီး,Sagaing Division,ကၽြန္းလွျမို့,Kyunhla ,လ်ွပ္စစ္ပစၥည္းအေရာင္းဆိုင္,Electronic Store,မိုးေကာင္းကင္,Moe Kaung Kin,23.321204,95.522526,,
MR001,စစ္ကိုင္းတိုင္းေဒသၾကီး,Sagaing Division,ကၽြန္းလွျမို့,Kyunhla ,လ်ွပ္စစ္ပစၥည္းအေရာင္းဆိုင္,Electronic Store,၁ရာစု,Century One,23.321263,95.525581,,
MR001,စစ္ကိုင္းတိုင္းေဒသၾကီး,Sagaing Division,ကၽြန္းလွျမို့,Kyunhla ,လ်ွပ္စစ္ပစၥည္းအေရာင္းဆိုင္,Electronic Store,ေအာင္ခ်မ္းမိုး,Aung Chan Myae,23.318533,95.570057,,
MR001,စစ္ကိုင္းတိုင္းေဒသၾကီး,Sagaing Division,ကၽြန္းလွျမို့,Kyunhla ,လ်ွပ္စစ္ပစၥည္းအေရာင္းဆိုင္,Electronic Store,စပယ္,Sabiai,22.286877,95.449515,,
MR001,စစ္ကိုင္းတိုင္းေဒသၾကီး,Sagaing Division,ကၽြန္းလွျမို့,Kyunhla ,လ်ွပ္စစ္ပစၥည္းအေရာင္းဆိုင္,Electronic Store,စင္ကာပူ,Singapore,22.282127,95.445084,,
MR001,စစ္ကိုင္းတိုင္းေဒသၾကီး,Sagaing Division,ကၽြန္းလွျမို့,Kyunhla ,လ်ွပ္စစ္ပစၥည္းအေရာင္းဆိုင္,Electronic Store,လင္းသစ္စာ,Lin Thit Sar,22.285686,95.449459,,
MR001,စစ္ကိုင္းတိုင္းေဒသၾကီး,Sagaing Division,ကၽြန္းလွျမို့,Kyunhla ,လ်ွပ္စစ္ပစၥည္းအေရာင္းဆိုင္,Electronic Store,သစ္ဆန္း,Thit San,22.285843,95.449459,,
MR001,စစ္ကိုင္းတိုင္းေဒသၾကီး,Sagaing Division,မံုရြာျမို့,Monywa,လ်ွပ္စစ္ပစၥည္းအေရာင္းဆိုင္,Electronic Store,အလင္းသစ္,New Light,22.117901,95.149526,,
MR001,စစ္ကိုင္းတိုင္းေဒသၾကီး,Sagaing Division,မံုရြာျမို့,Monywa,လ်ွပ္စစ္ပစၥည္းအေရာင္းဆိုင္,Electronic Store,ေအာင္မိသားစု,Aung Family,22.126406,95.134805,,
MR001,စစ္ကိုင္းတိုင္းေဒသၾကီး,Sagaing Division,မံုရြာျမို့,Monywa,လ်ွပ္စစ္ပစၥည္းအေရာင္းဆိုင္,Electronic Store,ေအာင္ေကာင္းျမတ္,Aung Kaung Myat,22.129685,95.160267,,
MR001,စစ္ကိုင္းတိုင္းေဒသၾကီး,Sagaing Division,မံုရြာျမို့,Monywa,လ်ွပ္စစ္ပစၥည္းအေရာင္းဆိုင္,Electronic Store,ေရႊရည္၀င္း,Shwe Yi Win,22.084668,95.162866,,
MR001,စစ္ကိုင္းတိုင္းေဒသၾကီး,Sagaing Division,မံုရြာျမို့,Monywa,လ်ွပ္စစ္ပစၥည္းအေရာင္းဆိုင္,Electronic Store,မိုးသိျကား,Moe Thi Kyar,22.107075,95.13133,,
MR001,စစ္ကိုင္းတိုင္းေဒသၾကီး,Sagaing Division,မံုရြာျမို့,Monywa,လ်ွပ္စစ္ပစၥည္းအေရာင္းဆိုင္,Electronic Store,အားသစ္,Ar Thit,22.107127,95.70059,,
MR001,စစ္ကိုင္းတိုင္းေဒသၾကီး,Sagaing Division,မံုရြာျမို့,Monywa,လ်ွပ္စစ္ပစၥည္းအေရာင္းဆိုင္,Electronic Store,ေကအန္ေက,KNK ,22.105225,95.137267,,
MR001,စစ္ကိုင္းတိုင္းေဒသၾကီး,Sagaing Division,မံုရြာျမို့,Monywa,လ်ွပ္စစ္ပစၥည္းအေရာင္းဆိုင္,Electronic Store,အိုင္တီစီးတီး,IT City,22.116321,95.132201,,
MR001,စစ္ကိုင္းတိုင္းေဒသၾကီး,Sagaing Division,စစ္ကိုင္းျမို့,Saging ,လ်ွပ္စစ္ပစၥည္းအေရာင္းဆိုင္,Electronic Store,နယူးဘီး,New Bee,22.116672,95.141525,,
MR002,တနသၤာရီတိုင္းေဒသၾကီး,TaninTharyi Division,ထား၀ယ္ျမို့,Dawei,ျမိဳ႕နယ္လ်ွပ္စစ္အင္ဂ်င္နီယာရံုး,Electrical Power Office,ထား၀ယ္လ်ွပ္စစ္ဓာတ္အားေပးစက္ရံု,Dawei Electrical Power Office,14.083522,98.194653,,
MR002,တနသၤာရီတိုင္းေဒသၾကီး,TaninTharyi Division,ထား၀ယ္ျမို့,Dawei,လ်ွပ္စစ္ပစၥည္းအေရာင္းဆိုင္,Electronic Store,ယူအမ္ဂ်ီ(ျမန္မာ),UMG(Myanmar),14.056698,98.190334,059 23007,
MR002,တနသၤာရီတိုင္းေဒသၾကီး,TaninTharyi Division,ထား၀ယ္ျမို့,Dawei,လ်ွပ္စစ္ပစၥည္းအေရာင္းဆိုင္,Electronic Store,စိန္ေရႊ,Sein Shwe,14.072742,98.190061,09 254821821,
MR002,တနသၤာရီတိုင္းေဒသၾကီး,TaninTharyi Division,ထား၀ယ္ျမို့,Dawei,လ်ွပ္စစ္ပစၥည္းအေရာင္းဆိုင္,Electronic Store,၈၈,88Electric,14.075414,98.186501,09 450992600,
MR002,တနသၤာရီတိုင္းေဒသၾကီး,TaninTharyi Division,ထား၀ယ္ျမို့,Dawei,လ်ွပ္စစ္ပစၥည္းအေရာင္းဆိုင္,Electronic Store,ဇီဇ၀ါေမႊး,Zi Zawar Hmwe,14.123739,98.175781,09 8752211,
MR002,တနသၤာရီတိုင္းေဒသၾကီး,TaninTharyi Division,ေမာင္းမကန္ျမို့,Maung Ma Kan,လ်ွပ္စစ္ပစၥည္းျပဳျပင္ေရး,Electronic Service,စူပါ,Super Electronic Service,14.173206,98.103867,09 782462554,
MR002,တနသၤာရီတိုင္းေဒသၾကီး,TaninTharyi Division,ပုေလာျမို့,Palaw,လ်ွပ္စစ္ပစၥည္းအေရာင္းဆိုင္,Electronic Store,အလင္းေရာင္,Alinyaung,12.974337,98.647189,,
MR002,တနသၤာရီတိုင္းေဒသၾကီး,TaninTharyi Division,ကလိန္ေအာင္ျမို့,Kaleinnaung,လ်ွပ္စစ္ပစၥည္းအေရာင္းဆိုင္,Electronic Store,မိဘေမတၱာ,Miba Myittar,14.623811,98.137898,09 788374373,
MR003,ပဲခူးတိုင္းေဒသၾကီး,Bago Division,ပဲခူးျမို႕,Bago ,လ်ွပ္စစ္ပစၥည္းအေရာင္းဆိုင္,Electronic Store,စုမြန္,Su Mon,17.334425,96.493107,,
MR003,ပဲခူးတိုင္းေဒသၾကီး,Bago Division,ပဲခူးျမို႕,Bago,လ်ွပ္စစ္ပစၥည္းအေရာင္းဆိုင္,Electronic Store,ေဇာ္,Zaw,17.3360548,96.4890237,,
MR003,ပဲခူးတိုင္းေဒသၾကီး,Bago Division,ပဲခူးျမို႕,Bago,လ်ွပ္စစ္ပစၥည္းအေရာင္းဆိုင္,Electronic Store,ေ၀ယံ,Wai Yan,17.3341598,96.4817398,09260632525,
MR003,ပဲခူးတိုင္းေဒသၾကီး,Bago Division,ပဲခူးျမို႕,Bago,လ်ွပ္စစ္ပစၥည္းအေရာင္းဆိုင္,Electronic Store,မစ္ရွင္,Mission,17.3366186,96.4895647,0973333439,
MR003,ပဲခူးတိုင္းေဒသၾကီး,Bago Division,ပဲခူးျမို႕,Bago,လ်ွပ္စစ္ပစၥည္းအေရာင္းဆိုင္,Electronic Store,အိုေက,OK,17.3332787,96.4932783,09790150354,
MR003,ပဲခူးတိုင္းေဒသၾကီး,Bago Division,ပဲခူးျမို႕,Bago,လ်ွပ္စစ္ပစၥည္းအေရာင္းဆိုင္,Electronic Store,ေရြွလိပ္ျပာ,Golden Butterfly,17.335357,96.489248,,
MR003,ပဲခူးတိုင္းေဒသၾကီး,Bago Division,ပဲခူးျမို႕,Bago,လ်ွပ္စစ္ပစၥည္းအေရာင္းဆိုင္,Electronic Store,ေနလ,Sun Mon,17.334421,96.493107,,
MR003,ပဲခူးတိုင္းေဒသၾကီး,Bago Division,ပဲခူးျမို႕,Bago,လ်ွပ္စစ္ပစၥည္းအေရာင္းဆိုင္,Electronic Store,ကြန္နက္,Connect Technologies,17.332707,96.489442,09777732910,
MR003,ပဲခူးတိုင္းေဒသၾကီး,Bago Division,ပဲခူးျမို႕,Bago,လ်ွပ္စစ္ပစၥည္းအေရာင္းဆိုင္,Electronic Store,ဂရင္းလဲန္ဒ္,Green Land,17.345155,96.49721,,
MR003,ပဲခူးတိုင္းေဒသၾကီး,Bago Division,ေတာင္ငူျမို႕,Taungoo,လ်ွပ္စစ္ပစၥည္းျပဳျပင္ေရး,Electronic Service,ကိုမိုး,Ko Moe,18.937764,96.434376,09253211782,
MR003,ပဲခူးတိုင္းေဒသၾကီး,Bago Division,ေတာင္ငူျမို႕,Taungoo,လ်ွပ္စစ္ပစၥည္းအေရာင္းဆိုင္,Electronic Store,ရိုလဲ့က္စ္-ဗဟို,Rolex-baho,18.940396,96.440103,05424136,
MR003,ပဲခူးတိုင္းေဒသၾကီး,Bago Division,ေတာင္ငူျမို႕,Taungoo,လ်ွပ္စစ္ပစၥည္းအေရာင္းဆိုင္,Electronic Store,အလင္းပြင့္,A Linn Pwint,18.943392,96.427824,09777054684,
MR003,ပဲခူးတိုင္းေဒသၾကီး,Bago Division,ေတာင္ငူျမို႕,Taungoo,လ်ွပ္စစ္ပစၥည္းအေရာင္းဆိုင္,Electronic Store,ေအာင္ရတနာ,Aung Yadanar,18.940108,96.440063,05425128,
MR003,ပဲခူးတိုင္းေဒသၾကီး,Bago Division,ေတာင္ငူျမို႕,Taungoo,လ်ွပ္စစ္ပစၥည္းအေရာင္းဆိုင္,Electronic Store,ညြန္႔,Nyunt,18.940945,96.440198,05425167,
MR003,ပဲခူးတိုင္းေဒသၾကီး,Bago Division,ေတာင္ငူျမို႕,Taungoo,လ်ွပ္စစ္ပစၥည္းအေရာင္းဆိုင္,Electronic Store,အကန့္အသတ္မဲ့ကုမၸဏီလိမိတက္,"Unlimited Co.,ltd",18.94379,96.432803,09259326866,
MR003,ပဲခူးတိုင္းေဒသၾကီး,Bago Division,ေတာင္ငူျမို႕,Taungoo,လ်ွပ္စစ္ပစၥည္းအေရာင္းဆိုင္,Electronic Store,စည္ဗဟို,Si Ba Ho,18.939835,96.434363,09785328569,
MR003,ပဲခူးတိုင္းေဒသၾကီး,Bago Division,ေဇယ်၀တီျမို႕,Zay Ya Wadi ,လ်ွပ္စစ္ပစၥည္းအေရာင္းဆိုင္,Electronic Store,ဟုမ္းလိုက္ထ္,Home Light,18.535551,96.431198,09260559621,
MR003,ပဲခူးတိုင္းေဒသၾကီး,Bago Division,ေဇယ်၀တီျမို႕,Zay Ya Wadi ,လ်ွပ္စစ္ပစၥည္းအေရာင္းဆိုင္,Electronic Store,စိန္ခ်ယ္ရီ,Sein Cherry,18.544199,96.429808,095390518,
MR003,ပဲခူးတိုင္းေဒသၾကီး,Bago Division,ေဇယ်၀တီျမို႕,Zay Ya Wadi ,လ်ွပ္စစ္ပစၥည္းအေရာင္းဆိုင္,Electronic Store,ေဇယ်ာပံု,Zayar Pon,18.537391,96.431362,05485073,
MR003,ပဲခူးတိုင္းေဒသၾကီး,Bago Division,ေဇယ်၀တီျမို႕,Zay Ya Wadi ,လ်ွပ္စစ္ပစၥည္းအေရာင္းဆိုင္,Electronic Store,ဧရိုးမား,Aroma,18.535128,96.431429,09797852517,
MR003,ပဲခူးတိုင္းေဒသၾကီး,Bago Division,ေဇယ်၀တီျမို႕,Zay Ya Wadi ,လ်ွပ္စစ္ပစၥည္းအေရာင္းဆိုင္,Electronic Store,စီးတီးလိုက္ထ္,City Light,18.533679,96.431551,09250702200,
MR003,ပဲခူးတိုင္းေဒသၾကီး,Bago Division,ဒိုက္ဦးျမို႕,Daik U,လ်ွပ္စစ္ပစၥည္းအေရာင္းဆိုင္,Electronic Store,ဟယ္လို,Hello,17.797247,96.670281,095142250,
MR003,ပဲခူးတိုင္းေဒသၾကီး,Bago Division,ဒိုက္ဦးျမို႕,Daik U,လ်ွပ္စစ္ပစၥည္းအေရာင္းဆိုင္,Electronic Store,ေရြွေတာင္တန္း,Shwe Taung Tan,17.795254,96.665478,09252557565,
MR003,ပဲခူးတိုင္းေဒသၾကီး,Bago Division,ဒိုက္ဦးျမို႕,Daik U,လ်ွပ္စစ္ပစၥည္းအေရာင္းဆိုင္,Electronic Store,ေရြွဟသၤာ,Shwe Hnin Thar,17.797104,96.671533,095382124,
MR003,ပဲခူးတိုင္းေဒသၾကီး,Bago Division,ၾကိဳ႕ပင္ေကာက္ျမို႕,Gyo Bingauk,လ်ွပ္စစ္ပစၥည္းအေရာင္းဆိုင္,Electronic Store,ဟန္လင္း,Han Lin,18.230243,95.648927,05350700,
MR003,ပဲခူးတိုင္းေဒသၾကီး,Bago Division,ၾကိဳ႕ပင္ေကာက္ျမို႕,Gyo Bingauk,လ်ွပ္စစ္ပစၥည္းအေရာင္းဆိုင္,Electronic Store,ျမတ္လင္းေရာင္,Myat Lin Yaung,18.229494,95.652025,05351017,
MR003,ပဲခူးတိုင္းေဒသၾကီး,Bago Division,ၾကိဳ႕ပင္ေကာက္ျမို႕,Gyo Bingauk,လ်ွပ္စစ္ပစၥည္းအေရာင္းဆိုင္,Electronic Store,ၾကယ္စင္လင္း,Kyal Sin Lin,18.231633,95.653573,095373094,
MR003,ပဲခူးတိုင္းေဒသၾကီး,Bago Division,က၀ျမိဳ႕,Kawa,လ်ွပ္စစ္ပစၥည္းအေရာင္းဆိုင္,Electronic Store,လင္းလင္းေအာင္,Lin Lin Aung,17.088598,96.456171,,
MR003,ပဲခူးတိုင္းေဒသၾကီး,Bago Division,က၀ျမိဳ႕,Kawa,လ်ွပ္စစ္ပစၥည္းအေရာင္းဆိုင္,Electronic Store,ရွုိင္း,Shine,17.088505,96.45571,09428149423,
MR003,ပဲခူးတိုင္းေဒသၾကီး,Bago Division,ေက်ာက္တံခါးျမိဳ႕,Kyauk Ta Ga,လ်ွပ္စစ္ပစၥည္းအေရာင္းဆိုင္,Electronic Store,ေအာင္တံခြန္,Aung Tagon,18.156365,96.611084,09400010304,
MR003,ပဲခူးတိုင္းေဒသၾကီး,Bago Division,ေက်ာက္တံခါးျမိဳ႕,Kyauk Ta Ga,လ်ွပ္စစ္ပစၥည္းအေရာင္းဆိုင္,Electronic Store,ဘုရင္,King,18.156856,96.611951,,
MR003,ပဲခူးတိုင္းေဒသၾကီး,Bago Division,ေက်ာက္တံခါးျမိဳ႕,Kyauk Ta Ga,လ်ွပ္စစ္ပစၥည္းအေရာင္းဆိုင္,Electronic Store,ေအာင္,Aung,18.155462,96.613008,09954922717,
MR003,ပဲခူးတိုင္းေဒသၾကီး,Bago Division,ေတာကၽြဲအင္းျမိဳ့,Taw Kyae Inn,လ်ွပ္စစ္ပစၥည္းအေရာင္းဆိုင္,Electronic Store,ျပည့္ျဖိဳးေအာင္,Pyae Phyo Aung,18.279289,96.526308,09428194394,
MR003,ပဲခူးတိုင္းေဒသၾကီး,Bago Division,ေတာကၽြဲအင္းျမိဳ့,Taw Kyae Inn,လ်ွပ္စစ္ပစၥည္းအေရာင္းဆိုင္,Electronic Store,ေအဂ်ီ,Agyi,18.276605,96.522014,,
MR003,ပဲခူးတိုင္းေဒသၾကီး,Bago Division,ျပည္ျမိဳ့,Pyay,လ်ွပ္စစ္ပစၥည္းအေရာင္းဆိုင္,Electronic Store,နိုင္,Naing,18.822763,95.216416,09423718483,
MR003,ပဲခူးတိုင္းေဒသၾကီး,Bago Division,ျပည္ျမိဳ့,Pyay,လ်ွပ္စစ္ပစၥည္းအေရာင္းဆိုင္,Electronic Store,ေကာင္း,Kaung,18.82109,95.234627,,
MR003,ပဲခူးတိုင္းေဒသၾကီး,Bago Division,ျပည္ျမိဳ့,Pyay,လ်ွပ္စစ္ပစၥည္းအေရာင္းဆိုင္,Electronic Store,ေအာင္ျမန္မာထြန္း,Aung Myanmar Htun,18.815775,95.250853,09456400669,
MR003,ပဲခူးတိုင္းေဒသၾကီး,Bago Division,ျပည္ျမိဳ့,Pyay,လ်ွပ္စစ္ပစၥည္းအေရာင္းဆိုင္,Electronic Store,ထိန္လင္း,Htein Linn,18.817948,95.2569174,09421061587,
MR003,ပဲခူးတိုင္းေဒသၾကီး,Bago Division,ျပည္ျမိဳ့,Pyay,လ်ွပ္စစ္ပစၥည္းအေရာင္းဆိုင္,Electronic Store,ေအာင္,Aung,18.818425,95.257362,0931446200,
MR003,ပဲခူးတိုင္းေဒသၾကီး,Bago Division,ျပည္ျမိဳ့,Pyay,လ်ွပ္စစ္ပစၥည္းအေရာင္းဆိုင္,Electronic Store,ဖိုးလမင္း,Phoe La Min,18.8175594,95.253511,09403406698,
MR003,ပဲခူးတိုင္းေဒသၾကီး,Bago Division,ျပည္ျမိဳ့,Pyay,လ်ွပ္စစ္ပစၥည္းအေရာင္းဆိုင္,Electronic Store,ေ၀ယံ,Wai Yan,18.8196477,95.2181709,05324040,
MR003,ပဲခူးတိုင္းေဒသၾကီး,Bago Division,ျပည္ျမိဳ့,Pyay,လ်ွပ္စစ္ပစၥည္းအေရာင္းဆိုင္,Electronic Store,ျမတ္နိုးသူ,Myat Noe Thu,18.823467,95.216698,09423718304,
MR003,ပဲခူးတိုင္းေဒသၾကီး,Bago Division,ျပည္ျမိဳ့,Pyay,လ်ွပ္စစ္ပစၥည္းအေရာင္းဆိုင္,Electronic Store,ထြန္းေတာက္,Htun Hauk,18.819214,95.222854,09796999961,
MR003,ပဲခူးတိုင္းေဒသၾကီး,Bago Division,ေရႊေတာင္ျမိဳ႕,Shwedaung,လ်ွပ္စစ္ပစၥည္းအေရာင္းဆိုင္,Electronic Store,ဂရင္းတက္ခ္,Green Tech,18.70262,95.210664,09975332232,
MR003,ပဲခူးတိုင္းေဒသၾကီး,Bago Division,ျဖဴးျမိဳ့,Pyu,လ်ွပ္စစ္ပစၥည္းအေရာင္းဆိုင္,Electronic Store,စံျဖဴ,San Phyu,18.482557,96.436694,09254361495,
MR003,ပဲခူးတိုင္းေဒသၾကီး,Bago Division,ျဖဴးျမိဳ့,Pyu,လ်ွပ္စစ္ပစၥည္းအေရာင္းဆိုင္,Electronic Store,ပီဒီ,PD,18.484495,96.435026,,
MR003,ပဲခူးတိုင္းေဒသၾကီး,Bago Division,ျဖဴးျမိဳ့,Pyu,လ်ွပ္စစ္ပစၥည္းအေရာင္းဆိုင္,Electronic Store,ကိုလာလူး,Ko Lar Lu,18.481205,96.43498,09976222991,
MR003,ပဲခူးတိုင္းေဒသၾကီး,Bago Division,ျဖဴးျမိဳ့,Pyu,လ်ွပ္စစ္ပစၥည္းျပဳျပင္ေရး,Electronic Service,ေမာ္ဒန္,Modern,18.46969,96.436652,09256208889,
MR003,ပဲခူးတိုင္းေဒသၾကီး,Bago Division,မုန္းျမိဳ့,Mon,လ်ွပ္စစ္ပစၥည္းျပဳျပင္ေရး,Electronic Service,စိုးမင္းဟိန္း,Soe Min Hein,18.528984,96.622811,09458021386,
MR003,ပဲခူးတိုင္းေဒသၾကီး,Bago Division,လက္ပံတန္းျမိဳ့,Letpadan,လ်ွပ္စစ္ပစၥည္းအေရာင္းဆိုင္,Electronic Store,ဆန္းစတား,Sun Star,17.78395,95.748446,05332371,
MR003,ပဲခူးတိုင္းေဒသၾကီး,Bago Division,လက္ပံတန္းျမိဳ့,Letpadan,လ်ွပ္စစ္ပစၥည္းအေရာင္းဆိုင္,Electronic Store,ေက်ာ္ေက်ာ္,Kyaw Kyaw,17.783206,95.749714,09978005199,
MR003,ပဲခူးတိုင္းေဒသၾကီး,Bago Division,အိုးသည္ကုန္းျမိဳ႕,O The Gon,လ်ွပ္စစ္ပစၥည္းအေရာင္းဆိုင္,Electronic Store,၀မ္းစတား,One Star,18.04039,95.692385,,
MR003,ပဲခူးတိုင္းေဒသၾကီး,Bago Division,အိုးသည္ကုန္းျမိဳ႕,O The Gon,လ်ွပ္စစ္ပစၥည္းအေရာင္းဆိုင္,Electronic Store,နိုင္းနိုင္း,99,18.042925,95.694448,09423668058,
MR003,ပဲခူးတိုင္းေဒသၾကီး,Bago Division,အုတ္ဖိုျမိဳ႕,Okpho,လ်ွပ္စစ္ပစၥည္းအေရာင္းဆိုင္,Electronic Store,ဧရာ,Ayar,18.135155,95.669059,,
MR003,ပဲခူးတိုင္းေဒသၾကီး,Bago Division,နတ္သလင္းျမိဳ႕,Nattalin,လ်ွပ္စစ္ပစၥည္းအေရာင္းဆိုင္,Electronic Store,ဇာနီ,Zarni,18.429948,95.549813,09974321301,
MR003,ပဲခူးတိုင္းေဒသၾကီး,Bago Division,နတ္သလင္းျမိဳ႕,Nattalin,လ်ွပ္စစ္ပစၥည္းအေရာင္းဆိုင္,Electronic Store,ေက်ာင္းဆရာ,Kyaung Sa Yar,18.429632,95.552539,09787996198,
MR003,ပဲခူးတိုင္းေဒသၾကီး,Bago Division,ေညာင္ေလးပင္ျမိဳ႕,Nyaunglebin,လ်ွပ္စစ္ပစၥည္းအေရာင္းဆိုင္,Electronic Store,ေအာ္တိုကင္း,Auto King,17.958516,96.719967,,
MR003,ပဲခူးတိုင္းေဒသၾကီး,Bago Division,ေညာင္ေလးပင္ျမိဳ႕,Nyaunglebin,လ်ွပ္စစ္ပစၥည္းအေရာင္းဆိုင္,Electronic Store,ေလလႈိင္း,Lae Llaing,17.9565687,96.7147772,09790172468,
MR003,ပဲခူးတိုင္းေဒသၾကီး,Bago Division,ေရႊက်င္ျမို့,Shwegyin,လ်ွပ္စစ္ပစၥည္းအေရာင္းဆိုင္,Electronic Store,ေဆာင္းနွင္းအိမ္,Saung Hnin Aein,17.929321,96.880675,09428013226,
MR003,ပဲခူးတိုင္းေဒသၾကီး,Bago Division,သံုးဆယ္ျမိဳ႕,Thonse,လ်ွပ္စစ္ပစၥည္းအေရာင္းဆိုင္,Electronic Store,ကိုညာသား,Ko Nyar Thar,17.624339,95.786761,,
MR003,ပဲခူးတိုင္းေဒသၾကီး,Bago Division,ဖဒိုျမိဳ႕,Phado,လ်ွပ္စစ္ပစၥည္းအေရာင္းဆိုင္,Electronic Store,ေအာင္သစၥာ,Aung Thitsar,18.036884,96.556211,09250212510,
MR003,ပဲခူးတိုင္းေဒသၾကီး,Bago Division,ဖဒိုျမိဳ႕,Phado,လ်ွပ္စစ္ပစၥည္းအေရာင္းဆိုင္,Electronic Store,အိုင္-တက္ခ္,i-Tech,18.037315,96.554117,09975220333,
MR003,ပဲခူးတိုင္းေဒသၾကီး,Bago Division,ဖဒိုျမိဳ႕,Phado,လ်ွပ္စစ္ပစၥည္းအေရာင္းဆိုင္,Electronic Store,စံျပ,San Pya,18.036991,96.55445,09790207625,
MR003,ပဲခူးတိုင္းေဒသၾကီး,Bago Division,ပဲႏြယ္ကုန္းျမိဳ႕,Penwegone,လ်ွပ္စစ္ပစၥည္းအေရာင္းဆိုင္,Electronic Store,ဘက္စ္ဘိုင္,Best Buy,18.224777,96.566132,09450043022,
MR003,ပဲခူးတိုင္းေဒသၾကီး,Bago Division,အုတ္တြင္းျမိဳ႕,Oktwin,လ်ွပ္စစ္ပစၥည္းအေရာင္းဆိုင္,Electronic Store,ပန္းကမၻာ(၂),Pan Gabar(2),18.828131,96.409831,,
MR003,ပဲခူးတိုင္းေဒသၾကီး,Bago Division,ေပါင္းတလည္ျမို႕,Paungdale`,လ်ွပ္စစ္ပစၥည္းအေရာင္းဆိုင္,Electronic Store,ေကာင္းျမတ္သူ,Kaung Myat Thu,18.850426,95.384892,09791183587,
MR003,ပဲခူးတိုင္းေဒသၾကီး,Bago Division,ေပါင္းတလည္ျမို႕,Paungdale`,လ်ွပ္စစ္ပစၥည္းအေရာင္းဆိုင္,Electronic Store,ေကာင္းထြန္းလင္း,Kaung Htun Lin,18.850815,95.384027,,
MR003,ပဲခူးတိုင္းေဒသၾကီး,Bago Division,ေပါင္းတည္ျမို႕,Paungde,လ်ွပ္စစ္ပစၥည္းအေရာင္းဆိုင္,Electronic Store,ဒီေက,DK,18.488696,95.506859,05338838,
MR003,ပဲခူးတိုင္းေဒသၾကီး,Bago Division,ေပါင္းတည္ျမို႕,Paungde,လ်ွပ္စစ္ပစၥည္းအေရာင္းဆိုင္,Electronic Store,၀င္းပပ,Win Pa Pa,18.490312,95.508175,05338240,
MR003,ပဲခူးတိုင္းေဒသၾကီး,Bago Division,ထန္းတပင္ျမို႕,Tantabin,လ်ွပ္စစ္ပစၥည္းအေရာင္းဆိုင္,Electronic Store,ေဆးဗားစတား,Silver Star,16.942163,96.024866,09763213022,
MR003,ပဲခူးတိုင္းေဒသၾကီး,Bago Division,ဇီးကုန္းျမို႕,Zigon,လ်ွပ္စစ္ပစၥည္းအေရာင္းဆိုင္,Electronic Store,ေကာင္းဟိန္း,Kaung Hein,18.338091,95.623435,05334379,
MR003,ပဲခူးတိုင္းေဒသၾကီး,Bago Division,သဲကုန္းျမိဳ႕,Thegon,လ်ွပ္စစ္ပစၥည္းအေရာင္းဆိုင္,Electronic Store,စံခ်ိန္သစ္,San Chain Thit,18.648358,95.415384,09975508499,
MR003,ပဲခူးတိုင္းေဒသၾကီး,Bago Division,ေပါင္းတည္ျမို႕,Paungde,ဓာတ္အားခြဲရံု,Electrical Substation,၃၃/၁၁ ဓာတ္အားေပးရံု,33kv/11kv Substation,18.485312,95.510772,05338014,
MR003,ပဲခူးတိုင္းေဒသၾကီး,Bago Division,မွတ္တိုင္ျမို႕,Hmattaing,ဓာတ္အားခြဲရံု,Electrical Substation,အမ္အီးပီအီး မွတ္တိုင္,MEPE Hmattaing,18.582291,95.530998,,
MR003,ပဲခူးတိုင္းေဒသၾကီး,Bago Division,ျပည္ျမိဳ့,Pyay,ဓာတ္အားခြဲရံု,Electrical Substation,ဂရင္းစတား,Green Star,18.824963,95.248448,092038284,
MR003,ပဲခူးတိုင္းေဒသၾကီး,Bago Division,သာယာကုန္း,Tha Ya Gon,ဓာတ္အားခြဲရံု,Electrical Substation,သာယာကုန္းဓာတ္အားေပးရံု,Thayagon Electricity Substation,18.089197,96.641515,,
MR003,ပဲခူးတိုင္းေဒသၾကီး,Bago Division,ေရႊေတာင္ျမိဳ႕,Shwedaung,ဓာတ္အားခြဲရံု,Electrical Substation,ေရႊေတာင္ဓာတ္အားေပးရံု,Shwedaung Substation,18.727817,95.228298,,
MR003,ပဲခူးတိုင္းေဒသၾကီး,Bago Division,ဒိုက္ဦးျမို႕,Daik U,ဓာတ္အားခြဲရံု,Electrical Substation,ေအာင္စိုးမိုး ထရန့္စ္ဖာ,Aung Soe Moe Transformer,17.784284,96.659593,,
MR003,ပဲခူးတိုင္းေဒသၾကီး,Bago Division,ဒိုက္ဦးျမို႕,Daik U,ဓာတ္အားခြဲရံု,Electrical Substation,သံတတား  ထရန့္စ္ဖာ,Than Ta Dar Transformer,17.791014,96.663647,,
MR003,ပဲခူးတိုင္းေဒသၾကီး,Bago Division,ဒိုက္ဦးျမို႕,Daik U,ဓာတ္အားခြဲရံု,Electrical Substation,ရံုးတတား  ထရန့္စ္ဖာ,Yone Ta Dar Transformer,17.784284,96.659593,,
MR003,ပဲခူးတိုင္းေဒသၾကီး,Bago Division,ဒိုက္ဦးျမို႕,Daik U,ဓာတ္အားခြဲရံု,Electrical Substation,၇ ရပ္ကြက္  ထရန့္စ္ဖာ,Khun Hnit Transformer,17.799923,96.66595,,
MR003,ပဲခူးတိုင္းေဒသၾကီး,Bago Division,ဒိုက္ဦးျမို႕,Daik U,ဓာတ္အားခြဲရံု,Electrical Substation,ဒရယ္မီးတာဆံု ထရန့္စ္ဖာ,Da Yel Mee Tarson Transformer,17.805745,96.671373,09777747418,
MR003,ပဲခူးတိုင္းေဒသၾကီး,Bago Division,ေတာင္ငူျမို႕,Taungoo,ေရအားလွ်ပ္စစ္ဓာတ္အားေပးစက္ရံု,Hydroelectric Power Plant,ေသာက္ေရခပ္(၂),Thauk Ye Khat No.(2),18.911165,96.61612,01222422,
MR003,ပဲခူးတိုင္းေဒသၾကီး,Bago Division,ေက်ာက္တံခါးျမိဳ႕,Kyauk Ta Ga,ေရအားလွ်ပ္စစ္ဓာတ္အားေပးစက္ရံု,Hydroelectric Power Plant,ရဲႏြယ္,Yenwe,18.08685,96.445965,,
MR003,ပဲခူးတိုင္းေဒသၾကီး,Bago Division,ေတာင္ငူျမို႕,Taungoo,ေရအားလွ်ပ္စစ္ဓာတ္အားေပးစက္ရံု,Hydroelectric Power Plant,ခေပါင္း,Kha Baung,18.898143,96.222382,,
MR003,ပဲခူးတိုင္းေဒသၾကီး,Bago Division,ျဖဴးျမိဳ့,Pyu,ေရအားလွ်ပ္စစ္ဓာတ္အားေပးစက္ရံု,Hydroelectric Power Plant,ျဖူးေခ်ာင္း,Phyu Chaung,18.506146,96.353704,,
MR003,ပဲခူးတိုင္းေဒသၾကီး,Bago Division,ပဲခူးျမို႕,Bago,ေရအားလွ်ပ္စစ္ဓာတ္အားေပးစက္ရံု,Hydroelectric Power Plant,ေဇာင္းတူ,Zaungtu,17.754641,96.200508,,
MR003,ပဲခူးတိုင္းေဒသၾကီး,Bago Division,ေရႊက်င္ျမို့,Shwegyin,ေရအားလွ်ပ္စစ္ဓာတ္အားေပးစက္ရံု,Hydroelectric Power Plant,ေရႊက်င္,Shwegyin,17.968286,96.933004,,
MR003,ပဲခူးတိုင္းေဒသၾကီး,Bago Division,ဒိုက္ဦးျမို႕,Daik U,ျမိဳ႕နယ္လ်ွပ္စစ္အင္ဂ်င္နီယာရံုး,Electrical Power Office,ဒိုက္ဦးလွ်ပ္စစ္ရံုး,Daik U Electrical Power Office,17.803775,96.673062,05240013,
MR003,ပဲခူးတိုင္းေဒသၾကီး,Bago Division,ေပါင္းတည္ျမို႕,Paungde,ျမိဳ႕နယ္လ်ွပ္စစ္အင္ဂ်င္နီယာရံုး,Electrical Power Office,ေပါင္းတည္လွ်ပ္စစ္ရံုး,Paungde Electrical Power Office,18.485627,95.511302,,
MR004,မေကြးတိုင္းေဒသႀကီး,Magway Division,မေကြးျမို႕,Magway,လ်ွပ္စစ္ပစၥည္းအေရာင္းဆိုင္,Electronic Store,မေကြး,Magway,20.159552,94.92199,9694702392,
MR004,မေကြးတိုင္းေဒသႀကီး,Magway Division,မေကြးျမို႕,Magway,လ်ွပ္စစ္ပစၥည္းအေရာင္းဆိုင္,Electronic Store,ဇာမဏိ,Zarmani,20.193307,94.927488,9965145235,
MR004,မေကြးတိုင္းေဒသႀကီး,Magway Division,မေကြးျမို႕,Magway,လ်ွပ္စစ္ပစၥည္းအေရာင္းဆိုင္,Electronic Store,၀င္း,Win,20.151945,94.93434,95343814,
MR004,မေကြးတိုင္းေဒသႀကီး,Magway Division,မေကြးျမို႕,Magway,လ်ွပ္စစ္ပစၥည္းအေရာင္းဆိုင္,Electronic Store,ေအာင္ဇာျခည္,Aung Zar Chi,20.144414,94.92589,,
MR004,မေကြးတိုင္းေဒသႀကီး,Magway Division,မေကြးျမို႕,Magway,လ်ွပ္စစ္ပစၥည္းအေရာင္းဆိုင္,Electronic Store,နီနီ,Ni Ni,20.151681,94.921648,,
MR004,မေကြးတိုင္းေဒသႀကီး,Magway Division,မေကြးျမို႕,Magway,လ်ွပ္စစ္ပစၥည္းအေရာင္းဆိုင္,Electronic Store,စြမ္း,Swam,20.144066,94.932921,9401552755,
MR004,မေကြးတိုင္းေဒသႀကီး,Magway Division,မေကြးျမို႕,Magway,လ်ွပ္စစ္ပစၥည္းအေရာင္းဆိုင္,Electronic Store,စိန္ေရႊ,Sein Shwe,20.150815,94.927447,9898930098,
MR004,မေကြးတိုင္းေဒသႀကီး,Magway Division,မေကြးျမို႕,Magway,လ်ွပ္စစ္ပစၥည္းအေရာင္းဆိုင္,Electronic Store,မ်ိုးသိန္း,Myo Thein,20.147546,94.946013,9965343076,
MR004,မေကြးတိုင္းေဒသႀကီး,Magway Division,မေကြးျမို႕,Magway,လ်ွပ္စစ္ပစၥည္းအေရာင္းဆိုင္,Electronic Store,ေကာင္းျမတ္,Kaung Myat,20.150993,94.939835,6327467,
MR004,မေကြးတိုင္းေဒသႀကီး,Magway Division,မေကြးျမို႕,Magway,လ်ွပ္စစ္ပစၥည္းအေရာင္းဆိုင္,Electronic Store,နိုင္လင္းေမာင္,Naing Lin Maung,20.142347,94.937043,9401570262,
MR004,မေကြးတိုင္းေဒသႀကီး,Magway Division,မေကြးျမို႕,Magway,လ်ွပ္စစ္ပစၥည္းအေရာင္းဆိုင္,Electronic Store,ထိုက္တန္,Hteik Tan,20.182931,94.872032,9401570262,
MR004,မေကြးတိုင္းေဒသႀကီး,Magway Division,မေကြးျမို႕,Magway,လ်ွပ္စစ္ပစၥည္းအေရာင္းဆိုင္,Electronic Store,ေဒၚလာ,Dollar,20.150641,94.923381,,
MR004,မေကြးတိုင္းေဒသႀကီး,Magway Division,မေကြးျမို႕,Magway,လ်ွပ္စစ္ပစၥည္းအေရာင္းဆိုင္,Electronic Store,ျမတ္ကို,Myat Ko,20.151051,94.920381,943152497,
MR004,မေကြးတိုင္းေဒသႀကီး,Magway Division,ေခ်ာက္ျမို့,Chauk,လ်ွပ္စစ္ပစၥည္းအေရာင္းဆိုင္,Electronic Store,မင္းသူ,Min Thu,20.892922,94.815307,95042785,
MR004,မေကြးတိုင္းေဒသႀကီး,Magway Division,ေခ်ာက္ျမို့,Chauk,လ်ွပ္စစ္ပစၥည္းအေရာင္းဆိုင္,Electronic Store,ျဖိုးသုခ,Phyo Thu Kha,20.895002,94.817005,95177288,
MR004,မေကြးတိုင္းေဒသႀကီး,Magway Division,ေခ်ာက္ျမို့,Chauk,လ်ွပ္စစ္ပစၥည္းအေရာင္းဆိုင္,Electronic Store,ဟိန္းထက္ေအာင္,Hein Htet Aung,20.899458,94.817802,9400462772,
MR004,မေကြးတိုင္းေဒသႀကီး,Magway Division,ေခ်ာက္ျမို့,Chauk,လ်ွပ္စစ္ပစၥည္းအေရာင္းဆိုင္,Electronic Store,ခိုင္,Khaing,20.893295,94.820917,943008346,
MR004,မေကြးတိုင္းေဒသႀကီး,Magway Division,မင္းဘူးျမို႕,MinBu,လ်ွပ္စစ္ပစၥည္းအေရာင္းဆိုင္,Electronic Store,ေကအမ္ေက,KMK,20.181573,94.8751,9401636175,
MR004,မေကြးတိုင္းေဒသႀကီး,Magway Division,မင္းဘူးျမို႕,MinBu,လ်ွပ္စစ္ပစၥည္းအေရာင္းဆိုင္,Electronic Store,ထိုက္တန္,Hteik Tan,20.171373,94.870212,9977273110,
MR004,မေကြးတိုင္းေဒသႀကီး,Magway Division,မင္းဘူးျမို႕,MinBu,လ်ွပ္စစ္ပစၥည္းအေရာင္းဆိုင္,Electronic Store,ထိုက္တန္,Hteik Tan,20.182341,94.871472,9976437843,
MR004,မေကြးတိုင္းေဒသႀကီး,Magway Division,ပြင့္ျဖူျမို့,Pwint Phyu,လ်ွပ္စစ္ပစၥည္းအေရာင္းဆိုင္,Electronic Store,ခ်မ္းျငိမ္း,Chan Nyein,20.365075,94.670793,9401572082,
MR004,မေကြးတိုင္းေဒသႀကီး,Magway Division,ပခုကၠူျမို႕,Pakokku,လ်ွပ္စစ္ပစၥည္းအေရာင္းဆိုင္,Electronic Store,ဖူဂ်ီ,Fuji,21.336598,95.078478,9772221050,
MR004,မေကြးတိုင္းေဒသႀကီး,Magway Division,ပခုကၠူျမို႕,Pakokku,လ်ွပ္စစ္ပစၥည္းအေရာင္းဆိုင္,Electronic Store,ေတာ့ပ္,Top,21.339871,95.08,9429325295,
MR004,မေကြးတိုင္းေဒသႀကီး,Magway Division,ပခုကၠူျမို႕,Pakokku,လ်ွပ္စစ္ပစၥည္းအေရာင္းဆိုင္,Electronic Store,ေရႊသီရိ,Shwe Thiri,21.338703,95.088547,9250250756,
MR004,မေကြးတိုင္းေဒသႀကီး,Magway Division,ပခုကၠူျမို႕,Pakokku,လ်ွပ္စစ္ပစၥည္းအေရာင္းဆိုင္,Electronic Store,ေဇာ္မင္း,Zaw MIn,21.337214,95.099744,92302139,
MR004,မေကြးတိုင္းေဒသႀကီး,Magway Division,ပခုကၠူျမို႕,Pakokku,လ်ွပ္စစ္ပစၥည္းအေရာင္းဆိုင္,Electronic Store,ေဇာ္,Zaw,21.335758,95.088895,,
MR004,မေကြးတိုင္းေဒသႀကီး,Magway Division,ပခုကၠူျမို႕,Pakokku,လ်ွပ္စစ္ပစၥည္းအေရာင္းဆိုင္,Electronic Store,ေရႊပိုင္,Shwe pie,21.335276,95.078451,,
MR004,မေကြးတိုင္းေဒသႀကီး,Magway Division,ပခုကၠူျမို႕,Pakokku,လ်ွပ္စစ္ပစၥည္းအေရာင္းဆိုင္,Electronic Store,လႈိင္ဓန,Hline Dana,21.335447,95.074351,9899981335,
MR004,မေကြးတိုင္းေဒသႀကီး,Magway Division,ဆိပ္ျဖူျမို့,Seik Phyu,လ်ွပ္စစ္ပစၥည္းအေရာင္းဆိုင္,Electronic Store,၀င္းမိုး,Win Moe,20.93751,94.788056,9783609969,
MR004,မေကြးတိုင္းေဒသႀကီး,Magway Division,ျမိုင္ျမို႕,Myaing,လ်ွပ္စစ္ပစၥည္းအေရာင္းဆိုင္,Electronic Store,ရတနာ၀င္း,Yadanar WIn,21.612988,94.853862,9790169699,
MR004,မေကြးတိုင္းေဒသႀကီး,Magway Division,ျမိုင္ျမို႕,Myaing,လ်ွပ္စစ္ပစၥည္းအေရာင္းဆိုင္,Electronic Store,ႏွလံုးလွ,Hna Lone Hla,21.612765,94.854249,6240104,
MR004,မေကြးတိုင္းေဒသႀကီး,Magway Division,ေပါက္ျမို့,Pauk,လ်ွပ္စစ္ပစၥည္းအေရာင္းဆိုင္,Electronic Store,ေရႊမင္းသား,Shwe MinThar,21.449245,94.47445,,
MR004,မေကြးတိုင္းေဒသႀကီး,Magway Division,ဂန့္ေဂါျမို႕,GanGaw,လ်ွပ္စစ္ပစၥည္းအေရာင္းဆိုင္,Electronic Store,လင္းေရာင္ရွင္း,Lin Yaung Shin,22.1625544,94.129565,9442001028,
MR004,မေကြးတိုင္းေဒသႀကီး,Magway Division,ေအာင္လံျမို႕,AungLan,လ်ွပ္စစ္ပစၥည္းအေရာင္းဆိုင္,Electronic Store,စိန္ေဒၚလာ,Sein Dollar,19.368837,95.212196,,
MR004,မေကြးတိုင္းေဒသႀကီး,Magway Division,ေအာင္လံျမို႕,AungLan,လ်ွပ္စစ္ပစၥည္းအေရာင္းဆိုင္,Electronic Store,ေဒၚလာ,Dollar,19.375411,95.212112,,
MR004,မေကြးတိုင္းေဒသႀကီး,Magway Division,ေအာင္လံျမို႕,AungLan,လ်ွပ္စစ္ပစၥည္းအေရာင္းဆိုင္,Electronic Store,သီရိေဂဟာ,Thiri Gayhar,19.372878,95.211703,69200217,
MR004,မေကြးတိုင္းေဒသႀကီး,Magway Division,ေအာင္လံျမို႕,AungLan,လ်ွပ္စစ္ပစၥည္းအေရာင္းဆိုင္,Electronic Store,ဇိုင္နူေဇာ္လြင္,Zainul Zaw Lwin,19.360279,95.21884,9256332786,
MR004,မေကြးတိုင္းေဒသႀကီး,Magway Division,ေအာင္လံျမို႕,AungLan,လ်ွပ္စစ္ပစၥည္းအေရာင္းဆိုင္,Electronic Store,အိမ္ျဖူေတာ္,Aein Phyu Taw,19.345461,95.217149,9260007311,
MR005,မႏၱေလးတိုင္းေဒသႀကီး,Mandalay Division,ျပင္ဦးလြင္ျမိဳ ့,Pyin Oo Lwin,လ်ွပ္စစ္ပစၥည္းအေရာင္းဆိုင္,Electronic Store,ေရႊသီဟ,Shwe Thiha ,21.972377,96.404366,09 790 160288,
MR005,မႏၱေလးတိုင္းေဒသႀကီး,Mandalay Division,ျပင္ဦးလြင္ျမိဳ ့,Pyin Oo Lwin,လ်ွပ္စစ္ပစၥည္းအေရာင္းဆိုင္,Electronic Store,ပိေတာက္၀ါ,Padauk War,22.026411,96.465553,085 224 56,
MR005,မႏၱေလးတိုင္းေဒသႀကီး,Mandalay Division,ျပင္ဦးလြင္ျမိဳ ့,Pyin Oo Lwin,လ်ွပ္စစ္ပစၥည္းအေရာင္းဆိုင္,Electronic Store,ေငြစႏၵာ,Ngwe Sandar,22.026479,96.465588,09 402 559 955,
MR005,မႏၱေလးတိုင္းေဒသႀကီး,Mandalay Division,ျပင္ဦးလြင္ျမိဳ ့,Pyin Oo Lwin,လ်ွပ္စစ္ပစၥည္းအေရာင္းဆိုင္,Electronic Store,အန္စတား,NSTAR,22.032576,96.470312,085 28366,
MR005,မႏၱေလးတိုင္းေဒသႀကီး,Mandalay Division,ျပင္ဦးလြင္ျမိဳ ့,Pyin Oo Lwin,လ်ွပ္စစ္ပစၥည္းအေရာင္းဆိုင္,Electronic Store,ေရႊလ၀င္း,Shwe La Win,22.028687,96.457472,09 964334882,
MR005,မႏၱေလးတိုင္းေဒသႀကီး,Mandalay Division,ျပင္ဦးလြင္ျမိဳ ့,Pyin Oo Lwin,လ်ွပ္စစ္ပစၥည္းအေရာင္းဆိုင္,Electronic Store,ဆုလာဒ္,ShuLat,21.984707,96.430699,09 798618382,
MR005,မႏၱေလးတိုင္းေဒသႀကီး,Mandalay Division,ျပင္ဦးလြင္ျမိဳ ့,Pyin Oo Lwin,လ်ွပ္စစ္ပစၥည္းအေရာင္းဆိုင္,Electronic Store,ေအာင္သရဖူ,Aung Tharaphu,21.894834,96.357801,,
MR005,မႏၱေလးတိုင္းေဒသႀကီး,Mandalay Division,ျပင္ဦးလြင္ျမိဳ ့,Pyin Oo Lwin,လ်ွပ္စစ္ပစၥည္းအေရာင္းဆိုင္,Electronic Store,ေငြဇင္ေယာ္,Ngwe Zin Yaw,21.89368,96.35823,,
MR005,မႏၱေလးတိုင္းေဒသႀကီး,Mandalay Division,ျပင္ဦးလြင္ျမိဳ ့,Pyin Oo Lwin,လ်ွပ္စစ္ပစၥည္းအေရာင္းဆိုင္,Electronic Store,လိုက္တ္,Light,22.033831,96.492717,09 40252 2387,
MR005,မႏၱေလးတိုင္းေဒသႀကီး,Mandalay Division,ျပင္ဦးလြင္ျမိဳ ့,Pyin Oo Lwin,လ်ွပ္စစ္ပစၥည္းအေရာင္းဆိုင္,Electronic Store,ထြန္းေတာက္ႀကယ္,Htun Tauk Kyal,22.032197,96.474656,09 256 113 381,
MR005,မႏၱေလးတိုင္းေဒသႀကီး,Mandalay Division,ျပင္ဦးလြင္ျမိဳ ့,Pyin Oo Lwin,လ်ွပ္စစ္ပစၥည္းအေရာင္းဆိုင္,Electronic Store,နက္ပြိဳင့္,Net Point,22.038432,96.489816,09 961 178881,
MR005,မႏၱေလးတိုင္းေဒသႀကီး,Mandalay Division,ျပင္ဦးလြင္ျမိဳ ့,Pyin Oo Lwin,လ်ွပ္စစ္ပစၥည္းအေရာင္းဆိုင္,Electronic Service,စိုးကမာၻ,Soe Kabar ,21.947242,96.397398,09 791 142354,
MR005,မႏၱေလးတိုင္းေဒသႀကီး,Mandalay Division,ျပင္ဦးလြင္ျမိဳ ့,Pyin Oo Lwin,လ်ွပ္စစ္ပစၥည္းအေရာင္းဆိုင္,Electronic Store,ဘိုဘိုရိုင္,Bo Bo Rai,22.074165,96.507831,09 777 701948,
MR005,မႏၱေလးတိုင္းေဒသႀကီး,Mandalay Division,ျပင္ဦးလြင္ျမိဳ ့,Pyin Oo Lwin,လ်ွပ္စစ္ပစၥည္းအေရာင္းဆိုင္,Electronic Store,စည္းလံုးမႈ,Unity,22.0286,96.464442,09 204 4451,
MR005,မႏၱေလးတိုင္းေဒသႀကီး,Mandalay Division,ျပင္ဦးလြင္ျမိဳ ့,Pyin Oo Lwin,လ်ွပ္စစ္ပစၥည္းအေရာင္းဆိုင္,Electronic Store,ထူး,Htoo,21.896052,96.35849,09 970 868734,
MR005,မႏၱေလးတိုင္းေဒသႀကီး,Mandalay Division,ျပင္ဦးလြင္ျမိဳ ့,Pyin Oo Lwin,လ်ွပ္စစ္ပစၥည္းအေရာင္းဆိုင္,Electronic Store,ေက်ာ္,Kyaw,22.024795,96.46384,,
MR005,မႏၱေလးတိုင္းေဒသႀကီး,Mandalay Division,ျပင္ဦးလြင္ျမိဳ ့,Pyin Oo Lwin,လ်ွပ္စစ္ပစၥည္းအေရာင္းဆိုင္,Electronic Store,နွင္းဆီ,Rose,22.027638,96.464641,085 23 047,
MR005,မႏၱေလးတိုင္းေဒသႀကီး,Mandalay Division,ျပင္ဦးလြင္ျမိဳ ့,Pyin Oo Lwin,လ်ွပ္စစ္ပစၥည္းအေရာင္းဆိုင္,Electronic Store,ေရာင္ျပန္,Yaung Pyan,22.026731,96.462829,09 785 232937,
MR005,မႏၱေလးတိုင္းေဒသႀကီး,Mandalay Division,ျပင္ဦးလြင္ျမိဳ ့,Pyin Oo Lwin,ဓာတ္အားခြဲရံု,Electrical Substation,ေဒးမိသားစု,Dey Family,22.025745,96.467045,09 42228 4118,
MR005,မႏၱေလးတိုင္းေဒသႀကီး,Mandalay Division,ျပင္ဦးလြင္ျမိဳ ့,Pyin Oo Lwin,လ်ွပ္စစ္ပစၥည္းျပဳျပင္ေရး,Electronic Service,ေရာင္နီဦး,Yaung Ni Oo,22.029952,96.495496,,
MR005,မႏၱေလးတိုင္းေဒသႀကီး,Mandalay Division,ျပင္ဦးလြင္ျမိဳ ့,Pyin Oo Lwin,လ်ွပ္စစ္ပစၥည္းကုမၸဏီ,Electronic Security Co.Ltd,လူးစစ္,LUSiS,22.025089,96.488737,09 509 4247,
MR005,မႏၱေလးတိုင္းေဒသႀကီး,Mandalay Division,ပုသိမ္ႀကီးျမိဳ ့,Patheingyi,ဓာတ္အားခြဲရံု,Electrical Substation,လ်ွပ္စစ္နွင့္၀န္ႀကီးဌာန,Electronic and Ministry,22.002025,96.163391,,
MR005,မႏၱေလးတိုင္းေဒသႀကီး,Mandalay Division,ပုသိမ္ႀကီးျမိဳ ့,Patheingyi,လ်ွပ္စစ္ပစၥည္းအေရာင္းဆိုင္,Electronic Store,စကိုင္း,SKY,21.99727,96.160293,09 44400 7448,
MR005,မႏၱေလးတိုင္းေဒသႀကီး,Mandalay Division,ပုသိမ္ႀကီးျမိဳ ့,Patheingyi,လ်ွပ္စစ္ပစၥည္းအေရာင္းဆိုင္,Electronic Store,ရႈိင္း,Shine,21.989208,96.157333,09 696 933245,
MR005,မႏၱေလးတိုင္းေဒသႀကီး,Mandalay Division,ပုသိမ္ႀကီးျမိဳ ့,Patheingyi,လ်ွပ္စစ္ပစၥည္းအေရာင္းဆိုင္,Electronic Store,ဟိန္း,Hein,21.989193,96.159544,09 40004 3213,
MR005,မႏၱေလးတိုင္းေဒသႀကီး,Mandalay Division,ပုသိမ္ႀကီးျမိဳ ့,Patheingyi,လ်ွပ္စစ္ပစၥည္းအေရာင္းဆိုင္,Electronic Store,ပရိုအက္တစ္,PROACTIVE,21.991898,96.1582146,09 91023120,
MR005,မႏၱေလးတိုင္းေဒသႀကီး,Mandalay Division,ပုသိမ္ႀကီးျမိဳ ့,Patheingyi,လ်ွပ္စစ္ပစၥည္းအေရာင္းဆိုင္,Electronic Store,ထိပ္တန္း,HtakeTan,21.991172,96.158067,09 973 008228,
MR005,မႏၱေလးတိုင္းေဒသႀကီး,Mandalay Division,ခ်မ္းျမသာစည္ျမိဳ ့,ChanMyaThaZi,ျမိဳ ့နယ္လ်ွပ္စစ္အင္ဂ်င္နီယာရံုး,Electrical Power Office,လ်ွပ္စစ္ရံုး,Electric Office,21.919308,96.131622,,
MR005,မႏၱေလးတိုင္းေဒသႀကီး,Mandalay Division,ခ်မ္းျမသာစည္ျမိဳ ့,ChanMyaThaZi,ျမိဳ ့နယ္လ်ွပ္စစ္အင္ဂ်င္နီယာရံုး,Electrical Power Office,ခ်မ္းေျမ့သာစည္လ်ွပ္စစ္ရံုး,ChanMyaTharZi EPC ,21.928696,96.11617,09 431 01787,
MR005,မႏၱေလးတိုင္းေဒသႀကီး,Mandalay Division,ခ်မ္းျမသာစည္ျမိဳ ့,ChanMyaThaZi,လ်ွပ္စစ္ပစၥည္းျပဳျပဳင္ေရး,Electronic Service,ႀကည္္ခိုင္ထြန္း,KyiKhineTun,21.936776,96.110197,09 44103 8155,
MR005,မႏၱေလးတိုင္းေဒသႀကီး,Mandalay Division,ခ်မ္းျမသာစည္ျမိဳ ့,ChanMyaThaZi,လ်ွပ္စစ္ပစၥည္းျပဳျပဳင္ေရး,Electronic Service,လမင္းသာ,LaMinThar,21.936924,96.104536,09 259 607 205,
MR005,မႏၱေလးတိုင္းေဒသႀကီး,Mandalay Division,ခ်မ္းျမသာစည္ျမိဳ ့,ChanMyaThaZi,လ်ွပ္စစ္ပစၥည္းျပဳျပဳင္ေရး,Electronic Service,နီယြန္,NiYon,21.934327,96.106246,09 978 501134,
MR005,မႏၱေလးတိုင္းေဒသႀကီး,Mandalay Division,ခ်မ္းျမသာစည္ျမိဳ ့,ChanMyaThaZi,လ်ွပ္စစ္ပစၥည္းအေရာင္းဆိုင္,Electronic Store,ဆိုလာ,Solar,21.933187,96.109247,09 42680 2461,
MR005,မႏၱေလးတိုင္းေဒသႀကီး,Mandalay Division,ခ်မ္းျမသာစည္ျမိဳ ့,ChanMyaThaZi,လ်ွပ္စစ္ပစၥည္းအေရာင္းဆိုင္,Electronic Store,သန္းထိုက္ေအာင္,Than Htike Aung,21.900675,96.107935,09 261 337 559,
MR005,မႏၱေလးတိုင္းေဒသႀကီး,Mandalay Division,ခ်မ္းျမသာစည္ျမိဳ ့,ChanMyaThaZi,လ်ွပ္စစ္ပစၥည္းအေရာင္းဆိုင္,Electronic Store,ဖိလစ္,Philips,21.950493,96.111139,09 44231 1169,
MR005,မႏၱေလးတိုင္းေဒသႀကီး,Mandalay Division,ခ်မ္းျမသာစည္ျမိဳ ့,ChanMyaThaZi,လ်ွပ္စစ္ပစၥည္းအေရာင္းဆိုင္,Electronic Store,ရွိုင္းမြန္း,Shine Moon,21.941089,96.106264,09 790 130187,
MR005,မႏၱေလးတိုင္းေဒသႀကီး,Mandalay Division,ခ်မ္းျမသာစည္ျမိဳ ့,ChanMyaThaZi,လ်ွပ္စစ္ပစၥည္းအေရာင္းဆိုင္,Electronic Store,လင္းထက္လ်ွပ္စစ္,Lin Htet Electronic,21.944786,96.076779,09 42025 3253,
MR005,မႏၱေလးတိုင္းေဒသႀကီး,Mandalay Division,ခ်မ္းျမသာစည္ျမိဳ ့,ChanMyaThaZi,လ်ွပ္စစ္ပစၥည္းအေရာင္းဆိုင္,Electronic Store,ဂရင္းလ်ွပ္စစ္,Green Electronic Store,21.941761,96.133738,09 765 406747,
MR005,မႏၱေလးတိုင္းေဒသႀကီး,Mandalay Division,ခ်မ္းျမသာစည္ျမိဳ ့,ChanMyaThaZi,လ်ွပ္စစ္ပစၥည္းအေရာင္းဆိုင္,Electronic Store,ခိုင္ေရႊ၀ါ,Khaing Shwe War Electric Shop,21.934884,96.10917,09 263 120 005,
MR005,မႏၱေလးတိုင္းေဒသႀကီး,Mandalay Division,ခ်မ္းျမသာစည္ျမိဳ ့,ChanMyaThaZi,လ်ွပ္စစ္ပစၥည္းအေရာင္းဆိုင္,Electronic Store,မ်ိဳးသိန္း,MT,21.942637,96.09311,02 200 0075,
MR005,မႏၱေလးတိုင္းေဒသႀကီး,Mandalay Division,ခ်မ္းျမသာစည္ျမိဳ ့,ChanMyaThaZi,လ်ွပ္စစ္ပစၥည္းအေရာင္းဆိုင္,Electronic Store,ေအာင္,Aung,21.933138,96.108859,02 82 082,
MR005,မႏၱေလးတိုင္းေဒသႀကီး,Mandalay Division,ခ်မ္းျမသာစည္ျမိဳ ့,ChanMyaThaZi,လ်ွပ္စစ္ပစၥည္းအေရာင္းဆိုင္,Electronic Store,ေတာ့လိုက္,Top Light,21.927501,96.112191,09 44102 0038,
MR005,မႏၱေလးတိုင္းေဒသႀကီး,Mandalay Division,ခ်မ္းျမသာစည္ျမိဳ ့,ChanMyaThaZi,လ်ွပ္စစ္ပစၥည္းအေရာင္းဆိုင္,Electronic Store,ကုိခင္ေဇာ္,Ko Khin Zaw,21.933121,96.109928,02 80 764,
MR005,မႏၱေလးတိုင္းေဒသႀကီး,Mandalay Division,ခ်မ္းျမသာစည္ျမိဳ ့,ChanMyaThaZi,လ်ွပ္စစ္ပစၥည္းအေရာင္းဆိုင္,Electronic Store,ခင္ဦးကမၻာကုမၸဏီ,"Khin Oo Gabar Co.,Ltd",21.933142,96.10881,02 82 082,
MR005,မႏၱေလးတိုင္းေဒသႀကီး,Mandalay Division,ခ်မ္းျမသာစည္ျမိဳ ့,ChanMyaThaZi,လ်ွပ္စစ္ပစၥည္းအေရာင္းဆိုင္,Electronic Store,လက္ခ်္မီး,Laxmi,21.931321,96.107913,,
MR005,မႏၱေလးတိုင္းေဒသႀကီး,Mandalay Division,ခ်မ္းျမသာစည္ျမိဳ ့,ChanMyaThaZi,လ်ွပ္စစ္ပစၥည္းအေရာင္းဆိုင္,Electronic Store,ေရာင္ျခည္သစ္,Yaung Chi Thit,21.922068,96.123538,,
MR005,မႏၱေလးတိုင္းေဒသႀကီး,Mandalay Division,ခ်မ္းျမသာစည္ျမိဳ ့,ChanMyaThaZi,လ်ွပ္စစ္ပစၥည္းအေရာင္းဆိုင္,Electronic Store,ရႈိင္း,Shine,21.920878,96.12326,09 40365 5696,
MR005,မႏၱေလးတိုင္းေဒသႀကီး,Mandalay Division,ခ်မ္းျမသာစည္ျမိဳ ့,ChanMyaThaZi,လ်ွပ္စစ္ပစၥည္းအေရာင္းဆိုင္,Electronic Store,ေမာ္ဒန္,Modern,21.923404,96.12186,09 798 655330,
MR005,မႏၱေလးတိုင္းေဒသႀကီး,Mandalay Division,ခ်မ္းျမသာစည္ျမိဳ ့,ChanMyaThaZi,လ်ွပ္စစ္ပစၥည္းအေရာင္းဆိုင္,Electronic Store,နဂါး၂,Dragon II,21.938602,96.09758,09 767 677102,
MR005,မႏၱေလးတိုင္းေဒသႀကီး,Mandalay Division,ခ်မ္းျမသာစည္ျမိဳ ့,ChanMyaThaZi,လ်ွပ္စစ္ပစၥည္းအေရာင္းဆိုင္,Electronic Store,တကၠဳမုန,"Takumura(Myanmar)Technology Co.,Ltd",21.944125,96.076735,09 767 665368,
MR005,မႏၱေလးတိုင္းေဒသႀကီး,Mandalay Division,ခ်မ္းျမသာစည္ျမိဳ ့,ChanMyaThaZi,လ်ွပ္စစ္ပစၥည္းအေရာင္းဆိုင္,Electronic Store,ေကာင္းမင္း,Kaung Min,21.943314,96.074799,09 431 00908,
MR005,မႏၱေလးတိုင္းေဒသႀကီး,Mandalay Division,ခ်မ္းျမသာစည္ျမိဳ ့,ChanMyaThaZi,လ်ွပ္စစ္ပစၥည္းအေရာင္းဆိုင္,Electronic Store,မိုးျမင့္စံ,Moe Myint San,21.94366,96.084851,09 44870 0870,
MR005,မႏၱေလးတိုင္းေဒသႀကီး,Mandalay Division,ခ်မ္းျမသာစည္ျမိဳ ့,ChanMyaThaZi,လ်ွပ္စစ္ပစၥည္းအေရာင္းဆိုင္,Electronic Store,နီရြန္အလင္း,Neo Light,21.946049,96.085604,09 257 205 111,
MR005,မႏၱေလးတိုင္းေဒသႀကီး,Mandalay Division,ခ်မ္းျမသာစည္ျမိဳ ့,ChanMyaThaZi,လ်ွပ္စစ္ပစၥည္းအေရာင္းဆိုင္,Electronic Store,စိမ္းနုေ၀,Sein Nu Wai,21.953376,96.085512,09 256 119 176,
MR005,မႏၱေလးတိုင္းေဒသႀကီး,Mandalay Division,ခ်မ္းျမသာစည္ျမိဳ ့,ChanMyaThaZi,လ်ွပ္စစ္ပစၥည္းအေရာင္းဆိုင္,Electronic Store,စိုးစိုး,Soe Soe,21.939281,96.098886,09 44420 6604,
MR005,မႏၱေလးတိုင္းေဒသႀကီး,Mandalay Division,ခ်မ္းျမသာစည္ျမိဳ ့,ChanMyaThaZi,လ်ွပ္စစ္ပစၥည္းအေရာင္းဆိုင္,Electronic Store,ကိုရဲ,Ko Yee,21.928729,96.10794,09 259 023 764,
MR005,မႏၱေလးတိုင္းေဒသႀကီး,Mandalay Division,ခ်မ္းျမသာစည္ျမိဳ ့,ChanMyaThaZi,လ်ွပ္စစ္ပစၥည္းအေရာင္းဆိုင္,Electronic Store,အေမ့အိမ္,Mother's Home,21.9302,96.071665,09 40257 1255,
MR005,မႏၱေလးတိုင္းေဒသႀကီး,Mandalay Division,ခ်မ္းျမသာစည္ျမိဳ ့,ChanMyaThaZi,လ်ွပ္စစ္ပစၥည္းအေရာင္းဆိုင္,Electronic Store,စကိုင္း,Sky,21.919761,96.130852,,
MR005,မႏၱေလးတိုင္းေဒသႀကီး,Mandalay Division,ခ်မ္းျမသာစည္ျမိဳ ့,ChanMyaThaZi,လ်ွပ္စစ္ပစၥည္းအေရာင္းဆိုင္,Electronic Store,မႏၱလာ,Mandalar,21.946319,96.085823,09 430 62951,
MR005,မႏၱေလးတိုင္းေဒသႀကီး,Mandalay Division,ခ်မ္းျမသာစည္ျမိဳ ့,ChanMyaThaZi,လ်ွပ္စစ္ပစၥည္းအေရာင္းဆိုင္,Electronic Store,နစ္ဘန္း,Nibban,21.912929,96.110388,09 44259 9919,
MR005,မႏၱေလးတိုင္းေဒသႀကီး,Mandalay Division,ခ်မ္းျမသာစည္ျမိဳ ့,ChanMyaThaZi,လ်ွပ္စစ္ပစၥည္းအေရာင္းဆိုင္,Electronic Store,ေရႊျမင့္မိုရ္,Shwe Myint Mo,21.947749,96.123918,09 259 471 747,
MR005,မႏၱေလးတိုင္းေဒသႀကီး,Mandalay Division,ခ်မ္းျမသာစည္ျမိဳ ့,ChanMyaThaZi,လ်ွပ္စစ္ပစၥည္းအေရာင္းဆိုင္,Electronic Store,ပုတံုမိသားစု,PuTone Family,21.946703,96.121283,09 977 345956,
MR005,မႏၱေလးတိုင္းေဒသႀကီး,Mandalay Division,ခ်မ္းျမသာစည္ျမိဳ ့,ChanMyaThaZi,လ်ွပ္စစ္ပစၥည္းအေရာင္းဆိုင္,Electronic Store,ေအ ေက တီ,A.K.T,21.932676,96.133518,09 259 063 564,
MR005,မႏၱေလးတိုင္းေဒသႀကီး,Mandalay Division,ခ်မ္းျမသာစည္ျမိဳ ့,ChanMyaThaZi,လ်ွပ္စစ္ပစၥည္းအေရာင္းဆိုင္,Electronic Store,လင္း,Linn,21.945195,96.07872,09 40251 0400,
MR005,မႏၱေလးတိုင္းေဒသႀကီး,Mandalay Division,ခ်မ္းျမသာစည္ျမိဳ ့,ChanMyaThaZi,လ်ွပ္စစ္ပစၥည္းအေရာင္းဆိုင္,Electronic Store,ေငြစိုးလင္း,Ngwe Soe Lin,21.979947,96.076831,09 974 418118,
MR005,မႏၱေလးတိုင္းေဒသႀကီး,Mandalay Division,ခ်မ္းျမသာစည္ျမိဳ ့,ChanMyaThaZi,လ်ွပ္စစ္ပစၥည္းအေရာင္းဆိုင္,Electronic Store,ကိုခင္ေဇာ္ဆုိင္ခြဲ၂,Ko Kin Zaw Branch(2),21.932765,96.123941,02 81 824,
MR005,မႏၱေလးတိုင္းေဒသႀကီး,Mandalay Division,ခ်မ္းျမသာစည္ျမိဳ ့,ChanMyaThaZi,လ်ွပ္စစ္ပစၥည္းအေရာင္းဆိုင္,Electronic Store,ေငြႀကယ္ျဖဴ,Ngwe Kyal Phyu,21.940393,96.107847,09 45829 7855,
MR005,မႏၱေလးတိုင္းေဒသႀကီး,Mandalay Division,ခ်မ္းျမသာစည္ျမိဳ ့,ChanMyaThaZi,လ်ွပ္စစ္ပစၥည္းအေရာင္းဆိုင္,Electronic Store,အလင္းအိမ္,Light House,21.931496,96.110772,02 82 001,
MR005,မႏၱေလးတိုင္းေဒသႀကီး,Mandalay Division,ခ်မ္းျမသာစည္ျမိဳ ့,ChanMyaThaZi,လ်ွပ္စစ္ပစၥည္းအေရာင္းဆိုင္,Electronic Store,စြမ္းအား,Power,21.931321,96.110724,09 964 035034,
MR005,မႏၱေလးတိုင္းေဒသႀကီး,Mandalay Division,ခ်မ္းျမသာစည္ျမိဳ ့,ChanMyaThaZi,လ်ွပ္စစ္ပစၥည္းအေရာင္းဆိုင္,Electronic Store,စူပါေတာ့,Super Top,21.929292,96.110254,09 979 731186,
MR005,မႏၱေလးတိုင္းေဒသႀကီး,Mandalay Division,ခ်မ္းျမသာစည္ျမိဳ ့,ChanMyaThaZi,လ်ွပ္စစ္ပစၥည္းအေရာင္းဆိုင္,Electronic Store,ႀကည္္ခိုင္ထြန္း,KyiKhineTun,21.936776,96.110197,09 44103 8155,
MR005,မႏၱေလးတိုင္းေဒသႀကီး,Mandalay Division,ခ်မ္းျမသာစည္ျမိဳ ့,ChanMyaThaZi,လ်ွပ္စစ္ပစၥည္းအေရာင္းဆိုင္,Electronic Store,မာလ္တီသန္းဦး,Multi Than Oo,21.933189,96.109207,02 403 4753,
MR005,မႏၱေလးတိုင္းေဒသႀကီး,Mandalay Division,ခ်မ္းျမသာစည္ျမိဳ ့,ChanMyaThaZi,လ်ွပ္စစ္ပစၥည္းအေရာင္းဆိုင္,Electronic Store,စကိုင္းမိုး,Sky Moe,21.934456,96.105787,09 431 53000,
MR005,မႏၱေလးတိုင္းေဒသႀကီး,Mandalay Division,ခ်မ္းျမသာစည္ျမိဳ ့,ChanMyaThaZi,လ်ွပ္စစ္ပစၥည္းအေရာင္းဆိုင္,Electronic Store,လိုင္းရြန္း,Lion,21.923614,96.094916,09 202 0355,
MR005,မႏၱေလးတိုင္းေဒသႀကီး,Mandalay Division,ခ်မ္းျမသာစည္ျမိဳ ့,ChanMyaThaZi,လ်ွပ္စစ္ပစၥည္းအေရာင္းဆိုင္,Electronic Store,ျပည့္ရွင္,Pyae Shin,21.939211,96.103802,09 787 878805,
MR005,မႏၱေလးတိုင္းေဒသႀကီး,Mandalay Division,ခ်မ္းျမသာစည္ျမိဳ ့,ChanMyaThaZi,လ်ွပ္စစ္ပစၥည္းအေရာင္းဆိုင္,Electronic Store,မဂၤလာမႏၱေလး,MingalarMandalay,21.94175,96.092618,,
MR005,မႏၱေလးတိုင္းေဒသႀကီး,Mandalay Division,ခ်မ္းေအးသာဇံျမိဳ ့,ChanAyeTharZan,လ်ွပ္စစ္ပစၥည္းအေရာင္းဆိုင္,Electrical Substation,ခင္ေမာင္ညႊန့္ ထရိတ္ဒီး,"Khin Maung Nyunt Trading Co.,Ltd",21.982775,96.085899,02 406 8423,
MR005,မႏၱေလးတိုင္းေဒသႀကီး,Mandalay Division,ခ်မ္းေအးသာဇံျမိဳ ့,ChanAyeTharZan,လ်ွပ္စစ္ဓာတ္အားျဖန့္ျဖဴးေရး,Electrical Substation,၀ါခင္ကုန္း,War Khin Kone Sub-Station,21.969479,96.121401,02 77 330,
MR005,မႏၱေလးတိုင္းေဒသႀကီး,Mandalay Division,ခ်မ္းေအးသာဇံျမိဳ ့,ChanAyeTharZan,လ်ွပ္စစ္ပစၥည္းျပဳျပင္ေရး,Electronic Service,၈၁လ်ွပ္စစ္,81 Electronic,21.973774,96.089002,09 789 818181,
MR005,မႏၱေလးတိုင္းေဒသႀကီး,Mandalay Division,ခ်မ္းေအးသာဇံျမိဳ ့,ChanAyeTharZan,လ်ွပ္စစ္ပစၥည္းျပဳျပင္ေရး,Electronic Service,လုပ္သား,Lote Thar,21.983169,96.07918,09 431 56112,
MR005,မႏၱေလးတိုင္းေဒသႀကီး,Mandalay Division,ခ်မ္းေအးသာဇံျမိဳ ့,ChanAyeTharZan,လ်ွပ္စစ္ပစၥည္းျပဳျပင္ေရး,Electronic Service,ဇက္အီးပီ,ZEP Electronic Sales and Service Center,21.97672,96.079271,09 910 53283,
MR005,မႏၱေလးတိုင္းေဒသႀကီး,Mandalay Division,ခ်မ္းေအးသာဇံျမိဳ ့,ChanAyeTharZan,လ်ွပ္စစ္ပစၥည္းျပဳျပင္ေရး,Electronic Service,ဒရင္း,Dream Electronic Service,21.978994,96.07984,09 40260 1385,
MR005,မႏၱေလးတိုင္းေဒသႀကီး,Mandalay Division,ခ်မ္းေအးသာဇံျမိဳ ့,ChanAyeTharZan,လ်ွပ္စစ္ပစၥည္းျပဳျပင္ေရး,Electronic Store,ဇက္အီးပီ,ZEP Electronic Sales and Service Center,21.97672,96.079271,09 910 53283,
MR005,မႏၱေလးတိုင္းေဒသႀကီး,Mandalay Division,ခ်မ္းေအးသာဇံျမိဳ ့,ChanAyeTharZan,လ်ွပ္စစ္ပစၥည္းအေရာင္းဆိုင္,Electronic Store,ဇာနီ,Zarni,21.959956,96.077006,02 68 133,
MR005,မႏၱေလးတိုင္းေဒသႀကီး,Mandalay Division,ခ်မ္းေအးသာဇံျမိဳ ့,ChanAyeTharZan,လ်ွပ္စစ္ပစၥည္းအေရာင္းဆိုင္,Electronic Store,တက္ကနိုလန္း,Technoland,21.96232,96.085741,09 976 018386,
MR005,မႏၱေလးတိုင္းေဒသႀကီး,Mandalay Division,ခ်မ္းေအးသာဇံျမိဳ ့,ChanAyeTharZan,လ်ွပ္စစ္ပစၥည္းအေရာင္းဆိုင္,Electronic Store,တိုရွီဘာ,Toshiba,21.982855,96.084191,02 402 4760,
MR005,မႏၱေလးတိုင္းေဒသႀကီး,Mandalay Division,ခ်မ္းေအးသာဇံျမိဳ ့,ChanAyeTharZan,လ်ွပ္စစ္ပစၥည္းအေရာင္းဆိုင္,Electronic Store,ကိုနိုင္နိုင္နွင့္ညီမ်ား,Ko Naing Naing and Brothers,21.979958,96.079066,02 64 424,
MR005,မႏၱေလးတိုင္းေဒသႀကီး,Mandalay Division,ခ်မ္းေအးသာဇံျမိဳ ့,ChanAyeTharZan,လ်ွပ္စစ္ပစၥည္းအေရာင္းဆိုင္,Electronic Store,ကာဓီယာလိုက္,Kedia Light,21.982423,96.082852,02 36 242,
MR005,မႏၱေလးတိုင္းေဒသႀကီး,Mandalay Division,ခ်မ္းေအးသာဇံျမိဳ ့,ChanAyeTharZan,လ်ွပ္စစ္ပစၥည္းအေရာင္းဆိုင္,Electronic Store,ထြန္းလင္းေအာင္,Htun Linn Aung ,21.974889,96.088211, ,
MR005,မႏၱေလးတိုင္းေဒသႀကီး,Mandalay Division,ခ်မ္းေအးသာဇံျမိဳ ့,ChanAyeTharZan,လ်ွပ္စစ္ပစၥည္းအေရာင္းဆိုင္,Electronic Store,ဗီအက္စ္ေကအင္တာေနရွင္နယ္,"VSK International Co.,Ltd",21.974351,96.088145,09 45718 6031,
MR005,မႏၱေလးတိုင္းေဒသႀကီး,Mandalay Division,ခ်မ္းေအးသာဇံျမိဳ ့,ChanAyeTharZan,လ်ွပ္စစ္ပစၥည္းအေရာင္းဆိုင္,Electronic Store,ေရႊလင္းေရာင္,Shwe Linn Yaung,21.977816,96.078963,02 64 381,
MR005,မႏၱေလးတိုင္းေဒသႀကီး,Mandalay Division,ခ်မ္းေအးသာဇံျမိဳ ့,ChanAyeTharZan,လ်ွပ္စစ္ပစၥည္းအေရာင္းဆိုင္,Electronic Store,လင္းလင္းနိုင္,Lin Lin Naing,21.981563,96.07784,09 790 132841,
MR005,မႏၱေလးတိုင္းေဒသႀကီး,Mandalay Division,ခ်မ္းေအးသာဇံျမိဳ ့,ChanAyeTharZan,လ်ွပ္စစ္ပစၥည္းအေရာင္းဆိုင္,Electronic Store,ဖာဖယ္လာ,Farfalla,21.970893,96.086192,09 788 914814,
MR005,မႏၱေလးတိုင္းေဒသႀကီး,Mandalay Division,ခ်မ္းေအးသာဇံျမိဳ ့,ChanAyeTharZan,လ်ွပ္စစ္ပစၥည္းအေရာင္းဆိုင္,Electronic Store,အီလက္ထရိုလက္,Electrolux,21.971074,96.086312,02 72 575,
MR005,မႏၱေလးတိုင္းေဒသႀကီး,Mandalay Division,ခ်မ္းေအးသာဇံျမိဳ ့,ChanAyeTharZan,လ်ွပ္စစ္ပစၥည္းအေရာင္းဆိုင္,Electronic Store,ဟိန္းဖ,Hein Fa,21.971458,96.087011,09 976 980506,
MR005,မႏၱေလးတိုင္းေဒသႀကီး,Mandalay Division,ခ်မ္းေအးသာဇံျမိဳ ့,ChanAyeTharZan,လ်ွပ္စစ္ပစၥည္းအေရာင္းဆိုင္,Electronic Store,သိန္းညႊန့္,Thein Nyutt,21.920727,96.089984,02 23 376,
MR005,မႏၱေလးတိုင္းေဒသႀကီး,Mandalay Division,ခ်မ္းေအးသာဇံျမိဳ ့,ChanAyeTharZan,လ်ွပ္စစ္ပစၥည္းအေရာင္းဆိုင္,Electronic Store,အီးစီးတီးစကြဲ,e City Square,21.969454,96.090283,09 910 13461,
MR005,မႏၱေလးတိုင္းေဒသႀကီး,Mandalay Division,ခ်မ္းေအးသာဇံျမိဳ ့,ChanAyeTharZan,လ်ွပ္စစ္ပစၥည္းအေရာင္းဆိုင္,Electronic Store,မ်ိဳးသိန္းလ်ွပ္စစ္,Myo Thein Electronic,21.978769,96.079086,02 406 7175,
MR005,မႏၱေလးတိုင္းေဒသႀကီး,Mandalay Division,ခ်မ္းေအးသာဇံျမိဳ ့,ChanAyeTharZan,လ်ွပ္စစ္ပစၥည္းအေရာင္းဆိုင္,Electronic Store,မ်ိဳးသိန္း,Myo Thein,21.97851,96.079075,02 403 5332,
MR005,မႏၱေလးတိုင္းေဒသႀကီး,Mandalay Division,ခ်မ္းေအးသာဇံျမိဳ ့,ChanAyeTharZan,လ်ွပ္စစ္ပစၥည္းအေရာင္းဆိုင္,Electronic Store,ဟက္ပီးေဆး,Happy Sales Pos Supply,21.980231,96.079643,09 45597 7515,
MR005,မႏၱေလးတိုင္းေဒသႀကီး,Mandalay Division,ခ်မ္းေအးသာဇံျမိဳ ့,ChanAyeTharZan,လ်ွပ္စစ္ပစၥည္းအေရာင္းဆိုင္,Electronic Store,အိုမီဂါ,Omega,21.979821,96.079085,09 534 0711,
MR005,မႏၱေလးတိုင္းေဒသႀကီး,Mandalay Division,ခ်မ္းေအးသာဇံျမိဳ ့,ChanAyeTharZan,လ်ွပ္စစ္ပစၥည္းအေရာင္းဆိုင္,Electronic Store,ဆားကစ္ေ၀ါလ်ွပ္စစ္,Circuit World Electronic,21.979551,96.079054,02 402 1839,
MR005,မႏၱေလးတိုင္းေဒသႀကီး,Mandalay Division,ခ်မ္းေအးသာဇံျမိဳ ့,ChanAyeTharZan,လ်ွပ္စစ္ပစၥည္းအေရာင္းဆိုင္,Electronic Store,ေအာင္တံခြန္,Aung Takon,21.978457,96.079394,09 777 772757,
MR005,မႏၱေလးတိုင္းေဒသႀကီး,Mandalay Division,ခ်မ္းေအးသာဇံျမိဳ ့,ChanAyeTharZan,လ်ွပ္စစ္ပစၥည္းအေရာင္းဆိုင္,Electronic Store,ေမာင္ေမာင္မွန္ဆိုင္(လားရွိဳး),MgMg Hman Sine(Lashio),21.980064,96.07944,02 35 703,
MR005,မႏၱေလးတိုင္းေဒသႀကီး,Mandalay Division,ခ်မ္းေအးသာဇံျမိဳ ့,ChanAyeTharZan,လ်ွပ္စစ္ပစၥည္းအေရာင္းဆိုင္,Electronic Store,ကိုထြန္းထြန္းမေခ်ာစုအီလက္ထေရာနစ္,Ko Tun Tun and Ma Chaw Su Electronic Store,21.981728,96.079228,,
MR005,မႏၱေလးတိုင္းေဒသႀကီး,Mandalay Division,ခ်မ္းေအးသာဇံျမိဳ ့,ChanAyeTharZan,လ်ွပ္စစ္ပစၥည္းအေရာင္းဆိုင္,Electronic Store,ပါ၀ါ,Power,21.982579,96.078712,09 202 1915,
MR005,မႏၱေလးတိုင္းေဒသႀကီး,Mandalay Division,ခ်မ္းေအးသာဇံျမိဳ ့,ChanAyeTharZan,လ်ွပ္စစ္ပစၥည္းအေရာင္းဆိုင္,Electronic Store,အိတ္ခ်္ဟာစံ,H Har San,21.983245,96.07932,09 203 1784,
MR005,မႏၱေလးတိုင္းေဒသႀကီး,Mandalay Division,ခ်မ္းေအးသာဇံျမိဳ ့,ChanAyeTharZan,လ်ွပ္စစ္ပစၥည္းအေရာင္းဆိုင္,Electronic Store,ဗႏၵာပင္ကိုေလး,BanDarPinKoLay,21.984128,96.079314,02 406 0463,
MR005,မႏၱေလးတိုင္းေဒသႀကီး,Mandalay Division,ခ်မ္းေအးသာဇံျမိဳ ့,ChanAyeTharZan,လ်ွပ္စစ္ပစၥည္းအေရာင္းဆိုင္,Electronic Store,ေရႊ၀ါ၀င္း,Shwe War Win,21.982707,96.07835,09 44402 3558,
MR005,မႏၱေလးတိုင္းေဒသႀကီး,Mandalay Division,ခ်မ္းေအးသာဇံျမိဳ ့,ChanAyeTharZan,လ်ွပ္စစ္ပစၥည္းအေရာင္းဆိုင္,Electronic Store,ေခါင္းေဆာင္,Leader,21.98366,96.078751,09 40254 0745,
MR005,မႏၱေလးတိုင္းေဒသႀကီး,Mandalay Division,ခ်မ္းေအးသာဇံျမိဳ ့,ChanAyeTharZan,လ်ွပ္စစ္ပစၥည္းအေရာင္းဆိုင္,Electronic Store,ေမာင္ျမင့္ေအး,Mg Myint Aye,22,96.079237,02 32 321,
MR005,မႏၱေလးတိုင္းေဒသႀကီး,Mandalay Division,ခ်မ္းေအးသာဇံျမိဳ ့,ChanAyeTharZan,လ်ွပ္စစ္ပစၥည္းအေရာင္းဆိုင္,Electronic Store,ေငြႀကားတိုက္,Ngwe Kyar Tite,21.983162,96.07905,,
MR005,မႏၱေလးတိုင္းေဒသႀကီး,Mandalay Division,ခ်မ္းေအးသာဇံျမိဳ ့,ChanAyeTharZan,လ်ွပ္စစ္ပစၥည္းအေရာင္းဆိုင္,Electronic Store,အာရွ,Asia,21.981945,96.078132,09 430 02119,
MR005,မႏၱေလးတိုင္းေဒသႀကီး,Mandalay Division,ခ်မ္းေအးသာဇံျမိဳ ့,ChanAyeTharZan,လ်ွပ္စစ္ပစၥည္းအေရာင္းဆိုင္,Electronic Store,ဂရိတ္ေ၀ါ,Great Wall,21.982673,96.077909,09 204 4322,
MR005,မႏၱေလးတိုင္းေဒသႀကီး,Mandalay Division,ခ်မ္းေအးသာဇံျမိဳ ့,ChanAyeTharZan,လ်ွပ္စစ္ပစၥည္းအေရာင္းဆိုင္,Electronic Store,ပနစိုးနစ္,Panasonic,21.967428,96.08612,02 60 488,
MR005,မႏၱေလးတိုင္းေဒသႀကီး,Mandalay Division,ခ်မ္းေအးသာဇံျမိဳ ့,ChanAyeTharZan,လ်ွပ္စစ္ပစၥည္းအေရာင္းဆိုင္,Electronic Store,ပနစိုးနစ္ျပခန္း,Panasonic ShowRoom,21.973625,96.087985,02 60 488,
MR005,မႏၱေလးတိုင္းေဒသႀကီး,Mandalay Division,ခ်မ္းေအးသာဇံျမိဳ ့,ChanAyeTharZan,လ်ွပ္စစ္ပစၥည္းအေရာင္းဆိုင္,Electronic Store,၈၁လ်ွပ္စစ္,81 Electronic,21.973774,96.089002,09 789 818181,
MR005,မႏၱေလးတိုင္းေဒသႀကီး,Mandalay Division,ခ်မ္းေအးသာဇံျမိဳ ့,ChanAyeTharZan,လ်ွပ္စစ္ပစၥည္းအေရာင္းဆိုင္,Electronic Store,မီဒီယာျပခန္း,Midea Showroom,21.974272,96.088267,09 45718 5967,
MR005,မႏၱေလးတိုင္းေဒသႀကီး,Mandalay Division,ခ်မ္းေအးသာဇံျမိဳ ့,ChanAyeTharZan,လ်ွပ္စစ္ပစၥည္းအေရာင္းဆိုင္,Electronic Store,ဟုမ္းအိတ္,Home Aid,21.974956,96.077031,02 406 8877,
MR005,မႏၱေလးတိုင္းေဒသႀကီး,Mandalay Division,ခ်မ္းေအးသာဇံျမိဳ ့,ChanAyeTharZan,လ်ွပ္စစ္ပစၥည္းအေရာင္းဆိုင္,Electronic Store,ေ၀ယံလ်ွပ္စစ္,Wai Yan Electronics,21.976966,96.080454,09 951 829907,
MR005,မႏၱေလးတိုင္းေဒသႀကီး,Mandalay Division,ခ်မ္းေအးသာဇံျမိဳ ့,ChanAyeTharZan,လ်ွပ္စစ္ပစၥည္းအေရာင္းဆိုင္,Electronic Store,၀ွမ္သက္မႀကဴ,Whan Thet Ma Kyu,21.979127,96.0791,09 789 320023,
MR005,မႏၱေလးတိုင္းေဒသႀကီး,Mandalay Division,ခ်မ္းေအးသာဇံျမိဳ ့,ChanAyeTharZan,လ်ွပ္စစ္ပစၥည္းအေရာင္းဆိုင္,Electronic Store,ေအာင္ေအာင္,Aung Aung ,21.97916,96.079394,02 23 780,
MR005,မႏၱေလးတိုင္းေဒသႀကီး,Mandalay Division,ခ်မ္းေအးသာဇံျမိဳ ့,ChanAyeTharZan,လ်ွပ္စစ္ပစၥည္းအေရာင္းဆိုင္,Electronic Store,စိန္ဘရားသား,SeinBrother,21.97935,96.079025,09 40259 9319,
MR005,မႏၱေလးတိုင္းေဒသႀကီး,Mandalay Division,ခ်မ္းေအးသာဇံျမိဳ ့,ChanAyeTharZan,လ်ွပ္စစ္ပစၥည္းအေရာင္းဆိုင္,Electronic Store,ခိုင္၀င္း,KhineWin,21.971055,96.082143,02 407 2535,
MR005,မႏၱေလးတိုင္းေဒသႀကီး,Mandalay Division,ခ်မ္းေအးသာဇံျမိဳ ့,ChanAyeTharZan,လ်ွပ္စစ္ပစၥည္းအေရာင္းဆိုင္,Electronic Store,ယူနိုက္တက္လ်ွပ္စစ္,United Electronic,21.970058,96.080902,09 202 2083,
MR005,မႏၱေလးတိုင္းေဒသႀကီး,Mandalay Division,ခ်မ္းေအးသာဇံျမိဳ ့,ChanAyeTharZan,လ်ွပ္စစ္ပစၥည္းအေရာင္းဆိုင္,Electronic Store,ဗစ္ရွင္မက္ကုမၸဏီ,"Vision Max Co.,Ltd",21.969262,96.081062,02 402 2860,
MR005,မႏၱေလးတိုင္းေဒသႀကီး,Mandalay Division,ခ်မ္းေအးသာဇံျမိဳ ့,ChanAyeTharZan,လ်ွပ္စစ္ပစၥည္းအေရာင္းဆိုင္,Electronic Store,က်င္းလံုျမန္မာ,KyinLonnMyanmar,21.968424,96.080444,02 35 001,
MR005,မႏၱေလးတိုင္းေဒသႀကီး,Mandalay Division,ခ်မ္းေအးသာဇံျမိဳ ့,ChanAyeTharZan,လ်ွပ္စစ္ပစၥည္းအေရာင္းဆိုင္,Electronic Store,ေဌးကမၻာ,Htay Gabar,21.983238,96.07978,02 406 6095,
MR005,မႏၱေလးတိုင္းေဒသႀကီး,Mandalay Division,ခ်မ္းေအးသာဇံျမိဳ ့,ChanAyeTharZan,လ်ွပ္စစ္ပစၥည္းအေရာင္းဆိုင္,Electronic Store,စီးတီးလိုက္,City Light,21.983304,96.079328,02 403 4951,
MR005,မႏၱေလးတိုင္းေဒသႀကီး,Mandalay Division,ခ်မ္းေအးသာဇံျမိဳ ့,ChanAyeTharZan,လ်ွပ္စစ္ပစၥည္းအေရာင္းဆိုင္,Electronic Store,နဒီလြင္,Nadi Lwin,21.98328,96.079218,02 406 9476,
MR005,မႏၱေလးတိုင္းေဒသႀကီး,Mandalay Division,ခ်မ္းေအးသာဇံျမိဳ ့,ChanAyeTharZan,လ်ွပ္စစ္ပစၥည္းအေရာင္းဆိုင္,Electronic Store,ပါ၀ဲ,ParWell,21.972038,96.083544,09 797 389505,
MR005,မႏၱေလးတိုင္းေဒသႀကီး,Mandalay Division,ခ်မ္းေအးသာဇံျမိဳ ့,ChanAyeTharZan,လ်ွပ္စစ္ပစၥည္းအေရာင္းဆိုင္,Electronic Store,စုလ်ွပ္စစ္,Su Electrical Supply Store,21.970866,96.06373,09 40269 2483,
MR005,မႏၱေလးတိုင္းေဒသႀကီး,Mandalay Division,ခ်မ္းေအးသာဇံျမိဳ ့,ChanAyeTharZan,လ်ွပ္စစ္ပစၥည္းအေရာင္းဆိုင္,Electronic Store,မ်ိဳးလ်ွပ္စစ္,Myo Electrical Supply Store,21.971506,96.066822,02 409 9876,
MR005,မႏၱေလးတိုင္းေဒသႀကီး,Mandalay Division,ခ်မ္းေအးသာဇံျမိဳ ့,ChanAyeTharZan,လ်ွပ္စစ္ပစၥည္းအေရာင္းဆိုင္,Electronic Store,အိုင္အီး,IE,21.970951,96.078061,09 975 160578,
MR005,မႏၱေလးတိုင္းေဒသႀကီး,Mandalay Division,ခ်မ္းေအးသာဇံျမိဳ ့,ChanAyeTharZan,လ်ွပ္စစ္ပစၥည္းအေရာင္းဆိုင္,Electronic Store,အိန္ဂ်ယ္,Angel,21.970594,96.091076,09 44403 1620,
MR005,မႏၱေလးတိုင္းေဒသႀကီး,Mandalay Division,ခ်မ္းေအးသာဇံျမိဳ ့,ChanAyeTharZan,လ်ွပ္စစ္ပစၥည္းအေရာင္းဆိုင္,Electronic Store,ပိေတာက္၀ါ,Padauk War,21.983575,96.078862,09 201 6538,
MR005,မႏၱေလးတိုင္းေဒသႀကီး,Mandalay Division,ခ်မ္းေအးသာဇံျမိဳ ့,ChanAyeTharZan,လ်ွပ္စစ္ပစၥည္းအေရာင္းဆိုင္,Electronic Store,စည္သူ,SiThu,21.983634,96.079289,02 403 1378,
MR005,မႏၱေလးတိုင္းေဒသႀကီး,Mandalay Division,ခ်မ္းေအးသာဇံျမိဳ ့,ChanAyeTharZan,လ်ွပ္စစ္ပစၥည္းအေရာင္းဆိုင္,Electronic Store,ႀကယ္စင္ျဖိဳး,KyalSinPhyo,21.972711,96.074559,09 960 880880,
MR005,မႏၱေလးတိုင္းေဒသႀကီး,Mandalay Division,ခ်မ္းေအးသာဇံျမိဳ ့,ChanAyeTharZan,လ်ွပ္စစ္ပစၥည္းအေရာင္းဆိုင္,Electronic Store,သိန္းသန္း,Thein Than,21.975726,96.06555,09 40188 8900,
MR005,မႏၱေလးတိုင္းေဒသႀကီး,Mandalay Division,ခ်မ္းေအးသာဇံျမိဳ ့,ChanAyeTharZan,လ်ွပ္စစ္ပစၥည္းအေရာင္းဆိုင္,Electronic Store,ေရႊႏွင္းဆီ,Shwe Hnin Si,21.976044,96.071547,09 792 050342,
MR005,မႏၱေလးတိုင္းေဒသႀကီး,Mandalay Division,ခ်မ္းေအးသာဇံျမိဳ ့,ChanAyeTharZan,လ်ွပ္စစ္ပစၥည္းအေရာင္းဆိုင္,Electronic Store,နီလာ,Nilar,21.978526,96.063941,09 783 099820,
MR005,မႏၱေလးတိုင္းေဒသႀကီး,Mandalay Division,ခ်မ္းေအးသာဇံျမိဳ ့,ChanAyeTharZan,လ်ွပ္စစ္ပစၥည္းအေရာင္းဆိုင္,Electronic Store,ေကာင္းသန့္သာ,KaungThantThar,21.977111,96.066341,09 44463 8843,
MR005,မႏၱေလးတိုင္းေဒသႀကီး,Mandalay Division,ခ်မ္းေအးသာဇံျမိဳ ့,ChanAyeTharZan,လ်ွပ္စစ္ပစၥည္းအေရာင္းဆိုင္,Electronic Store,ပါ၀ါလိုက္,Power Light,21.974222,96.077116,,
MR005,မႏၱေလးတိုင္းေဒသႀကီး,Mandalay Division,ခ်မ္းေအးသာဇံျမိဳ ့,ChanAyeTharZan,လ်ွပ္စစ္ပစၥည္းအေရာင္းဆိုင္,Electronic Store,ေအာင္ႀကယ္စင္,Aung Kyal Sin,21.972848,96.098125,02 22 323,
MR005,မႏၱေလးတိုင္းေဒသႀကီး,Mandalay Division,ခ်မ္းေအးသာဇံျမိဳ ့,ChanAyeTharZan,လ်ွပ္စစ္ပစၥည္းအေရာင္းဆိုင္,Electronic Store,ဖိုးတန္္လ်ွပ္စစ္,PHOTON ELECTRONIC,21.980385,96.081716,09 965 028615,
MR005,မႏၱေလးတိုင္းေဒသႀကီး,Mandalay Division,ခ်မ္းေအးသာဇံျမိဳ ့,ChanAyeTharZan,လ်ွပ္စစ္ပစၥည္းအေရာင္းဆိုင္,Electronic Store,ဂလုပ္,Glote Electronic,21.980161,96.081262,02 403 3650,
MR005,မႏၱေလးတိုင္းေဒသႀကီး,Mandalay Division,ခ်မ္းေအးသာဇံျမိဳ ့,ChanAyeTharZan,လ်ွပ္စစ္ပစၥည္းအေရာင္းဆိုင္,Electronic Store,ဒရင္း,Dream Electronic,21.978994,96.07984,09 40260 1385,
MR005,မႏၱေလးတိုင္းေဒသႀကီး,Mandalay Division,ခ်မ္းေအးသာဇံျမိဳ ့,ChanAyeTharZan,လ်ွပ္စစ္ပစၥည္းအေရာင္းဆိုင္,Electronic Store,စမ္းလိုက္,San Light,21.970726,96.099941,09 256 248 580,
MR005,မႏၱေလးတိုင္းေဒသႀကီး,Mandalay Division,ခ်မ္းေအးသာဇံျမိဳ ့,ChanAyeTharZan,လ်ွပ္စစ္ပစၥည္းအေရာင္းဆိုင္,Electronic Store,မစ္စုဘစ္ရွိ,Mitsubishi        ,21.955036,96.113512,09 42171 6037,
MR005,မႏၱေလးတိုင္းေဒသႀကီး,Mandalay Division,ခ်မ္းေအးသာဇံျမိဳ ့,ChanAyeTharZan,လ်ွပ္စစ္ပစၥည္းအေရာင္းဆိုင္,Electronic Store,ပီတီလ်ွပ္စစ္,P T Electrical,21.983092,96.079266,09 431 45646,
MR005,မႏၱေလးတိုင္းေဒသႀကီး,Mandalay Division,ခ်မ္းေအးသာဇံျမိဳ ့,ChanAyeTharZan,လ်ွပ္စစ္ပစၥည္းအေရာင္းဆိုင္,Electronic Store,စတားလိုက္,Star Light,21.983257,96.079808,02 73 749,
MR005,မႏၱေလးတိုင္းေဒသႀကီး,Mandalay Division,ခ်မ္းေအးသာဇံျမိဳ ့,ChanAyeTharZan,လ်ွပ္စစ္ပစၥည္းအေရာင္းဆိုင္,Electronic Store,ပါ၀ဲဟိုးဒင္း,"Par Well Holding Co.,Ltd",21.976729,96.078825,02 24 841,
MR005,မႏၱေလးတိုင္းေဒသႀကီး,Mandalay Division,ခ်မ္းေအးသာဇံျမိဳ ့,ChanAyeTharZan,လ်ွပ္စစ္ပစၥည္းအေရာင္းဆိုင္,Electronic Store,ဂ်န္း,Jan ,21.977588,96.079003,02 407 2534,
MR005,မႏၱေလးတိုင္းေဒသႀကီး,Mandalay Division,ခ်မ္းေအးသာဇံျမိဳ ့,ChanAyeTharZan,လ်ွပ္စစ္ပစၥည္းအေရာင္းဆိုင္,Electronic Store,တီဇက္အီး,TZE,21.977759,96.079229,09 898 849562,
MR005,မႏၱေလးတိုင္းေဒသႀကီး,Mandalay Division,ခ်မ္းေအးသာဇံျမိဳ ့,ChanAyeTharZan,လ်ွပ္စစ္ပစၥည္းအေရာင္းဆိုင္,Electronic Store,ေရႊလ၀င္း,Shwe La Win,21.977615,96.078058,02 406 0041,
MR005,မႏၱေလးတိုင္းေဒသႀကီး,Mandalay Division,ခ်မ္းေအးသာဇံျမိဳ ့,ChanAyeTharZan,လ်ွပ္စစ္ပစၥည္းအေရာင္းဆိုင္,Electronic Store,ျမန္မာနယူးပါ၀ါကုမၸဏီ,"Myanmar New Power Motors Co.,Ltd",21.895624,96.094402,09 40251 0661,
MR005,မႏၱေလးတိုင္းေဒသႀကီး,Mandalay Division,ျပည္ႀကီးတံခြန္ျမိဳ့,PyiGyiTaGon,ျမိဳ႕နယ္လ်ွပ္စစ္အင္ဂ်င္နီယာရံုး,Electrical Power Office,လ်ွပ္စစ္ႏွင့္စြမ္းအင္၀န္ႀကီးဌာန,Electric and Power Ministry,21.899324,96.103677,02 515 3500,
MR005,မႏၱေလးတိုင္းေဒသႀကီး,Mandalay Division,ျပည္ႀကီးတံခြန္ျမိဳ့,PyiGyiTaGon,ဓာတ္အားခြဲရံု,Electrical Substation,ပစိဖိတ္လ်ွပ္စစ္ျဖန့္ျဖဴးေရးကုမၸဏီ,"Pacific Electric Company Co.,Ltd",21.89948,96.104055,09 797 593484,
MR005,မႏၱေလးတိုင္းေဒသႀကီး,Mandalay Division,ျပည္ႀကီးတံခြန္ျမိဳ့,PyiGyiTaGon,ဓာတ္အားခြဲရံု,Electrical Substation,အမ္အီးအက္စီ,MESC,21.885989,96.127191,,
MR005,မႏၱေလးတိုင္းေဒသႀကီး,Mandalay Division,ျပည္ႀကီးတံခြန္ျမိဳ့,PyiGyiTaGon,ဓာတ္အားခြဲရံု,Electrical Substation,အမ္အီးအက္စီ,MESC,21.913569,96.122627,,
MR005,မႏၱေလးတိုင္းေဒသႀကီး,Mandalay Division,ျပည္ႀကီးတံခြန္ျမိဳ့,PyiGyiTaGon,ဓာတ္အားခြဲရံု,Electrical Substation,တံခြန္တိုင္ပင္မဓာတ္အားခြဲရံု,TakonTai MainElectrical Substation,21.917048,96.081096,,
MR005,မႏၱေလးတိုင္းေဒသႀကီး,Mandalay Division,ျပည္ႀကီးတံခြန္ျမိဳ့,PyiGyiTaGon,ဓာတ္အားခြဲရံု,Electrical Substation,၀င္းလ်ွပ္စစ္,Win General Electric,21.886851,96.10388,09 202 1046,
MR005,မႏၱေလးတိုင္းေဒသႀကီး,Mandalay Division,ျပည္ႀကီးတံခြန္ျမိဳ့,PyiGyiTaGon,လ်ွပ္စစ္ပစၥည္းအေရာင္းဆိုင္,Electronic Store,ဘ၀သစ္,BaWaThit,21.92786,96.086549,09 40252 7791,
MR005,မႏၱေလးတိုင္းေဒသႀကီး,Mandalay Division,ျပည္ႀကီးတံခြန္ျမိဳ့,PyiGyiTaGon,လ်ွပ္စစ္ပစၥည္းအေရာင္းဆိုင္,Electronic Store,ဇြဲမာန္,Zwe Marn,21.901771,96.08272,09 681 5705,
MR005,မႏၱေလးတိုင္းေဒသႀကီး,Mandalay Division,ျပည္ႀကီးတံခြန္ျမိဳ့,PyiGyiTaGon,လ်ွပ္စစ္ပစၥည္းအေရာင္းဆိုင္,Electronic Store,ကို၀င္းေဌး,Ko Win Htay,21.895123,96.094556,09 798 788123,
MR005,မႏၱေလးတိုင္းေဒသႀကီး,Mandalay Division,ျပည္ႀကီးတံခြန္ျမိဳ့,PyiGyiTaGon,လ်ွပ္စစ္ပစၥည္းအေရာင္းဆိုင္,Electronic Store,ေအာင္ႀကယ္စင္,AungKyalSinn,21.909516,96.115066,09 44853 6090,
MR005,မႏၱေလးတိုင္းေဒသႀကီး,Mandalay Division,ျပည္ႀကီးတံခြန္ျမိဳ့,PyiGyiTaGon,လ်ွပ္စစ္ပစၥည္းအေရာင္းဆိုင္,Electronic Store,ထြန္းေရႊ,Htun Shwe,21.887539,96.109886,02 515 4081,
MR005,မႏၱေလးတိုင္းေဒသႀကီး,Mandalay Division,ျပည္ႀကီးတံခြန္ျမိဳ့,PyiGyiTaGon,လ်ွပ္စစ္ပစၥည္းအေရာင္းဆိုင္,Electronic Store,ဓူ၀ံႀကယ္,DuWon Kyal,21.903414,96.081667,09 974 348118,
MR005,မႏၱေလးတိုင္းေဒသႀကီး,Mandalay Division,ျပည္ႀကီးတံခြန္ျမိဳ့,PyiGyiTaGon,လ်ွပ္စစ္ပစၥည္းအေရာင္းဆိုင္,Electronic Store,ဟိန္း,Hein,21.902871,96.082239,09 203 0593,
MR005,မႏၱေလးတိုင္းေဒသႀကီး,Mandalay Division,ျပည္ႀကီးတံခြန္ျမိဳ့,PyiGyiTaGon,လ်ွပ္စစ္ပစၥည္းအေရာင္းဆိုင္,Electronic Store,လြင္ရတီ,Lwin Yati,21.904258,96.081672,09 910 47971,
MR005,မႏၱေလးတိုင္းေဒသႀကီး,Mandalay Division,ျပည္ႀကီးတံခြန္ျမိဳ့,PyiGyiTaGon,လ်ွပ္စစ္ပစၥည္းအေရာင္းဆိုင္,Electronic Store,စြမ္းထက္,SwanHtet,21.905069,96.081766,09 910 02575,
MR005,မႏၱေလးတိုင္းေဒသႀကီး,Mandalay Division,ျပည္ႀကီးတံခြန္ျမိဳ့,PyiGyiTaGon,လ်ွပ္စစ္ပစၥည္းအေရာင္းဆိုင္,Electronic Store,၇၃၅လ်ွပ္စစ္,735 Electronic,21.901608,96.083577,09 44401 1735,
MR005,မႏၱေလးတိုင္းေဒသႀကီး,Mandalay Division,ျပည္ႀကီးတံခြန္ျမိဳ့,PyiGyiTaGon,လ်ွပ္စစ္ပစၥည္းအေရာင္းဆိုင္,Electronic Store,ဟိန္းလ်ွပ္စစ္ဆိုင္,Hein Electronic Store,21.922606,96.088731,09 40249 3002,
MR005,မႏၱေလးတိုင္းေဒသႀကီး,Mandalay Division,ျပည္ႀကီးတံခြန္ျမိဳ့,PyiGyiTaGon,လ်ွပ္စစ္ပစၥည္းအေရာင္းဆိုင္,Electronic Store,မိဘေမတၱာ,Miba Myittar,21.912544,96.126004,09 789 600852,
MR005,မႏၱေလးတိုင္းေဒသႀကီး,Mandalay Division,ျပည္ႀကီးတံခြန္ျမိဳ့,PyiGyiTaGon,လ်ွပ္စစ္ပစၥည္းအေရာင္းဆိုင္,Electronic Store,ထူးေအာင္ေက်ာ္,HtooAungKyaw,21.914655,96.116904,09 792 055526,
MR005,မႏၱေလးတိုင္းေဒသႀကီး,Mandalay Division,မဟာေအာင္ေျမျမိဳ့,MaharAungMyay,ဓာတ္အားခြဲရံု,Electrical Substation,လီနီယာပါ၀ါကုမၸဏီ,"Linear Power Internationsl Co.,Ltd",21.955746,96.115018,09 44404 3793,
MR005,မႏၱေလးတိုင္းေဒသႀကီး,Mandalay Division,မဟာေအာင္ေျမျမိဳ့,MaharAungMyay,လ်ွပ္စစ္ပစၥည္းျပဳျပင္ေရး,Electronic Service,ျပည့္စံု,Pyae Sone,21.96865,96.09593,09 40252 1915,
MR005,မႏၱေလးတိုင္းေဒသႀကီး,Mandalay Division,မဟာေအာင္ေျမျမိဳ့,MaharAungMyay,လ်ွပ္စစ္ပစၥည္းျပဳျပင္ေရး,Electronic Service,၀င္း,Win ,21.964201,96.075077,09 910 08356,
MR005,မႏၱေလးတိုင္းေဒသႀကီး,Mandalay Division,မဟာေအာင္ေျမျမိဳ့,MaharAungMyay,လ်ွပ္စစ္ပစၥည္းအေရာင္းဆိုင္,Electronic Store,ယူပီေက,UPK,21.9569572,96.101831,09 40256 9339,
MR005,မႏၱေလးတိုင္းေဒသႀကီး,Mandalay Division,မဟာေအာင္ေျမျမိဳ့,MaharAungMyay,လ်ွပ္စစ္ပစၥည္းအေရာင္းဆိုင္,Electronic Store,ဖူဂ်ီ,PhuGyi,21.964673,96.108164,09 259 143 028,
MR005,မႏၱေလးတိုင္းေဒသႀကီး,Mandalay Division,မဟာေအာင္ေျမျမိဳ့,MaharAungMyay,လ်ွပ္စစ္ပစၥည္းအေရာင္းဆိုင္,Electronic Store,မ်ိဳးေဇာ္,Myo Zaw,21.964823,96.099794,09 910 05959,
MR005,မႏၱေလးတိုင္းေဒသႀကီး,Mandalay Division,မဟာေအာင္ေျမျမိဳ့,MaharAungMyay,လ်ွပ္စစ္ပစၥည္းအေရာင္းဆိုင္,Electronic Store,ကာဒီလိုက္,Cadi Light,21.965817,96.111922,09 766 288388,
MR005,မႏၱေလးတိုင္းေဒသႀကီး,Mandalay Division,မဟာေအာင္ေျမျမိဳ့,MaharAungMyay,လ်ွပ္စစ္ပစၥည္းအေရာင္းဆိုင္,Electronic Store,မြန္းလိုက္,Moon Light,21.967834,96.084179,,
MR005,မႏၱေလးတိုင္းေဒသႀကီး,Mandalay Division,မဟာေအာင္ေျမျမိဳ့,MaharAungMyay,လ်ွပ္စစ္ပစၥည္းအေရာင္းဆိုင္,Electronic Store,မိတ္ဆက္,MateSat,21.962543,96.080001,09 40257 5782,
MR005,မႏၱေလးတိုင္းေဒသႀကီး,Mandalay Division,မဟာေအာင္ေျမျမိဳ့,MaharAungMyay,လ်ွပ္စစ္ပစၥည္းအေရာင္းဆိုင္,Electronic Store,ဂိုးဒင္းလိုက္,Golden Light,21.96281,96.085676,02 407 2741,
MR005,မႏၱေလးတိုင္းေဒသႀကီး,Mandalay Division,မဟာေအာင္ေျမျမိဳ့,MaharAungMyay,လ်ွပ္စစ္ပစၥည္းအေရာင္းဆိုင္,Electronic Store,ေတာ္၀င္အလင္းလ်ွပ္စစ္,Royal Light Electric,21.968792,96.094221,09 44401 3945,
MR005,မႏၱေလးတိုင္းေဒသႀကီး,Mandalay Division,မဟာေအာင္ေျမျမိဳ့,MaharAungMyay,လ်ွပ္စစ္ပစၥည္းအေရာင္းဆိုင္,Electronic Store,တီႏွင့္တီဆိုင္းကုမၸဏီ,"T&T Sine International Co.,Ltd",21.95388,96.101099,09 964 844885,
MR005,မႏၱေလးတိုင္းေဒသႀကီး,Mandalay Division,မဟာေအာင္ေျမျမိဳ့,MaharAungMyay,လ်ွပ္စစ္ပစၥည္းအေရာင္းဆိုင္,Electronic Store,ေရႊျမန္မာ,Shwe Myanamar,21.959273,96.110924,09 40270 4475,
MR005,မႏၱေလးတိုင္းေဒသႀကီး,Mandalay Division,မဟာေအာင္ေျမျမိဳ့,MaharAungMyay,လ်ွပ္စစ္ပစၥည္းအေရာင္းဆိုင္,Electronic Store,ျမစ္၀ါ,Myit War,21.967643,96.113719,09 777 755622,
MR005,မႏၱေလးတိုင္းေဒသႀကီး,Mandalay Division,မဟာေအာင္ေျမျမိဳ့,MaharAungMyay,လ်ွပ္စစ္ပစၥည္းအေရာင္းဆိုင္,Electronic Store,ဟုမ္းပလက္စ္,HomePlus,21.967108,96.119768,09 975 032000,
MR005,မႏၱေလးတိုင္းေဒသႀကီး,Mandalay Division,မဟာေအာင္ေျမျမိဳ့,MaharAungMyay,လ်ွပ္စစ္ပစၥည္းအေရာင္းဆိုင္,Electronic Store,မိုး,Moe,21.962764,96.059149,09 44101 3289,
MR005,မႏၱေလးတိုင္းေဒသႀကီး,Mandalay Division,မဟာေအာင္ေျမျမိဳ့,MaharAungMyay,လ်ွပ္စစ္ပစၥည္းအေရာင္းဆိုင္,Electronic Store,ခ်နိုက္တာလ်ွပ္စစ္,Schneider Electric,21.955236,96.088118,09 977 904550,
MR005,မႏၱေလးတိုင္းေဒသႀကီး,Mandalay Division,မဟာေအာင္ေျမျမိဳ့,MaharAungMyay,လ်ွပ္စစ္ပစၥည္းအေရာင္းဆိုင္,Electronic Store,သစၥာျမန္မာ,"ThitsarMyanmar Co.,Ltd",21.955465,96.105075,09 969 776680,
MR005,မႏၱေလးတိုင္းေဒသႀကီး,Mandalay Division,မဟာေအာင္ေျမျမိဳ့,MaharAungMyay,လ်ွပ္စစ္ပစၥည္းအေရာင္းဆိုင္,Electronic Store,မင္းသီဟ,Min Thiha,21.963616,96.101562,09 960 182790,
MR005,မႏၱေလးတိုင္းေဒသႀကီး,Mandalay Division,မဟာေအာင္ေျမျမိဳ့,MaharAungMyay,လ်ွပ္စစ္ပစၥည္းအေရာင္းဆိုင္,Electronic Store,လိွဳင္းသစ္,Hlaing Thit,21.967174,96.101119,09 256 118 823,
MR005,မႏၱေလးတိုင္းေဒသႀကီး,Mandalay Division,မဟာေအာင္ေျမျမိဳ့,MaharAungMyay,လ်ွပ္စစ္ပစၥည္းအေရာင္းဆိုင္,Electronic Store,ေရာင္ျခည္သစ္,Yaung Chi Thit,21.963963,96.101408,09 44418 4334,
MR005,မႏၱေလးတိုင္းေဒသႀကီး,Mandalay Division,မဟာေအာင္ေျမျမိဳ့,MaharAungMyay,လ်ွပ္စစ္ပစၥည္းအေရာင္းဆိုင္,Electronic Store,ကိုေဆြ,Ko Swe,21.955377,96.073465,09 430 62987,
MR005,မႏၱေလးတိုင္းေဒသႀကီး,Mandalay Division,မဟာေအာင္ေျမျမိဳ့,MaharAungMyay,လ်ွပ္စစ္ပစၥည္းအေရာင္းဆိုင္,Electronic Store,ေကာင္းျမတ္,Kaung Myat,21.965766,96.088125,09 410 01688,
MR005,မႏၱေလးတိုင္းေဒသႀကီး,Mandalay Division,မဟာေအာင္ေျမျမိဳ့,MaharAungMyay,လ်ွပ္စစ္ပစၥည္းအေရာင္းဆိုင္,Electronic Store,ေအစက္တီအို,ASTO,21.963676,96.097093,09 695 311431,
MR005,မႏၱေလးတိုင္းေဒသႀကီး,Mandalay Division,မဟာေအာင္ေျမျမိဳ့,MaharAungMyay,လ်ွပ္စစ္ပစၥည္းအေရာင္းဆိုင္,Electronic Store,ေအးပက္စ္အန္မီးလင္း,Apex and Meiling,21.968556,96.096531,09 978 113998,
MR005,မႏၱေလးတိုင္းေဒသႀကီး,Mandalay Division,မဟာေအာင္ေျမျမိဳ့,MaharAungMyay,လ်ွပ္စစ္ပစၥည္းအေရာင္းဆိုင္,Electronic Store,အင္ပါယာ,Emperor,21.967011,96.098856,09 779 559377,
MR005,မႏၱေလးတိုင္းေဒသႀကီး,Mandalay Division,မဟာေအာင္ေျမျမိဳ့,MaharAungMyay,လ်ွပ္စစ္ပစၥည္းအေရာင္းဆိုင္,Electronic Store,ေရႊလီထြန္း,Shwe Li Tun,21.962341,96.094804,09 910 50340,
MR005,မႏၱေလးတိုင္းေဒသႀကီး,Mandalay Division,မဟာေအာင္ေျမျမိဳ့,MaharAungMyay,လ်ွပ္စစ္ပစၥည္းအေရာင္းဆိုင္,Electronic Store,၀င္း၀ါ,Win War,21.96089,96.095575,09 40225 2052,
MR005,မႏၱေလးတိုင္းေဒသႀကီး,Mandalay Division,မဟာေအာင္ေျမျမိဳ့,MaharAungMyay,လ်ွပ္စစ္ပစၥည္းအေရာင္းဆိုင္,Electronic Store,ျမန္မာကန္ဂရူး,Myanmar Kagroo,21.969044,96.083428,09 40024 0033,
MR005,မႏၱေလးတိုင္းေဒသႀကီး,Mandalay Division,မဟာေအာင္ေျမျမိဳ့,MaharAungMyay,လ်ွပ္စစ္ပစၥည္းအေရာင္းဆိုင္,Electronic Store,၃၅ လူထုလ်ွပ္စစ္,25 LuHtu Electric,21.968311,96.076252,09 203 8316,
MR005,မႏၱေလးတိုင္းေဒသႀကီး,Mandalay Division,မဟာေအာင္ေျမျမိဳ့,MaharAungMyay,လ်ွပ္စစ္ပစၥည္းအေရာင္းဆိုင္,Electronic Store,ေရႊပင္လံု,Shwe Pin Lon,21.967807,96.091032,09 44101 4070,
MR005,မႏၱေလးတိုင္းေဒသႀကီး,Mandalay Division,မဟာေအာင္ေျမျမိဳ့,MaharAungMyay,လ်ွပ္စစ္ပစၥည္းအေရာင္းဆိုင္,Electronic Store,ခ်မ္းစိန္,Chan Sein,21.967581,96.090469,09 259 119 868,
MR005,မႏၱေလးတိုင္းေဒသႀကီး,Mandalay Division,မဟာေအာင္ေျမျမိဳ့,MaharAungMyay,လ်ွပ္စစ္ပစၥည္းအေရာင္းဆိုင္,Electronic Store,ကိုလက္စီဟုမ္း,Coolexe's Home,21.965629,96.08182,09 44229 9998,
MR005,မႏၱေလးတိုင္းေဒသႀကီး,Mandalay Division,မဟာေအာင္ေျမျမိဳ့,MaharAungMyay,လ်ွပ္စစ္ပစၥည္းအေရာင္းဆိုင္,Electronic Store,ဦးေအာင္နုိင္အိမ္,U Aung Naing Home,21.965152,96.109276,09 430 02223,
MR005,မႏၱေလးတိုင္းေဒသႀကီး,Mandalay Division,မဟာေအာင္ေျမျမိဳ့,MaharAungMyay,လ်ွပ္စစ္ပစၥည္းအေရာင္းဆိုင္,Electronic Store,နထရြန္ျမန္မာ,"Natron Myanmar Trading Co.,Ltd",21.965601,96.115557,09 253 021 622,
MR005,မႏၱေလးတိုင္းေဒသႀကီး,Mandalay Division,မဟာေအာင္ေျမျမိဳ့,MaharAungMyay,လ်ွပ္စစ္ပစၥည္းအေရာင္းဆိုင္,Electronic Store,ေနရွင္နယ္,National,21.968563,96.093151,09 431 59025,
MR005,မႏၱေလးတိုင္းေဒသႀကီး,Mandalay Division,မဟာေအာင္ေျမျမိဳ့,MaharAungMyay,လ်ွပ္စစ္ပစၥည္းအေရာင္းဆိုင္,Electronic Store,အမ္အမ္(၃)လ်ွပ္စစ္,MM(III) Electronic,21.969336,96.079203,09 202 1146,
MR005,မႏၱေလးတိုင္းေဒသႀကီး,Mandalay Division,မဟာေအာင္ေျမျမိဳ့,MaharAungMyay,လ်ွပ္စစ္ပစၥည္းအေရာင္းဆိုင္,Electronic Store,ဇင္,Zin,21.970147,96.08847,02 402 2318,
MR005,မႏၱေလးတိုင္းေဒသႀကီး,Mandalay Division,ေအာင္ေျမသာဇံ,AungMyayThaZan,လ်ွပ္စစ္ဓာတ္အားျဖန့္ျဖဴးေရး,Electrical Substation,ေအာင္ေျမသာစံျမိဳ့နယ္လ်ွပ္စစ္မန္ေနဂ်ာရံုး,AungMyayTharSan Electric Manager Office,21.017782,96.097147,02 39 163,
MR005,မႏၱေလးတိုင္းေဒသႀကီး,Mandalay Division,ေအာင္ေျမသာဇံ,AungMyayThaZan,လ်ွပ္စစ္ပစၥည္းျပဳျပင္ေရး,Electronic Service,ေအာင္သိဒၳိလ်ွပ္စစ္ျပဳျပင္ေရး(ဦးေအာင္ႀကီး),Aung Theitdi Electronic Service(U Aung Gyi),22.001751,96.119584,09 334 14347,
MR005,မႏၱေလးတိုင္းေဒသႀကီး,Mandalay Division,ေအာင္ေျမသာဇံ,AungMyayThaZan,လ်ွပ္စစ္ပစၥည္းျပဳျပင္ေရး,Electronic Service,ရွယ္လက္ရာ,ShalLatYar,21.981528,96.061749,09 42802 7742,
MR005,မႏၱေလးတိုင္းေဒသႀကီး,Mandalay Division,ေအာင္ေျမသာဇံ,AungMyayThaZan,လ်ွပ္စစ္ပစၥည္းအေရာင္းဆိုင္,Electronic Service,မာစတာ,Master ,21.988831,96.076145,09 910 06198,
MR005,မႏၱေလးတိုင္းေဒသႀကီး,Mandalay Division,ေအာင္ေျမသာဇံ,AungMyayThaZan,လ်ွပ္စစ္ပစၥည္းအေရာင္းဆိုင္,Electronic Store,ကိုမင္းမင္း,Ko Min Min,21.997035,96.079974,09 973 577796,
MR005,မႏၱေလးတိုင္းေဒသႀကီး,Mandalay Division,ေအာင္ေျမသာဇံ,AungMyayThaZan,လ်ွပ္စစ္ပစၥည္းအေရာင္းဆိုင္,Electronic Store,အက္အမ္အမ္အန္အမ္အမ္အီလ်ွပ္စစ,SMM and MMT Electric,21.993062,96.079289,09 40324 6323,
MR005,မႏၱေလးတိုင္းေဒသႀကီး,Mandalay Division,ေအာင္ေျမသာဇံ,AungMyayThaZan,လ်ွပ္စစ္ပစၥည္းအေရာင္းဆိုင္,Electronic Store,တီဇက္လ်ွပ္စစ္,Tz Electronic,21.992904,96.079238,09 910 02569,
MR005,မႏၱေလးတိုင္းေဒသႀကီး,Mandalay Division,ေအာင္ေျမသာဇံ,AungMyayThaZan,လ်ွပ္စစ္ပစၥည္းအေရာင္းဆိုင္,Electronic Store,လမင္းႀကယ္(၂၂လမ္း),LaMinKyal(22)Street,21.988953,96.075827,09 44402 4446,
MR005,မႏၱေလးတိုင္းေဒသႀကီး,Mandalay Division,ေအာင္ေျမသာဇံ,AungMyayThaZan,လ်ွပ္စစ္ပစၥည္းအေရာင္းဆိုင္,Electronic Store,မာစတာ,Master ,21.988831,96.076145,09 910 06198,
MR005,မႏၱေလးတိုင္းေဒသႀကီး,Mandalay Division,ေအာင္ေျမသာဇံ,AungMyayThaZan,လ်ွပ္စစ္ပစၥည္းအေရာင္းဆိုင္,Electronic Store,ဦး၀င္းတင္,U Win Tin,21.98603,96.08132,09 975 311787,
MR005,မႏၱေလးတိုင္းေဒသႀကီး,Mandalay Division,ေအာင္ေျမသာဇံ,AungMyayThaZan,လ်ွပ္စစ္ပစၥည္းအေရာင္းဆိုင္,Electronic Store,သစၥာျဖဴ,ThitSarPhyu,21.983764,96.078756,02 406 6340,
MR005,မႏၱေလးတိုင္းေဒသႀကီး,Mandalay Division,ေအာင္ေျမသာဇံ,AungMyayThaZan,လ်ွပ္စစ္ပစၥည္းအေရာင္းဆိုင္,Electronic Store,ငု၀ါ,Ngu War,21.983044,96.082305,02 403 4439,
MR005,မႏၱေလးတိုင္းေဒသႀကီး,Mandalay Division,ေအာင္ေျမသာဇံ,AungMyayThaZan,လ်ွပ္စစ္ပစၥည္းအေရာင္းဆိုင္,Electronic Store,တကၠသိုလ္,TAKATHO Electric Shop,21.983417,96.078958,,
MR005,မႏၱေလးတိုင္းေဒသႀကီး,Mandalay Division,ေအာင္ေျမသာဇံ,AungMyayThaZan,လ်ွပ္စစ္ပစၥည္းအေရာင္းဆိုင္,Electronic Store,စီအက္အက္ ကုမၸဏီ,"Css Co.,Ltd",21.985758,96.079791,02 403 6271,
MR005,မႏၱေလးတိုင္းေဒသႀကီး,Mandalay Division,ေအာင္ေျမသာဇံ,AungMyayThaZan,လ်ွပ္စစ္ပစၥည္းအေရာင္းဆိုင္,Electronic Store,တီတီအိတ္ခ်္,T.T.H,21.983977,96.078827,09 259 004 049,
MR005,မႏၱေလးတိုင္းေဒသႀကီး,Mandalay Division,ေအာင္ေျမသာဇံ,AungMyayThaZan,လ်ွပ္စစ္ပစၥည္းအေရာင္းဆိုင္,Electronic Store,သရဖူ,Crown Electronic,21.982184,96.100818,,
MR005,မႏၱေလးတိုင္းေဒသႀကီး,Mandalay Division,ေအာင္ေျမသာဇံ,AungMyayThaZan,လ်ွပ္စစ္ပစၥည္းအေရာင္းဆိုင္,Electronic Store,ေကတီ,K T,21.991151,96.112028,09 977 903712,
MR005,မႏၱေလးတိုင္းေဒသႀကီး,Mandalay Division,ေအာင္ေျမသာဇံ,AungMyayThaZan,လ်ွပ္စစ္ပစၥည္းအေရာင္းဆိုင္,Electronic Store,နီလာ,Nilar,21.991837,96.111715,09 40251 9966,
MR005,မႏၱေလးတိုင္းေဒသႀကီး,Mandalay Division,ေအာင္ေျမသာဇံ,AungMyayThaZan,လ်ွပ္စစ္ပစၥည္းအေရာင္းဆိုင္,Electronic Store,ေရႊျပည္ေက်ာ္,Shwe Pyi Kyaw,21.991737,96.111197,09 257 772 080,
MR005,မႏၱေလးတိုင္းေဒသႀကီး,Mandalay Division,ေအာင္ေျမသာဇံ,AungMyayThaZan,လ်ွပ္စစ္ပစၥည္းအေရာင္းဆိုင္,Electronic Store,ေအာင္သိဒၳိလ်ွပ္စစ္ျပဳျပင္ေရး(ဦးေအာင္ႀကီး),Aung Theitdi Electronic Service(U Aung Gyi),22.001751,96.119584,09 334 14347,
MR005,မႏၱေလးတိုင္းေဒသႀကီး,Mandalay Division,ေအာင္ေျမသာဇံ,AungMyayThaZan,လ်ွပ္စစ္ပစၥည္းအေရာင္းဆိုင္,Electronic Store,နႏၵာ,Nandar Electric and Electronic,21.991317,96.06988,09 203 0079,
MR005,မႏၱေလးတိုင္းေဒသႀကီး,Mandalay Division,ေအာင္ေျမသာဇံ,AungMyayThaZan,လ်ွပ္စစ္ပစၥည္းအေရာင္းဆိုင္,Electronic Store,အက္တီဗိတ္,Activate Electronic,21.987396,96.062105,,
MR005,မႏၱေလးတိုင္းေဒသႀကီး,Mandalay Division,ေအာင္ေျမသာဇံ,AungMyayThaZan,လ်ွပ္စစ္ပစၥည္းအေရာင္းဆိုင္,Electronic Store,ေကဇက္အန္,KZN,22.005379,96.106963,09 910 16978,
MR005,မႏၱေလးတိုင္းေဒသႀကီး,Mandalay Division,ေအာင္ေျမသာဇံ,AungMyayThaZan,လ်ွပ္စစ္ပစၥည္းအေရာင္းဆိုင္,Electronic Store,စီဒဗလ်ဴလ်ွပ္စစ္,CW Electronic,21.983042,96.082224,09 200 4486,
MR005,မႏၱေလးတိုင္းေဒသႀကီး,Mandalay Division,ေအာင္ေျမသာဇံ,AungMyayThaZan,လ်ွပ္စစ္ပစၥည္းအေရာင္းဆိုင္,Electronic Store,ပီတီလ်ွပ္စစ္,P T Electrical,21.983092,96.079266,09 431 45646,
MR005,မႏၱေလးတိုင္းေဒသႀကီး,Mandalay Division,ေအာင္ေျမသာဇံ,AungMyayThaZan,လ်ွပ္စစ္ပစၥည္းအေရာင္းဆိုင္,Electronic Store,စတားလိုက္,Star Light,21.983257,96.079808,02 73 749,
MR005,မႏၱေလးတိုင္းေဒသႀကီး,Mandalay Division,ေအာင္ေျမသာဇံ,AungMyayThaZan,လ်ွပ္စစ္ပစၥည္းအေရာင္းဆိုင္,Electronic Store,မန္းေအာင္ေအာင္,Man Aung Aung,22.010196,96.092215,09 40264 2524,
MR005,မႏၱေလးတိုင္းေဒသႀကီး,Mandalay Division,ေအာင္ေျမသာဇံ,AungMyayThaZan,လ်ွပ္စစ္ပစၥည္းအေရာင္းဆိုင္,Electronic Store,ဖန္စီလိုက္,Fancy Light,21.008061,96.091961,09 731 77607,
MR005,မႏၱေလးတိုင္းေဒသႀကီး,Mandalay Division,ေအာင္ေျမသာဇံ,AungMyayThaZan,လ်ွပ္စစ္ပစၥည္းအေရာင္းဆိုင္,Electronic Store,ေမလင္း,May Lin,22.007965,96.0858,09 966 248597,
MR005,မႏၱေလးတိုင္းေဒသႀကီး,Mandalay Division,ေအာင္ေျမသာဇံ,AungMyayThaZan,လ်ွပ္စစ္ပစၥည္းအေရာင္းဆိုင္,Electronic Store,ပစ္တိုင္းေထာင္,PyitTineHtaung,22.003776,98.084617,09 40259 5902,
MR005,မႏၱေလးတိုင္းေဒသႀကီး,Mandalay Division,ေအာင္ေျမသာဇံ,AungMyayThaZan,လ်ွပ္စစ္ပစၥည္းအေရာင္းဆိုင္,Electronic Store,ေအာင္နိုင္သူ,AungNaingThu,22.000871,96.081456,09 263 648 990,
MR005,မႏၱေလးတိုင္းေဒသႀကီး,Mandalay Division,ေအာင္ေျမသာဇံ,AungMyayThaZan,လ်ွပ္စစ္ပစၥည္းအေရာင္းဆိုင္,Electronic Store,ဆမ္ဆမ္မီးအားျမွင့္စက္အမ်ဳးိမ်ိဳး,Sam Sam,21.99372,96.071548,09 200 3793,
MR005,မႏၱေလးတိုင္းေဒသႀကီး,Mandalay Division,ေအာင္ေျမသာဇံ,AungMyayThaZan,လ်ွပ္စစ္ပစၥည္းအေရာင္းဆိုင္,Electronic Store,စိန္,SEIN,21.983621,96.072856,02 407 1155,
MR005,မႏၱေလးတိုင္းေဒသႀကီး,Mandalay Division,ေအာင္ေျမသာဇံ,AungMyayThaZan,လ်ွပ္စစ္ပစၥည္းအေရာင္းဆိုင္,Electronic Store,ကူမင္းမင္းေခ်ာင္လ်ွပ္စစ္ဓာတ္ႀကိဳးလုပ္ငန္း,KuminMingChao Electrical Cable Group,21.983659,96.078442,09 968 660650,
MR005,မႏၱေလးတိုင္းေဒသႀကီး,Mandalay Division,ေအာင္ေျမသာဇံ,AungMyayThaZan,လ်ွပ္စစ္ပစၥည္းအေရာင္းဆိုင္,Electronic Store,ေ၀ယံ,Wai Yan ,21.005043,96.109267,09 333 13721,
MR005,မႏၱေလးတိုင္းေဒသႀကီး,Mandalay Division,ေအာင္ေျမသာဇံ,AungMyayThaZan,လ်ွပ္စစ္ပစၥည္းအေရာင္းဆိုင္,Electronic Store,စစ္သည္,Sitt Thee,21.992566,96.113485,09 44404 3139,
MR005,မႏၱေလးတိုင္းေဒသႀကီး,Mandalay Division,ေအာင္ေျမသာဇံ,AungMyayThaZan,လ်ွပ္စစ္ပစၥည္းအေရာင္းဆိုင္,Electronic Store,အိုေက ၂၀၀၀,OK 2000,21.992468,96.11349,09 200 6293,
MR005,မႏၱေလးတိုင္းေဒသႀကီး,Mandalay Division,ေအာင္ေျမသာဇံ,AungMyayThaZan,လ်ွပ္စစ္ပစၥည္းအေရာင္းဆိုင္,Electronic Store,ေတာ္၀င္,Taw Win,21.992379,96.11803,09 40276 6217,
MR005,မႏၱေလးတိုင္းေဒသႀကီး,Mandalay Division,ေအာင္ေျမသာဇံ,AungMyayThaZan,လ်ွပ္စစ္ပစၥည္းအေရာင္းဆိုင္,Electronic Store,ေကာင္းထက္,Kaung Htet,21.991618,96.125409,09 973 781222,
MR005,မႏၱေလးတိုင္းေဒသႀကီး,Mandalay Division,ေအာင္ေျမသာဇံ,AungMyayThaZan,လ်ွပ္စစ္ပစၥည္းအေရာင္းဆိုင္,Electronic Store,ေအေကဇက္,A.K.Z Laminate Floor and Wall Paper,21.984351,96.078309,09 202 1690,
MR005,မႏၱေလးတိုင္းေဒသႀကီး,Mandalay Division,ေအာင္ေျမသာဇံ,AungMyayThaZan,လ်ွပ္စစ္ပစၥည္းအေရာင္းဆိုင္,Electronic Store,ထိန္ထိန္,HtainHtain,21.983376,96.083238,02 61 681,
MR005,မႏၱေလးတိုင္းေဒသႀကီး,Mandalay Division,ေအာင္ေျမသာဇံ,AungMyayThaZan,လ်ွပ္စစ္ပစၥည္းအေရာင္းဆိုင္,Electronic Store,ဒဂံု,Dagon,21.903012,96.083295,02 31 394,
MR005,မႏၱေလးတိုင္းေဒသႀကီး,Mandalay Division,ေက်ာက္ဆည္ျမို့,KyaukSe,ေရအားလွ်ပ္စစ္ဓာတ္အားေပးစက္ရံု,Hydroelectric Power Plant,ျမိဳ ့ႀကီးဆည္,Myo Gyi Hydro Power Plant,21.465067,96.380941,,
MR005,မႏၱေလးတိုင္းေဒသႀကီး,Mandalay Division,ေက်ာက္ဆည္ျမို့,KyaukSe,ေရအားလွ်ပ္စစ္ဓာတ္အားေပးစက္ရံု,Hydroelectric Power Plant,ရဲရြာေရအားလ်ွပ္စစ္ဓာတ္အားေပးစက္ရံု,Yeywa Hydro Power Plant,21.672905,96.474053,,
MR005,မႏၱေလးတိုင္းေဒသႀကီး,Mandalay Division,ေက်ာက္ဆည္ျမို့,KyaukSe,လ်ွပ္စစ္ပစၥည္းအေရာင္းဆိုင္,Electronic Store,ဦးေသာင္းလ်ွပ္စစ္,U Thaung Electronic ,21.599284,96.135523,,
MR005,မႏၱေလးတိုင္းေဒသႀကီး,Mandalay Division,ေက်ာက္ဆည္ျမို့,KyaukSe,လ်ွပ္စစ္ပစၥည္းအေရာင္းဆိုင္,Electronic Store,အံ့ဖြယ္မိုဘိုင္းနွင့္လ်ွပ္စစ္,Ant Phwe Mobile & Electronic,21.609662,96.134166,09 253 590 005,
MR005,မႏၱေလးတိုင္းေဒသႀကီး,Mandalay Division,ေက်ာက္ဆည္ျမို့,KyaukSe,လ်ွပ္စစ္ပစၥည္းအေရာင္းဆိုင္,Electronic Store,ေရႊရတီ,Shwe Yati,21.609035,96.135395,066 50 485,
MR005,မႏၱေလးတိုင္းေဒသႀကီး,Mandalay Division,ေက်ာက္ဆည္ျမို့,KyaukSe,လ်ွပ္စစ္ပစၥည္းအေရာင္းဆိုင္,Electronic Store,သာဦး,TharOo,21.605585,96.136857,09 797 914420,
MR005,မႏၱေလးတိုင္းေဒသႀကီး,Mandalay Division,ေက်ာက္ဆည္ျမို့,KyaukSe,လ်ွပ္စစ္ပစၥည္းအေရာင္းဆိုင္,Electronic Store,စကား၀ါ,Sakarwar,21.597246,96.130006,,
MR005,မႏၱေလးတိုင္းေဒသႀကီး,Mandalay Division,ေက်ာက္ဆည္ျမို့,KyaukSe,လ်ွပ္စစ္ပစၥည္းအေရာင္းဆိုင္,Electronic Store,လြင္လြင္,LwinLwin,21.611782,96.134398,066 205 0066,
MR005,မႏၱေလးတိုင္းေဒသႀကီး,Mandalay Division,ေက်ာက္ပန္းေတာင္းျမို့,Kyaukpadaung,လ်ွပ္စစ္ပစၥည္းအေရာင္းဆိုင္,Electronic Store,လမင္းစိုးလ်ွပ္စစ္,LaMinSoe Electronic,20.849239,95.131882,,
MR005,မႏၱေလးတိုင္းေဒသႀကီး,Mandalay Division,ေက်ာက္ပန္းေတာင္းျမို့,Kyaukpadaung,လ်ွပ္စစ္ပစၥည္းအေရာင္းဆိုင္,Electronic Store,ရြဲဒိုး,Ywal Doe Electronic,20.844373,95.127592,,
MR005,မႏၱေလးတိုင္းေဒသႀကီး,Mandalay Division,ေက်ာက္ပန္းေတာင္းျမို့,Kyaukpadaung,လ်ွပ္စစ္ပစၥည္းအေရာင္းဆိုင္,Electronic Store,စီးလိုက္,Sea Light,20.84587,95.122917,061 50 128,
MR006,ရန္ကုန္တိုင္းေဒသျကီး,Yangon Division,ဒဂံုျမို႕သစ္အေရွ့ပိုင္း,East Dagon,လ်ွပ္စစ္ပစၥည္းျပဳျပင္ေရး,Electronic Service,ေနမင္းထြန္း,Nay Min Tun,16.89311,96.236305,,
MR006,ရန္ကုန္တိုင္းေဒသျကီး,Yangon Division,အလံု,Ahlone,လ်ွပ္စစ္ပစၥည္းအေရာင္းဆိုင္,Electronic Store,ဟိတခ်ိ,Hitachi,16.788289,96.124095,012301267,
MR006,ရန္ကုန္တိုင္းေဒသျကီး,Yangon Division,အလံု,Ahlone,လ်ွပ္စစ္ပစၥည္းအေရာင္းဆိုင္,Electronic Store,ဂိုးလ္စတားဒိုင္းမြန္း,Gold Star Diamond,16.78297,96.128888,,
MR006,ရန္ကုန္တိုင္းေဒသျကီး,Yangon Division,အလံု,Ahlone,လ်ွပ္စစ္ပစၥည္းအေရာင္းဆိုင္,Electronic Store,ေရႊပန္းခ်ီ,Shwe Bagyi,16.78838,96.124379,,
MR006,ရန္ကုန္တိုင္းေဒသျကီး,Yangon Division,အလံု,Ahlone,လ်ွပ္စစ္ပစၥည္းအေရာင္းဆိုင္,Electronic Store,စႏၵီဆိုလာ,Sandisolar,16.788491,96.124471,09 44341 4499,
MR006,ရန္ကုန္တိုင္းေဒသျကီး,Yangon Division,အလံု,Ahlone,လ်ွပ္စစ္ပစၥည္းအေရာင္းဆိုင္,Electronic Store,သူငယ္ခ်င္း,Friend,16.803645,96.130922,01505483,
MR006,ရန္ကုန္တိုင္းေဒသျကီး,Yangon Division,အလံု,Ahlone,လ်ွပ္စစ္ပစၥည္းျပဳျပင္ေရး,Electronic Service,ပနစိုးနစ္,Panasonic,16.785787,96.125255,,
MR006,ရန္ကုန္တိုင္းေဒသျကီး,Yangon Division,အလံု,Ahlone,လ်ွပ္စစ္ပစၥည္းအေရာင္းဆိုင္,Electronic Store,ျမင့္သန္း,Myint Than,16.793448,96.12343,09966559228,
MR006,ရန္ကုန္တိုင္းေဒသျကီး,Yangon Division,အလံု,Ahlone,လ်ွပ္စစ္ပစၥည္းအေရာင္းဆိုင္,Electronic Store,ယူနီဖိုင္း,Unified,16.791158,96.127629,09450450706,
MR006,ရန္ကုန္တိုင္းေဒသျကီး,Yangon Division,အလံု,Ahlone,လ်ွပ္စစ္ပစၥည္းအေရာင္းဆိုင္,Electronic Store,ဂလက္စီ,Galaxy,16.787385,96.128085,,
MR006,ရန္ကုန္တိုင္းေဒသျကီး,Yangon Division,အလံု,Ahlone,လ်ွပ္စစ္ပစၥည္းအေရာင္းဆိုင္,Electronic Store,မီဒီယာ,Media,16.775151,96.1448,012303014,
MR006,ရန္ကုန္တိုင္းေဒသျကီး,Yangon Division,အလံု,Ahlone,လ်ွပ္စစ္ပစၥည္းအေရာင္းဆိုင္,Electronic Store,ေရႊဓူ၀ံ,Shwe Duon,16.791683,96.124226,01216703,
MR006,ရန္ကုန္တိုင္းေဒသျကီး,Yangon Division,အလံု,Ahlone,လ်ွပ္စစ္ပစၥည္းအေရာင္းဆိုင္,Electronic Store,မစ္စတာအဲ,Mr. Air,16.786117,96.128268,0973052628,
MR006,ရန္ကုန္တိုင္းေဒသျကီး,Yangon Division,အလံု,Ahlone,လ်ွပ္စစ္ပစၥည္းအေရာင္းဆိုင္,Electronic Store,ေအာ္တိုေမးရွဲန္,Automation,16.7919428,96.1234937,09425301536,
MR006,ရန္ကုန္တိုင္းေဒသျကီး,Yangon Division,အလံု,Ahlone,လ်ွပ္စစ္ပစၥည္းအေရာင္းဆိုင္,Electronic Store,မဟာမိတ္,Mahar Mate,16.7846786,96.1284446,09775570253,
MR006,ရန္ကုန္တိုင္းေဒသျကီး,Yangon Division,အလံု,Ahlone,လ်ွပ္စစ္ပစၥည္းအေရာင္းဆိုင္,Electronic Store,ဖိလပ္,Philips,16.803599,96.133948,01510635,
MR006,ရန္ကုန္တိုင္းေဒသျကီး,Yangon Division,အလံု,Ahlone,လ်ွပ္စစ္ပစၥည္းအေရာင္းဆိုင္,Electronic Store,ဇက္အီးစီ,ZEC,16.796201,96.126711,09974604255,
MR006,ရန္ကုန္တိုင္းေဒသျကီး,Yangon Division,အလံု,Ahlone,လ်ွပ္စစ္ပစၥည္းအေရာင္းဆိုင္,Electronic Store,လွမဥၨူ,Hlaminzu,16.788149,96.124112,012314140,
MR006,ရန္ကုန္တိုင္းေဒသျကီး,Yangon Division,အလံု,Ahlone,လ်ွပ္စစ္ပစၥည္းအေရာင္းဆိုင္,Electronic Store,ေအာင္ရတနာ,Aung Yadanar,16.788339,96.126874,,
MR006,ရန္ကုန္တိုင္းေဒသျကီး,Yangon Division,အလံု,Ahlone,လ်ွပ္စစ္ပစၥည္းအေရာင္းဆိုင္,Electronic Store,ထူးေန,Htoo Nay,16.789229,96.126522,09786024153,
MR006,ရန္ကုန္တိုင္းေဒသျကီး,Yangon Division,အလံု,Ahlone,လ်ွပ္စစ္ပစၥည္းအေရာင္းဆိုင္,Electronic Store,ေရာင္နီဦး,Yaung Ni Oo,16.790697,96.126222,09789456103,
MR006,ရန္ကုန္တိုင္းေဒသျကီး,Yangon Division,အလံု,Ahlone,လ်ွပ္စစ္ပစၥည္းအေရာင္းဆိုင္,Electronic Store,ဆင္မင္း,Sin Minn,16.792349,96.126736,,
MR006,ရန္ကုန္တိုင္းေဒသျကီး,Yangon Division,အလံု,Ahlone,လ်ွပ္စစ္ပစၥည္းအေရာင္းဆိုင္,Electronic Store,စိုးစံ,Soe San,16.791999,96.123484,012301108,
MR006,ရန္ကုန္တိုင္းေဒသျကီး,Yangon Division,ဗဟန္း,Bahan,လ်ွပ္စစ္ပစၥည္းအေရာင္းဆိုင္,Electronic Store,ဆန္းသစ္(ဦးမင္းသူ),San Thit (U Min Thu),16.781928,96.130791,09420136547,
MR006,ရန္ကုန္တိုင္းေဒသျကီး,Yangon Division,ေက်ာက္တံတား,Kyauk Ta Da,လ်ွပ္စစ္ပစၥည္းအေရာင္းဆိုင္,Electronic Store,ျမင့္မိုလ္,Myint Mho,16.777489,96.160256,01374589,
MR006,ရန္ကုန္တိုင္းေဒသျကီး,Yangon Division,ေက်ာက္တံတား,Kyauk Ta Da,လ်ွပ္စစ္ပစၥည္းအေရာင္းဆိုင္,Electronic Store,မာစတာ,Master,16.772563,96.164082,09443045742,
MR006,ရန္ကုန္တိုင္းေဒသျကီး,Yangon Division,ေက်ာက္တံတား,Kyauk Ta Da,လ်ွပ္စစ္ပစၥည္းအေရာင္းဆိုင္,Electronic Store,စမိုင္းလ္,Smile,16.775718,96.162941,018392853,
MR006,ရန္ကုန္တိုင္းေဒသျကီး,Yangon Division,ေက်ာက္တံတား,Kyauk Ta Da,လ်ွပ္စစ္ပစၥည္းအေရာင္းဆိုင္,Electronic Store,တီေအ,TA,16.776584,96.161886,095091165,
MR006,ရန္ကုန္တိုင္းေဒသျကီး,Yangon Division,ေက်ာက္တံတား,Kyauk Ta Da,လ်ွပ္စစ္ပစၥည္းအေရာင္းဆိုင္,Electronic Store,ေ၀ယံ,Wai Yan,16.775456,96.161468,01250596,
MR006,ရန္ကုန္တိုင္းေဒသျကီး,Yangon Division,ေက်ာက္တံတား,Kyauk Ta Da,လ်ွပ္စစ္ပစၥည္းအေရာင္းဆိုင္,Electronic Store,အန္အက္စ္,NS,16.776428,96.161508,01379147,
MR006,ရန္ကုန္တိုင္းေဒသျကီး,Yangon Division,ေက်ာက္တံတား,Kyauk Ta Da,လ်ွပ္စစ္ပစၥည္းအေရာင္းဆိုင္,Electronic Store,F@X,F@X,16.774488,96.163013,09972433449,
MR006,ရန္ကုန္တိုင္းေဒသျကီး,Yangon Division,ေက်ာက္တံတား,Kyauk Ta Da,လ်ွပ္စစ္ပစၥည္းအေရာင္းဆိုင္,Electronic Store,ေအတီ,A.T,16.772949,96.161788,09422354563,
MR006,ရန္ကုန္တိုင္းေဒသျကီး,Yangon Division,ေက်ာက္တံတား,Kyauk Ta Da,လ်ွပ္စစ္ပစၥည္းအေရာင္းဆိုင္,Electronic Store,စမစ္,Smiths Detection,16.77888,96.164383,01245581,
MR006,ရန္ကုန္တိုင္းေဒသျကီး,Yangon Division,ေက်ာက္တံတား,Kyauk Ta Da,လ်ွပ္စစ္ပစၥည္းအေရာင္းဆိုင္,Electronic Store,ျမတ္နိုးသူ,Myat Noe Thu,16.778233,96.160588,01246424,
MR006,ရန္ကုန္တိုင္းေဒသျကီး,Yangon Division,ေက်ာက္တံတား,Kyauk Ta Da,လ်ွပ္စစ္ပစၥည္းအေရာင္းဆိုင္,Electronic Store,အက္ဆဲလဲ့န့္,Excellence,16.776213,96.161939,,
MR006,ရန္ကုန္တိုင္းေဒသျကီး,Yangon Division,ေက်ာက္တံတား,Kyauk Ta Da,လ်ွပ္စစ္ပစၥည္းျပဳျပင္ေရး,Electronic Service,ေဂ်ဘီအက္စ္,JBS,16.777487,96.159867,,
MR006,ရန္ကုန္တိုင္းေဒသျကီး,Yangon Division,ေက်ာက္တံတား,Kyauk Ta Da,လ်ွပ္စစ္ပစၥည္းအေရာင္းဆိုင္,Electronic Store,၂၀၀ အီလက္ထေရာနစ္,200 Electronic,16.775276,96.163224,01252275,
MR006,ရန္ကုန္တိုင္းေဒသျကီး,Yangon Division,ေက်ာက္တံတား,Kyauk Ta Da,လ်ွပ္စစ္ပစၥည္းအေရာင္းဆိုင္,Electronic Store,အီကြဲလ္,Equal,16.777861,96.159843,09963666680,
MR006,ရန္ကုန္တိုင္းေဒသျကီး,Yangon Division,ေက်ာက္တံတား,Kyauk Ta Da,လ်ွပ္စစ္ပစၥည္းအေရာင္းဆိုင္,Electronic Store,ေအာ္တို,Auto,16.778047,96.163325,095178346,
MR006,ရန္ကုန္တိုင္းေဒသျကီး,Yangon Division,ေက်ာက္တံတား,Kyauk Ta Da,လ်ွပ္စစ္ပစၥည္းအေရာင္းဆိုင္,Electronic Store,ေရႊနဂါး,Golden Dragon,16.776492,96.161506,09254898112,
MR006,ရန္ကုန္တိုင္းေဒသျကီး,Yangon Division,ေက်ာက္တံတား,Kyauk Ta Da,လ်ွပ္စစ္ပစၥည္းအေရာင္းဆိုင္,Electronic Store,via ျမန္မာ,Via Myanmar,16.7735471,96.1657198,09263726330,
MR006,ရန္ကုန္တိုင္းေဒသျကီး,Yangon Division,ေက်ာက္တံတား,Kyauk Ta Da,လ်ွပ္စစ္ပစၥည္းအေရာင္းဆိုင္,Electronic Store,ပန္ဒါ,Panda,16.777777,96.160255,095008898,
MR006,ရန္ကုန္တိုင္းေဒသျကီး,Yangon Division,ေက်ာက္တံတား,Kyauk Ta Da,လ်ွပ္စစ္ပစၥည္းအေရာင္းဆိုင္,Electronic Store,အိုတီတီအို,OTTO,16.7787317,96.1617155,09421163941,
MR006,ရန္ကုန္တိုင္းေဒသျကီး,Yangon Division,ေက်ာက္တံတား,Kyauk Ta Da,လ်ွပ္စစ္ပစၥည္းအေရာင္းဆိုင္,Electronic Store,ယာမဟာ,Yamaha,16.777771,96.159869,09450026507,
MR006,ရန္ကုန္တိုင္းေဒသျကီး,Yangon Division,ေက်ာက္တံတား,Kyauk Ta Da,လ်ွပ္စစ္ပစၥည္းအေရာင္းဆိုင္,Electronic Store,ယုဇန,Yazana,16.776961,96.163285,018380970,
MR006,ရန္ကုန္တိုင္းေဒသျကီး,Yangon Division,ေက်ာက္တံတား,Kyauk Ta Da,လ်ွပ္စစ္ပစၥည္းအေရာင္းဆိုင္,Electronic Store,ေအေအ,AA,16.774563,96.160846,01249592,
MR006,ရန္ကုန္တိုင္းေဒသျကီး,Yangon Division,ေက်ာက္တံတား,Kyauk Ta Da,လ်ွပ္စစ္ပစၥည္းအေရာင္းဆိုင္,Electronic Store,တက္ကနိုလန္းဒ္,Technoland,16.775986,96.161295,09254839225,
MR006,ရန္ကုန္တိုင္းေဒသျကီး,Yangon Division,ေက်ာက္တံတား,Kyauk Ta Da,လ်ွပ္စစ္ပစၥည္းအေရာင္းဆိုင္,Electronic Store,အမ္စီ,MC,16.776201,96.161523,01256136,
MR006,ရန္ကုန္တိုင္းေဒသျကီး,Yangon Division,ေက်ာက္တံတား,Kyauk Ta Da,လ်ွပ္စစ္ပစၥည္းအေရာင္းဆိုင္,Electronic Store,မ်ိုး၀င္း,Myo Win,16.772342,96.164182,09965107191,
MR006,ရန္ကုန္တိုင္းေဒသျကီး,Yangon Division,ဗိုလ္တစ္ေထာင္,Botahtaung,လ်ွပ္စစ္ပစၥည္းအေရာင္းဆိုင္,Electronic Store,၀င္းတားလု,Winter Loop,16.774683,96.163203,01385504,
MR006,ရန္ကုန္တိုင္းေဒသျကီး,Yangon Division,ဗိုလ္တစ္ေထာင္,Botahtaung,လ်ွပ္စစ္ပစၥည္းအေရာင္းဆိုင္,Electronic Store,ေ၀ယံ,Wai Yan,16.771187,96.164464,01398571,
MR006,ရန္ကုန္တိုင္းေဒသျကီး,Yangon Division,ဗိုလ္တစ္ေထာင္,Botahtaung,လ်ွပ္စစ္ပစၥည္းအေရာင္းဆိုင္,Electronic Store,ဇီတာဘိုက္ +,Zettabyte Plus,16.776341,96.170686,09967115831,
MR006,ရန္ကုန္တိုင္းေဒသျကီး,Yangon Division,ဗိုလ္တစ္ေထာင္,Botahtaung,လ်ွပ္စစ္ပစၥည္းအေရာင္းဆိုင္,Electronic Store,ေဂ်ပီအဲလ္,JPl,16.773467,96.169617,09979522629,
MR006,ရန္ကုန္တိုင္းေဒသျကီး,Yangon Division,ဗိုလ္တစ္ေထာင္,Botahtaung,လ်ွပ္စစ္ပစၥည္းအေရာင္းဆိုင္,Electronic Store,တီစီအဲလ္,Tcl,16.773897,96.167872,018398931,
MR006,ရန္ကုန္တိုင္းေဒသျကီး,Yangon Division,ဗိုလ္တစ္ေထာင္,Botahtaung,လ်ွပ္စစ္ပစၥည္းအေရာင္းဆိုင္,Electronic Store,ဒစ္ဂ်စ္တယ္,Digital,16.77399,96.165032,095186809,
MR007,ဧရာ၀တီတိုင္းေဒသႀကီး,Ayeyarwady Division,ပုသိမ္ျမို့,Pathein,လ်ွပ္စစ္ပစၥည္းအေရာင္းဆိုင္,Electronic Store,ေအာင္,Aung,16.778364,94.732458,042 23442,
MR007,ဧရာ၀တီတိုင္းေဒသႀကီး,Ayeyarwady Division,ပုသိမ္ျမို့,Pathein,လ်ွပ္စစ္ပစၥည္းအေရာင္းဆိုင္,Electronic Store,ေက်ာ္,Kyaw,16.778364,94.738081,09 5200387,
MR007,ဧရာ၀တီတိုင္းေဒသႀကီး,Ayeyarwady Division,ပုသိမ္ျမို့,Pathein,လ်ွပ္စစ္ပစၥည္းအေရာင္းဆိုင္,Electronic Store,ေအာင္ေက်ာ္သိန္း,Aung Kyaw Thein,16.778364,94.731431,042 21268,
MR007,ဧရာ၀တီတိုင္းေဒသႀကီး,Ayeyarwady Division,ပုသိမ္ျမို့,Pathein,လ်ွပ္စစ္ပစၥည္းအေရာင္းဆိုင္,Electronic Store,တီအီးတီပုသိမ္,TET Pathein,16.778364,94.726941,09 400212018,
MR007,ဧရာ၀တီတိုင္းေဒသႀကီး,Ayeyarwady Division,ေက်ာက္ဂုန္းျမို့,Kyaunggon,လ်ွပ္စစ္ပစၥည္းအေရာင္းဆိုင္,Electronic Store,လိုက္,Light,16.778364,95.187286,09 422513919,
MR007,ဧရာ၀တီတိုင္းေဒသႀကီး,Ayeyarwady Division,လပၸတၱာျမို့,Lebutta,လ်ွပ္စစ္ပစၥည္းအေရာင္းဆိုင္,Electronic Store,ထြန္း,Tun,16.778364,94.760746,,
MR007,ဧရာ၀တီတိုင္းေဒသႀကီး,Ayeyarwady Division,မအူပင္ျမို့,Maubin,လ်ွပ္စစ္ပစၥည္းအေရာင္းဆိုင္,Electronic Store,ေရႊလ၀န္း,Shwe La Woon,16.778364,95.642083,,
MR007,ဧရာ၀တီတိုင္းေဒသႀကီး,Ayeyarwady Division,မအူပင္ျမို့,Maubin,လ်ွပ္စစ္ပစၥည္းအေရာင္းဆိုင္,Electronic Store,ကိုမ်ိဳးျမင့္,Ko Myo Myint,16.778364,95.655092,045 30920,
MR007,ဧရာ၀တီတိုင္းေဒသႀကီး,Ayeyarwady Division,မအူပင္ျမို့,Maubin,လ်ွပ္စစ္ပစၥည္းအေရာင္းဆိုင္,Electronic Store,ျမတ္မဟာ,Myat Mahar,16.778364,95.652823,09 960808089,
MR007,ဧရာ၀တီတိုင္းေဒသႀကီး,Ayeyarwady Division,ဓနုျဖဴျမို့,Danubyu,လ်ွပ္စစ္ပစၥည္းအေရာင္းဆိုင္,Electronic Store,ေဇာ္ႀကီးေမာင္ေမာင္,Zaw Gyi Mg Mg,16.778364,95.592823,,
MR007,ဧရာ၀တီတိုင္းေဒသႀကီး,Ayeyarwady Division,ဟသၤာတျမို့,HinThaDa,လ်ွပ္စစ္ပစၥည္းအေရာင္းဆိုင္,Electronic Store,ေနသူရိန္,Nay Thurain,16.778364,95.460417,09 796931099,
MR007,ဧရာ၀တီတိုင္းေဒသႀကီး,Ayeyarwady Division,ဟသၤာတျမို့,HinThaDa,လ်ွပ္စစ္ပစၥည္းအေရာင္းဆိုင္,Electronic Store,ဇြဲ,Zwe,16.778364,95.459671,,
MR007,ဧရာ၀တီတိုင္းေဒသႀကီး,Ayeyarwady Division,ဟသၤာတျမို့,HinThaDa,လ်ွပ္စစ္ပစၥည္းအေရာင္းဆိုင္,Electronic Store,ကိုမိုးေအာင္,Ko Moe aung,16.778364,95.461065,09 422485359,
MR007,ဧရာ၀တီတိုင္းေဒသႀကီး,Ayeyarwady Division,ဟသၤာတျမို့,HinThaDa,လ်ွပ္စစ္ပစၥည္းအေရာင္းဆိုင္,Electronic Store,ပစ္တိုင္းေထာင္,Pyit Tine Htaung,16.778364,96.462918,044 21428,
MR007,ဧရာ၀တီတိုင္းေဒသႀကီး,Ayeyarwady Division,ျမန္ေအာင္ျမို့,Myan Aung,လ်ွပ္စစ္ပစၥည္းအေရာင္းဆိုင္,Electronic Store,ဇြဲ,Zwe,16.778364,95.303297,09 792465877,
MR007,ဧရာ၀တီတိုင္းေဒသႀကီး,Ayeyarwady Division,ေျမာင္းျမျမို့,Myaung Mya,လ်ွပ္စစ္ပစၥည္းအေရာင္းဆိုင္,Electronic Store,ကိုစန္း၀င္းေဌးစည္သူ,Ko San Win Htay Si Thu,16.778364,94.929753,09 777770082,
MR007,ဧရာ၀တီတိုင္းေဒသႀကီး,Ayeyarwady Division,ဖ်ာပံုျမို့,Pyapon,လ်ွပ္စစ္ပစၥည္းအေရာင္းဆိုင္,Electronic Store,ဂရန္း,GRAND,16.778364,95.681252,09 252029655,
MR007,ဧရာ၀တီတိုင္းေဒသႀကီး,Ayeyarwady Division,ရဲႀကီးျမို့,Yegyi,လ်ွပ္စစ္ပစၥည္းအေရာင္းဆိုင္,Electronic Store,န၀ရတ္,Nawarat,16.778364,95.118576,046 52190,
MR007,ဧရာ၀တီတိုင္းေဒသႀကီး,Ayeyarwady Division,ဇလြန္ျမို့,Zalon,လ်ွပ္စစ္ပစၥည္းအေရာင္းဆိုင္,Electronic Store,ထြန္းမဟာ,Tun Mahar,16.778364,95.548481,09 799835496,
MR007,ဧရာ၀တီတိုင္းေဒသႀကီး,Ayeyarwady Division,ေညာင္ဒုန္းျမို့,Nyaung Don,လ်ွပ္စစ္ပစၥည္းအေရာင္းဆိုင္,Electronic Store,သိန္းဦး,Thein Oo,17.046021,95.637762,,
MR015,ေနျပည္ေတာ္ျပည္ေထာင္စုနယ္ေျမ,Nay Pyi Taw Union Territory,ေနျပည္ေတာ္,Nay Pyi Taw,ျမိဳ႕နယ္လ်ွပ္စစ္အင္ဂ်င္နီယာရံုး,Electrical Power Office,လွ်ပ္စစ္နွင့္စြမ္းအင္၀န္ၾကီးဌာန,Ministry of Electricity and Energy,19.770493,96.133497,,
MR015,ေနျပည္ေတာ္ျပည္ေထာင္စုနယ္ေျမ,Nay Pyi Taw Union Territory,ေနျပည္ေတာ္,Nay Pyi Taw,ျမိဳ႕နယ္လ်ွပ္စစ္အင္ဂ်င္နီယာရံုး,Electrical Power Office,အမွတ္(၂)လွ်ပ္စစ္နွင့္စြမ္းအင္၀န္ၾကီးဌာန,Ministry of Electricity and Energy No.(2),19.787382,96.095751,067410207,
MR015,ေနျပည္ေတာ္ျပည္ေထာင္စုနယ္ေျမ,Nay Pyi Taw Union Territory,ဥတၱရသီရိျမို႕,Ottarathiri,ျမိဳ႕နယ္လ်ွပ္စစ္အင္ဂ်င္နီယာရံုး,Electrical Power Office,ဥတၱရသီရိၿမိဳ႕နယ္လ်ွပ္စစ္ရံုး,Ottarathiri Electrical Power Office,19.825714,96.158025,,
MR015,ေနျပည္ေတာ္ျပည္ေထာင္စုနယ္ေျမ,Nay Pyi Taw Union Territory,တပ္ကုန္းျမိဳ႕,Tatkone,ျမိဳ႕နယ္လ်ွပ္စစ္အင္ဂ်င္နီယာရံုး,Electrical Power Office,တပ္ကုန္းျမိဳ႕နယ္လ်ွပ္စစ္ရံုး,Tatkone Electrical Power Office,20.134925,96.198461,,
MR015,ေနျပည္ေတာ္ျပည္ေထာင္စုနယ္ေျမ,Nay Pyi Taw Union Territory,ဇဗၼဴသီရိျမို႕,Zabuthiri,လ်ွပ္စစ္ပစၥည္းအေရာင္းဆိုင္,Electronic Store,ေရႊသရဖီ,Shwe Tharapy,19.7252349,96.1412743,09250106957,
MR015,ေနျပည္ေတာ္ျပည္ေထာင္စုနယ္ေျမ,Nay Pyi Taw Union Territory,ဇဗၼဴသီရိျမို႕,Zabuthiri,လ်ွပ္စစ္ပစၥည္းအေရာင္းဆိုင္,Electronic Store,ခရစ္လိုက္,Krislite,19.725407,96.097639,,
MR015,ေနျပည္ေတာ္ျပည္ေထာင္စုနယ္ေျမ,Nay Pyi Taw Union Territory,ဇဗၼဴသီရိျမို႕,Zabuthiri,လ်ွပ္စစ္ပစၥည္းအေရာင္းဆိုင္,Electronic Store,သိန္းဧရာ,Thein Ayar,19.7260104,96.1441043,0931950925,
MR015,ေနျပည္ေတာ္ျပည္ေထာင္စုနယ္ေျမ,Nay Pyi Taw Union Territory,လယ္ေ၀းျမို႕,Lewe,လ်ွပ္စစ္ပစၥည္းအေရာင္းဆိုင္,Electronic Store,လင္းလက္,Linn Let,19.638185,96.111069,,
MR015,ေနျပည္ေတာ္ျပည္ေထာင္စုနယ္ေျမ,Nay Pyi Taw Union Territory,လယ္ေ၀းျမို႕,Lewe,လ်ွပ္စစ္ပစၥည္းအေရာင္းဆိုင္,Electronic Store,ေအာင္ဟိန္း,Aung Hein,19.641821,96.113181,09971344588,
MR015,ေနျပည္ေတာ္ျပည္ေထာင္စုနယ္ေျမ,Nay Pyi Taw Union Territory,သာ၀တၱိျမို့,Thar Wut Hti,လ်ွပ္စစ္ပစၥည္းအေရာင္းဆိုင္,Electronic Store,ေရာင္ျခည္ဦး,Yaung Chi Oo,19.527759,96.247351,09797908623,
MR015,ေနျပည္ေတာ္ျပည္ေထာင္စုနယ္ေျမ,Nay Pyi Taw Union Territory,သာ၀တၱိျမို့,Thar Wut Hti,လ်ွပ္စစ္ပစၥည္းအေရာင္းဆိုင္,Electronic Store,ရွင္းသန့္ေအာင္,Shin Thant Aung,19.532509,96.254104,,
MR015,ေနျပည္ေတာ္ျပည္ေထာင္စုနယ္ေျမ,Nay Pyi Taw Union Territory,ပ်ဥ္းမနားျမို႕,Pyinmana,လ်ွပ္စစ္ပစၥည္းအေရာင္းဆိုင္,Electronic Store,ကိုဖိုးနီ-တိုင္းခ်စ္,Ko Phoe Ni-Tine Chit,19.739862,96.206684,06721080,
MR015,ေနျပည္ေတာ္ျပည္ေထာင္စုနယ္ေျမ,Nay Pyi Taw Union Territory,ပ်ဥ္းမနားျမို႕,Pyinmana,လ်ွပ္စစ္ပစၥည္းအေရာင္းဆိုင္,Electronic Store,လျပည့္၀န္း(၁),La Pyae Wun(I),19.73898,96.210793,06721111,
MR015,ေနျပည္ေတာ္ျပည္ေထာင္စုနယ္ေျမ,Nay Pyi Taw Union Territory,ပ်ဥ္းမနားျမို႕,Pyinmana,လ်ွပ္စစ္ပစၥည္းအေရာင္းဆိုင္,Electronic Store,လျပည့္၀န္း(၂),La Pyae Wun(II),19.7388877,96.2084365,06722957,
MR015,ေနျပည္ေတာ္ျပည္ေထာင္စုနယ္ေျမ,Nay Pyi Taw Union Territory,ပ်ဥ္းမနားျမို႕,Pyinmana,လ်ွပ္စစ္ပစၥည္းအေရာင္းဆိုင္,Electronic Store,ျပည့္ျဖိဳး,Pyae Phyo,19.73937,96.206808,06723305,
MR015,ေနျပည္ေတာ္ျပည္ေထာင္စုနယ္ေျမ,Nay Pyi Taw Union Territory,ပ်ဥ္းမနားျမို႕,Pyinmana,လ်ွပ္စစ္ပစၥည္းအေရာင္းဆိုင္,Electronic Store,သိဒၶိျပည့္,Theik Di Pyae,19.75313,96.203218,06725591,
MR015,ေနျပည္ေတာ္ျပည္ေထာင္စုနယ္ေျမ,Nay Pyi Taw Union Territory,ပ်ဥ္းမနားျမို႕,Pyinmana,လ်ွပ္စစ္ပစၥည္းအေရာင္းဆိုင္,Electronic Store,ေငြလမင္း,Silver Moon,19.740566,96.204124,06721568,
MR015,ေနျပည္ေတာ္ျပည္ေထာင္စုနယ္ေျမ,Nay Pyi Taw Union Territory,ပ်ဥ္းမနားျမို႕,Pyinmana,လ်ွပ္စစ္ပစၥည္းအေရာင္းဆိုင္,Electronic Store,ေနတံခြန္,Nay Tagon,19.750853,96.198356,09402602307,
MR015,ေနျပည္ေတာ္ျပည္ေထာင္စုနယ္ေျမ,Nay Pyi Taw Union Territory,ပ်ဥ္းမနားျမို႕,Pyinmana,လ်ွပ္စစ္ပစၥည္းအေရာင္းဆိုင္,Electronic Store,ဦးတင္ေရြွ,U Tin Shwe,19.753636,96.201062,,
MR015,ေနျပည္ေတာ္ျပည္ေထာင္စုနယ္ေျမ,Nay Pyi Taw Union Territory,ပ်ဥ္းမနားျမို႕,Pyinmana,လ်ွပ္စစ္ပစၥည္းအေရာင္းဆိုင္,Electronic Store,ျဖိဳးျဖိဳးၾကြယ္,Phyo Phyo Kywel,19.739562,96.207349,,
MR015,ေနျပည္ေတာ္ျပည္ေထာင္စုနယ္ေျမ,Nay Pyi Taw Union Territory,ေနျပည္ေတာ္,Nay Pyi Taw,လ်ွပ္စစ္ပစၥည္းအေရာင္းဆိုင္,Electronic Store,လိုက္တင္းစပါယ္ရွယ္,"Lighting Specialist Co.,Ltd",19.7322538,96.1065336,067420644,
MR015,ေနျပည္ေတာ္ျပည္ေထာင္စုနယ္ေျမ,Nay Pyi Taw Union Territory,ေနျပည္ေတာ္,Nay Pyi Taw,လ်ွပ္စစ္ပစၥည္းအေရာင္းဆိုင္,Electronic Store,ဂႏၶမာ,Gandamar,19.7305564,96.106939,067421212,
MR015,ေနျပည္ေတာ္ျပည္ေထာင္စုနယ္ေျမ,Nay Pyi Taw Union Territory,ေနျပည္ေတာ္,Nay Pyi Taw,လ်ွပ္စစ္ပစၥည္းအေရာင္းဆိုင္,Electronic Store,ဒိုင္းမြန္း,Diamond Stm,19.738425,96.11868,,
MR015,ေနျပည္ေတာ္ျပည္ေထာင္စုနယ္ေျမ,Nay Pyi Taw Union Territory,ေနျပည္ေတာ္,Nay Pyi Taw,လ်ွပ္စစ္ပစၥည္းအေရာင္းဆိုင္,Electronic Store,ကမၻာေက်ာ္,Kabar Kyaw,19.731747,96.107329,,
MR015,ေနျပည္ေတာ္ျပည္ေထာင္စုနယ္ေျမ,Nay Pyi Taw Union Territory,ေနျပည္ေတာ္,Nay Pyi Taw,လ်ွပ္စစ္ပစၥည္းအေရာင္းဆိုင္,Electronic Store,ပြင့္သစ္စ,Pwint Thit Sa,19.75114,96.086218,09973189963,
MR015,ေနျပည္ေတာ္ျပည္ေထာင္စုနယ္ေျမ,Nay Pyi Taw Union Territory,ေနျပည္ေတာ္,Nay Pyi Taw,လ်ွပ္စစ္ပစၥည္းအေရာင္းဆိုင္,Electronic Store,ျဖိဳးျဖိဳးၾကြယ္,Phyo Phyo Kywel,19.743689,96.120414,,
MR015,ေနျပည္ေတာ္ျပည္ေထာင္စုနယ္ေျမ,Nay Pyi Taw Union Territory,ေနျပည္ေတာ္,Nay Pyi Taw,လ်ွပ္စစ္ပစၥည္းအေရာင္းဆိုင္,Electronic Store,ယူနီဗာ့ဆဲလ္,Universal,19.741831,96.120115,09259271771,
MR015,ေနျပည္ေတာ္ျပည္ေထာင္စုနယ္ေျမ,Nay Pyi Taw Union Territory,ပုဗၺသီရိျမို႕,Pobbathiri,လ်ွပ္စစ္ပစၥည္းအေရာင္းဆိုင္,Electronic Store,ေက်ာ္နန္းေတာ္,Kyaw Nan Taw,16.8218169,96.1458035,09420752832,
MR015,ေနျပည္ေတာ္ျပည္ေထာင္စုနယ္ေျမ,Nay Pyi Taw Union Territory,ပုဗၺသီရိျမို႕,Pobbathiri,လ်ွပ္စစ္ပစၥည္းအေရာင္းဆိုင္,Electronic Store,စိုးေမတၱာ,Soe Myittar,19.871006,96.192934,09448545622,
MR015,ေနျပည္ေတာ္ျပည္ေထာင္စုနယ္ေျမ,Nay Pyi Taw Union Territory,ပုဗၺသီရိျမို႕,Pobbathiri,လ်ွပ္စစ္ပစၥည္းအေရာင္းဆိုင္,Electronic Store,တီတီအီး ဂလိုဗယ္လ္,TTE Global,19.865536,96.175213,,
MR015,ေနျပည္ေတာ္ျပည္ေထာင္စုနယ္ေျမ,Nay Pyi Taw Union Territory,ပုဗၺသီရိျမို႕,Pobbathiri,လ်ွပ္စစ္ပစၥည္းအေရာင္းဆိုင္,Electronic Store,ေက်ာ္စတား,Kyaw Star,19.871439,96.194775,,
MR015,ေနျပည္ေတာ္ျပည္ေထာင္စုနယ္ေျမ,Nay Pyi Taw Union Territory,ပုဗၺသီရိျမို႕,Pobbathiri,လ်ွပ္စစ္ပစၥည္းအေရာင္းဆိုင္,Electronic Store,အလင္းေရာင္,A Linn Yaung,19.877679,96.19534,0943048007,
MR015,ေနျပည္ေတာ္ျပည္ေထာင္စုနယ္ေျမ,Nay Pyi Taw Union Territory,ပုဗၺသီရိျမို႕,Pobbathiri,လ်ွပ္စစ္ပစၥည္းအေရာင္းဆိုင္,Electronic Store,၀လင္းဟန္,Wa Lin Han,19.90955,96.205256,09420721751,
MR015,ေနျပည္ေတာ္ျပည္ေထာင္စုနယ္ေျမ,Nay Pyi Taw Union Territory,ပ်ဥ္းမနားျမို႕,Pyinmana,လ်ွပ္စစ္ပစၥည္းျပဳျပင္ေရး,Electronic Service,ရဲနိုင္,Ye` Naing,19.749116,96.203448,09976638555,
MR015,ေနျပည္ေတာ္ျပည္ေထာင္စုနယ္ေျမ,Nay Pyi Taw Union Territory,ပ်ဥ္းမနားျမို႕,Pyinmana,လ်ွပ္စစ္ပစၥည္းျပဳျပင္ေရး,Electronic Service,ညိမ္းဆက္ခိုင္,Nyein Sat Khaing,19.755811,96.204669,09420739660,
MR015,ေနျပည္ေတာ္ျပည္ေထာင္စုနယ္ေျမ,Nay Pyi Taw Union Territory,လယ္ေ၀းျမို႕,Lewe,လ်ွပ္စစ္ပစၥည္းျပဳျပင္ေရး,Electronic Service,ဆန္းသစ္,Sunn Thit,19.639593,96.112472,,
MR015,ေနျပည္ေတာ္ျပည္ေထာင္စုနယ္ေျမ,Nay Pyi Taw Union Territory,ပုဗၺသီရိျမို႕,Pobbathiri,ဓာတ္အားခြဲရံု,Electrical Substation,ပုဗၺသီရိျမိဳ႕နယ္ဓာတ္အားခြဲရံု,Pobbathiri Electrical Sub-station,19.863335,96.183919,,
MR015,ေနျပည္ေတာ္ျပည္ေထာင္စုနယ္ေျမ,Nay Pyi Taw Union Territory,ပုဗၺသီရိျမို႕,Pobbathiri,ဓာတ္အားခြဲရံု,Electrical Substation,မင္းမင္းစံ,"Min Min San Com.,Ltd",19.88102,96.181029,,
MR015,ေနျပည္ေတာ္ျပည္ေထာင္စုနယ္ေျမ,Nay Pyi Taw Union Territory,ပ်ဥ္းမနားျမို႕,Pyinmana,ဓာတ္အားခြဲရံု,Electrical Substation,ပ်ဥ္းမနားဓာတ္အားခြဲရံု,Pyinmana Substation (230kv),19.734674,96.233257,,
MR015,ေနျပည္ေတာ္ျပည္ေထာင္စုနယ္ေျမ,Nay Pyi Taw Union Territory,ပ်ဥ္းမနားျမို႕,Pyinmana,ေရအားလွ်ပ္စစ္ဓာတ္အားေပးစက္ရံု,Hydroelectric Power Plant,အထက္ေပါင္းေလာင္းဓာတ္အားေပးစက္ရံု,Upper Paung Laung Hydropower Station,19.756673,96.59094,,
