State/Region P_code,Division/State ,Township ,Type,Name,Latitude,Longitude,Phone Number,,,,,
SR_PCODE,SR_NAME,TS_NAME,TYPE,NAME,LAT,LONG,Ph_no,,,,,
MR001,Sagaing Division,Sagaing,Electronic Store,Htun Lin,21.88166,95.982358,09 797262667,,,,,
MR001,Sagaing Division,Sagaing,Electronic Store,New Star,21.880752,95.98206,09 2061415,,,,,
MR001,Sagaing Division,Sagaing,Electronic Store,Zaya,21.884646,95.980926,072 22057,,,,,
MR001,Sagaing Division,Sagaing,Electronic Store,Min Gyi Kyite,21.885291,95.980121,09 33196639,,,,,
MR001,Sagaing Division,Sagaing,Electronic Store,Zwe,21.879868,95.980545,09 979720087,,,,,
MR001,Sagaing Division,Sagaing,Electronic Store,Mingalar,21.879857,95.980504,09 780907693,,,,,
MR001,Sagaing Division,Sagaing,Electronic Store,Nilar,21.881913,95.979345,09 442252214,,,,,
MR001,Sagaing Division,Sagaing,Electronic Store,Thit Sann,21.903799,95.967228,09 400461026,,,,,
MR001,Sagaing Division,Sagaing,Electronic Store,Ngwe Kyal Moe,21.879884,95.980801,09 965645500,,,,,
MR001,Sagaing Division,Sagaing,Electronic Store,U Maung Maung,21.881363,95.981709,072 22623,,,,,
MR001,Sagaing Division,Sagaing,Electronic Store,Aung,21.879372,95.979338,09 970868734,,,,,
MR001,Sagaing Division,Monywa,Electronic Store,Super Power,22.106095,95.1137061,09 974113788,,,,,
MR001,Sagaing Division,Monywa,Electronic Store,Thit San,22.113664,95.130847,071 22488,,,,,
MR001,Sagaing Division,Monywa,Electronic Store,Super Star,22.117129,95.155747,09 445466466,,,,,
MR001,Sagaing Division,Monywa,Electronic Store,Diamond,22.111695,95.141621,09 443667272,,,,,
MR001,Sagaing Division,Monywa,Electronic Store,Aung Family,22.126285,95.134925,09 400453356,,,,,
MR001,Sagaing Division,Monywa,Electronic Store,Angel,22.134978,95.157791,09 770646696,,,,,
MR001,Sagaing Division,Monywa,Electronic Store,Kude Hein,22.126539,95.139351,09 455888808,,,,,
MR001,Sagaing Division,Monywa,Electronic Store,San United,22.121329,95.169517,09 256119872,,,,,
MR001,Sagaing Division,Shwe Bo,Electronic Store,Tha Htoo,22.571119,95.690998,09 455534440,,,,,
MR001,Sagaing Division,Shwe Bo,Electronic Store,Kyaw,22.573131,95.720541,057 21548,,,,,
MR001,Sagaing Division,Saging ,Electronic Store,Nat San,21.918322,95.956615,,,,,,
MR001,Sagaing Division,Saging ,Electronic Store,JJ Bussiness Group,21.917848,96.967492,,,,,,
MR001,Sagaing Division,Saging ,Electronic Store,Naw Shwan Home,21.928041,95.969896,,,,,,
MR001,Sagaing Division,Saging ,Electronic Store,Shwe Taung Yoe,21.891263,95.987281,,,,,,
MR001,Sagaing Division,Saging ,Electronic Store,Aung Star,21.885415,95.984868,,,,,,
MR001,Sagaing Division,Saging ,Electronic Store,Toe Gyi,21.883299,95.981258,,,,,,
MR001,Sagaing Division,Saging ,Electronic Store,Skynet,21.880747,95.987289,,,,,,
MR001,Sagaing Division,Saging ,Electronic Store,Top1,21.880133,95.981996,,,,,,
MR001,Sagaing Division,Saging ,Electronic Store,Ngwe Ngann Oo,21.879123,95.98168,,,,,,
MR001,Sagaing Division,Saging ,Electronic Store,Zwe,21.879861,95.980625,,,,,,
MR001,Sagaing Division,Saging ,Electronic Store,Ngwe Kyal Moe,22.766215,95.427699,,,,,,
MR001,Sagaing Division,Saging ,Electronic Store,Thein San,21.879008,95.979396,,,,,,
MR001,Sagaing Division,Shwebo ,Electronic Store,RYB,22.580336,95.694413,,,,,,
MR001,Sagaing Division,Shwebo ,Electronic Store,Tha Htoo,22.571097,95.691039,,,,,,
MR001,Sagaing Division,Shwebo ,Electronic Store,Yo Ro Zu,22.569131,95.694659,,,,,,
MR001,Sagaing Division,Shwebo ,Electronic Service,Kyaw Swar,22.567522,95.698343,,,,,,
MR001,Sagaing Division,Shwebo ,Electronic Store,Zaw,22.566489,95.698279,,,,,,
MR001,Sagaing Division,Shwebo ,Electronic Store,Linn,22.568453,95.69848,,,,,,
MR001,Sagaing Division,Shwebo ,Electronic Store,Tun,22.568303,95.698563,,,,,,
MR001,Sagaing Division,Shwebo ,Electronic Store,Perfect,22.564929,95.698254,,,,,,
MR001,Sagaing Division,Shwebo ,Electrical Substation,Land 230 KV ,22.615338,95.737217,,,,,,
MR001,Sagaing Division,Ye Oo ,Electrical Power Office,Ye Oo EPC,22.76602,95.427737,,,,,,
MR001,Sagaing Division,Ye Oo ,Electronic Store,Yatanapone,22.763846,95.428668,,,,,,
MR001,Sagaing Division,Ye Oo ,Electronic Store,Pyae Sone,22.763121,95.428921,,,,,,
MR001,Sagaing Division,Ye Oo ,Electronic Store,Aung Kyaw Moe,22.763555,95.4256,,,,,,
MR001,Sagaing Division,Ye Oo ,Electronic Store,Ko Htike,22.765532,95.426999,,,,,,
MR001,Sagaing Division,Ye Oo ,Electronic Store,New Energy,22.7671289,95.421031,,,,,,
MR001,Sagaing Division,Ye Oo ,Electronic Store,La Wun Thit,22.764268,95.429043,,,,,,
MR001,Sagaing Division,Kyunhla ,Electronic Store,Moe Kaung Kin,23.321204,95.522526,,,,,,
MR001,Sagaing Division,Kyunhla ,Electronic Store,Century One,23.321263,95.525581,,,,,,
MR001,Sagaing Division,Kyunhla ,Electronic Store,Aung Chan Myae,23.318533,95.570057,,,,,,
MR001,Sagaing Division,Kyunhla ,Electronic Store,Sabiai,22.286877,95.449515,,,,,,
MR001,Sagaing Division,Kyunhla ,Electronic Store,Singapore,22.282127,95.445084,,,,,,
MR001,Sagaing Division,Kyunhla ,Electronic Store,Lin Thit Sar,22.285686,95.449459,,,,,,
MR001,Sagaing Division,Kyunhla ,Electronic Store,Thit San,22.285843,95.44764,,,,,,
MR001,Sagaing Division,Monywa,Electronic Store,New Light,22.117901,95.149526,,,,,,
MR001,Sagaing Division,Monywa,Electronic Store,Aung Family,22.126406,95.134805,,,,,,
MR001,Sagaing Division,Monywa,Electronic Store,Aung Kaung Myat,22.129685,95.160267,,,,,,
MR001,Sagaing Division,Monywa,Electronic Store,Shwe Yi Win,22.084668,95.162866,,,,,,
MR001,Sagaing Division,Monywa,Electronic Store,Moe Thi Kyar,22.107075,95.13133,,,,,,
MR001,Sagaing Division,Monywa,Electronic Store,Ar Thit,22.107127,95.70059,,,,,,
MR001,Sagaing Division,Monywa,Electronic Store,KNK ,22.105225,95.137267,,,,,,
MR001,Sagaing Division,Monywa,Electronic Store,IT City,22.116321,95.132201,,,,,,
MR001,Sagaing Division,Saging ,Electronic Store,New Bee,22.116672,95.141525,,,,,,
MR002,TaninTharyi Division,Dawei,Electrical Power Office,Dawei Electrical Power Office,14.083522,98.194653,,,,,,
MR002,TaninTharyi Division,Dawei,Electronic Store,UMG(Myanmar),14.056698,98.190334,059 23007,,,,,
MR002,TaninTharyi Division,Dawei,Electronic Store,Sein Shwe,14.072742,98.190061,09 254821821,,,,,
MR002,TaninTharyi Division,Dawei,Electronic Store,88Electric,14.075414,98.186501,09 450992600,,,,,
MR002,TaninTharyi Division,Dawei,Electronic Store,Zi Zawar Hmwe,14.123739,98.175781,09 8752211,,,,,
MR002,TaninTharyi Division,Maung Ma Kan,Electronic Service,Super Electronic Service,14.173206,98.103867,09 782462554,,,,,
MR002,TaninTharyi Division,Palaw,Electronic Store,Alinyaung,12.974337,98.647189,,,,,,
MR002,TaninTharyi Division,Kaleinnaung,Electronic Store,Miba Myittar,14.623811,98.137898,09 788374373,,,,,
MR003,Bago Division,Bago ,Electronic Store,Su Mon,17.334425,96.493107,,,,,,
MR003,Bago Division,Bago,Electronic Store,Zaw,17.3360548,96.4890237,,,,,,
MR003,Bago Division,Bago,Electronic Store,Wai Yan,17.3341598,96.4817398,09260632525,,,,,
MR003,Bago Division,Bago,Electronic Store,Mission,17.3366186,96.4895647,0973333439,,,,,
MR003,Bago Division,Bago,Electronic Store,OK,17.3332787,96.4932783,09790150354,,,,,
MR003,Bago Division,Bago,Electronic Store,Golden Butterfly,17.335357,96.489248,,,,,,
MR003,Bago Division,Bago,Electronic Store,Sun Mon,17.334421,96.493107,,,,,,
MR003,Bago Division,Bago,Electronic Store,Connect Technologies,17.332707,96.489442,09777732910,,,,,
MR003,Bago Division,Bago,Electronic Store,Green Land,17.345155,96.49721,,,,,,
MR003,Bago Division,Taungoo,Electronic Service,Ko Moe,18.937764,96.434376,09253211782,,,,,
MR003,Bago Division,Taungoo,Electronic Store,Rolex-baho,18.940396,96.440103,05424136,,,,,
MR003,Bago Division,Taungoo,Electronic Store,A Linn Pwint,18.943392,96.427824,09777054684,,,,,
MR003,Bago Division,Taungoo,Electronic Store,Aung Yadanar,18.940108,96.440063,05425128,,,,,
MR003,Bago Division,Taungoo,Electronic Store,Nyunt,18.940945,96.440198,05425167,,,,,
MR003,Bago Division,Taungoo,Electronic Store,"Unlimited Co.,ltd",18.94379,96.432803,09259326866,,,,,
MR003,Bago Division,Taungoo,Electronic Store,Si Ba Ho,18.939835,96.434363,09785328569,,,,,
MR003,Bago Division,Zay Ya Wadi ,Electronic Store,Home Light,18.535551,96.431198,09260559621,,,,,
MR003,Bago Division,Zay Ya Wadi ,Electronic Store,Sein Cherry,18.544199,96.429808,095390518,,,,,
MR003,Bago Division,Zay Ya Wadi ,Electronic Store,Zayar Pon,18.537391,96.431362,05485073,,,,,
MR003,Bago Division,Zay Ya Wadi ,Electronic Store,Aroma,18.535128,96.431429,09797852517,,,,,
MR003,Bago Division,Zay Ya Wadi ,Electronic Store,City Light,18.533679,96.431551,09250702200,,,,,
MR003,Bago Division,Daik U,Electronic Store,Hello,17.797247,96.670281,095142250,,,,,
MR003,Bago Division,Daik U,Electronic Store,Shwe Taung Tan,17.795254,96.665478,09252557565,,,,,
MR003,Bago Division,Daik U,Electronic Store,Shwe Hnin Thar,17.797104,96.671533,095382124,,,,,
MR003,Bago Division,Gyo Bingauk,Electronic Store,Han Lin,18.230243,95.648927,05350700,,,,,
MR003,Bago Division,Gyo Bingauk,Electronic Store,Myat Lin Yaung,18.229494,95.652025,05351017,,,,,
MR003,Bago Division,Gyo Bingauk,Electronic Store,Kyal Sin Lin,18.231633,95.653573,095373094,,,,,
MR003,Bago Division,Kawa,Electronic Store,Lin Lin Aung,17.088598,96.456171,,,,,,
MR003,Bago Division,Kawa,Electronic Store,Shine,17.088505,96.45571,09428149423,,,,,
MR003,Bago Division,Kyauk Ta Ga,Electronic Store,Aung Tagon,18.156365,96.611084,09400010304,,,,,
MR003,Bago Division,Kyauk Ta Ga,Electronic Store,King,18.156856,96.611951,,,,,,
MR003,Bago Division,Kyauk Ta Ga,Electronic Store,Aung,18.155462,96.613008,09954922717,,,,,
MR003,Bago Division,Taw Kyae Inn,Electronic Store,Pyae Phyo Aung,18.279289,96.526308,09428194394,,,,,
MR003,Bago Division,Taw Kyae Inn,Electronic Store,Agyi,18.276605,96.522014,,,,,,
MR003,Bago Division,Pyay,Electronic Store,Naing,18.822763,95.216416,09423718483,,,,,
MR003,Bago Division,Pyay,Electronic Store,Kaung,18.82109,95.234627,,,,,,
MR003,Bago Division,Pyay,Electronic Store,Aung Myanmar Htun,18.815775,95.250853,09456400669,,,,,
MR003,Bago Division,Pyay,Electronic Store,Htein Linn,18.817948,95.2569174,09421061587,,,,,
MR003,Bago Division,Pyay,Electronic Store,Aung,18.818425,95.257362,0931446200,,,,,
MR003,Bago Division,Pyay,Electronic Store,Phoe La Min,18.8175594,95.253511,09403406698,,,,,
MR003,Bago Division,Pyay,Electronic Store,Wai Yan,18.8196477,95.2181709,05324040,,,,,
MR003,Bago Division,Pyay,Electronic Store,Myat Noe Thu,18.823467,95.216698,09423718304,,,,,
MR003,Bago Division,Pyay,Electronic Store,Htun Hauk,18.819214,95.222854,09796999961,,,,,
MR003,Bago Division,Shwedaung,Electronic Store,Green Tech,18.70262,95.210664,09975332232,,,,,
MR003,Bago Division,Pyu,Electronic Store,San Phyu,18.482557,96.436694,09254361495,,,,,
MR003,Bago Division,Pyu,Electronic Store,PD,18.484495,96.435026,,,,,,
MR003,Bago Division,Pyu,Electronic Store,Ko Lar Lu,18.481205,96.43498,09976222991,,,,,
MR003,Bago Division,Pyu,Electronic Service,Modern,18.46969,96.436652,09256208889,,,,,
MR003,Bago Division,Mon,Electronic Service,Soe Min Hein,18.528984,96.622811,09458021386,,,,,
MR003,Bago Division,Letpadan,Electronic Store,Sun Star,17.78395,95.748446,05332371,,,,,
MR003,Bago Division,Letpadan,Electronic Store,Kyaw Kyaw,17.783206,95.749714,09978005199,,,,,
MR003,Bago Division,O The Gon,Electronic Store,One Star,18.04039,95.692385,,,,,,
MR003,Bago Division,O The Gon,Electronic Store,99,18.042925,95.694448,09423668058,,,,,
MR003,Bago Division,Okpho,Electronic Store,Ayar,18.135155,95.669059,,,,,,
MR003,Bago Division,Nattalin,Electronic Store,Zarni,18.429948,95.549813,09974321301,,,,,
MR003,Bago Division,Nattalin,Electronic Store,Kyaung Sa Yar,18.429632,95.552539,09787996198,,,,,
MR003,Bago Division,Nyaunglebin,Electronic Store,Auto King,17.958516,96.719967,,,,,,
MR003,Bago Division,Nyaunglebin,Electronic Store,Lae Llaing,17.9565687,96.7147772,09790172468,,,,,
MR003,Bago Division,Shwegyin,Electronic Store,Saung Hnin Aein,17.929321,96.880675,09428013226,,,,,
MR003,Bago Division,Thonse,Electronic Store,Ko Nyar Thar,17.624339,95.786761,,,,,,
MR003,Bago Division,Phado,Electronic Store,Aung Thitsar,18.036884,96.556211,09250212510,,,,,
MR003,Bago Division,Phado,Electronic Store,i-Tech,18.037315,96.554117,09975220333,,,,,
MR003,Bago Division,Phado,Electronic Store,San Pya,18.036991,96.55445,09790207625,,,,,
MR003,Bago Division,Penwegone,Electronic Store,Best Buy,18.224777,96.566132,09450043022,,,,,
MR003,Bago Division,Oktwin,Electronic Store,Pan Gabar(2),18.828131,96.409831,,,,,,
MR003,Bago Division,Paungdale`,Electronic Store,Kaung Myat Thu,18.850426,95.384892,09791183587,,,,,
MR003,Bago Division,Paungdale`,Electronic Store,Kaung Htun Lin,18.850815,95.384027,,,,,,
MR003,Bago Division,Paungde,Electronic Store,DK,18.488696,95.506859,05338838,,,,,
MR003,Bago Division,Paungde,Electronic Store,Win Pa Pa,18.490312,95.508175,05338240,,,,,
MR003,Bago Division,Tantabin,Electronic Store,Silver Star,16.942163,96.024866,09763213022,,,,,
MR003,Bago Division,Zigon,Electronic Store,Kaung Hein,18.338091,95.623435,05334379,,,,,
MR003,Bago Division,Thegon,Electronic Store,San Chain Thit,18.648358,95.415384,09975508499,,,,,
MR003,Bago Division,Paungde,Electrical Substation,33kv/11kv Substation,18.485312,95.510772,05338014,,,,,
MR003,Bago Division,Hmattaing,Electrical Substation,MEPE Hmattaing,18.582291,95.530998,,,,,,
MR003,Bago Division,Pyay,Electrical Substation,Green Star,18.824963,95.248448,092038284,,,,,
MR003,Bago Division,Tha Ya Gon,Electrical Substation,Thayagon Electricity Substation,18.089197,96.641515,,,,,,
MR003,Bago Division,Shwedaung,Electrical Substation,Shwedaung Substation,18.727817,95.228298,,,,,,
MR003,Bago Division,Daik U,Electrical Substation,Aung Soe Moe Transformer,17.784284,96.659593,,,,,,
MR003,Bago Division,Daik U,Electrical Substation,Than Ta Dar Transformer,17.791014,96.663647,,,,,,
MR003,Bago Division,Daik U,Electrical Substation,Yone Ta Dar Transformer,17.784284,96.659593,,,,,,
MR003,Bago Division,Daik U,Electrical Substation,Khun Hnit Transformer,17.799923,96.66595,,,,,,
MR003,Bago Division,Daik U,Electrical Substation,Da Yel Mee Tarson Transformer,17.805745,96.671373,09777747418,,,,,
MR003,Bago Division,Taungoo,Hydroelectric Power Plant,Thauk Ye Khat No.(2),18.911165,96.61612,01222422,,,,,
MR003,Bago Division,Kyauk Ta Ga,Hydroelectric Power Plant,Yenwe,18.08685,96.445965,,,,,,
MR003,Bago Division,Taungoo,Hydroelectric Power Plant,Kha Baung,18.898143,96.222382,,,,,,
MR003,Bago Division,Pyu,Hydroelectric Power Plant,Phyu Chaung,18.506146,96.353704,,,,,,
MR003,Bago Division,Bago,Hydroelectric Power Plant,Zaungtu,17.754641,96.200508,,,,,,
MR003,Bago Division,Shwegyin,Hydroelectric Power Plant,Shwegyin,17.968286,96.933004,,,,,,
MR003,Bago Division,Daik U,Electrical Power Office,Daik U Electrical Power Office,17.803775,96.673062,05240013,,,,,
MR003,Bago Division,Paungde,Electrical Power Office,Paungde Electrical Power Office,18.485627,95.511302,,,,,,
MR004,Magway Division,Magway,Electronic Store,Magway,20.159552,94.92199,9694702392,,,,,
MR004,Magway Division,Magway,Electronic Store,Zarmani,20.193307,94.927488,9965145235,,,,,
MR004,Magway Division,Magway,Electronic Store,Win,20.151945,94.93434,95343814,,,,,
MR004,Magway Division,Magway,Electronic Store,Aung Zar Chi,20.144414,94.92589,,,,,,
MR004,Magway Division,Magway,Electronic Store,Ni Ni,20.151681,94.921648,,,,,,
MR004,Magway Division,Magway,Electronic Store,Swam,20.144066,94.932921,9401552755,,,,,
MR004,Magway Division,Magway,Electronic Store,Sein Shwe,20.150815,94.927447,9898930098,,,,,
MR004,Magway Division,Magway,Electronic Store,Myo Thein,20.147546,94.946013,9965343076,,,,,
MR004,Magway Division,Magway,Electronic Store,Kaung Myat,20.150993,94.939835,6327467,,,,,
MR004,Magway Division,Magway,Electronic Store,Naing Lin Maung,20.142347,94.937043,9401570262,,,,,
MR004,Magway Division,Magway,Electronic Store,Hteik Tan,20.182931,94.872032,9401570262,,,,,
MR004,Magway Division,Magway,Electronic Store,Dollar,20.150641,94.923381,,,,,,
MR004,Magway Division,Magway,Electronic Store,Myat Ko,20.151051,94.920381,943152497,,,,,
MR004,Magway Division,Chauk,Electronic Store,Min Thu,20.892922,94.815307,95042785,,,,,
MR004,Magway Division,Chauk,Electronic Store,Phyo Thu Kha,20.895002,94.817005,95177288,,,,,
MR004,Magway Division,Chauk,Electronic Store,Hein Htet Aung,20.899458,94.817802,9400462772,,,,,
MR004,Magway Division,Chauk,Electronic Store,Khaing,20.893295,94.820917,943008346,,,,,
MR004,Magway Division,MinBu,Electronic Store,KMK,20.181573,94.8751,9401636175,,,,,
MR004,Magway Division,MinBu,Electronic Store,Hteik Tan,20.171373,94.870212,9977273110,,,,,
MR004,Magway Division,MinBu,Electronic Store,Hteik Tan,20.182341,94.871472,9976437843,,,,,
MR004,Magway Division,Pwint Phyu,Electronic Store,Chan Nyein,20.365075,94.670793,9401572082,,,,,
MR004,Magway Division,Pakokku,Electronic Store,Fuji,21.336598,95.078478,9772221050,,,,,
MR004,Magway Division,Pakokku,Electronic Store,Top,21.339871,95.08,9429325295,,,,,
MR004,Magway Division,Pakokku,Electronic Store,Shwe Thiri,21.338703,95.088547,9250250756,,,,,
MR004,Magway Division,Pakokku,Electronic Store,Zaw MIn,21.337214,95.099744,92302139,,,,,
MR004,Magway Division,Pakokku,Electronic Store,Zaw,21.335758,95.088895,,,,,,
MR004,Magway Division,Pakokku,Electronic Store,Shwe pie,21.335276,95.078451,,,,,,
MR004,Magway Division,Pakokku,Electronic Store,Hline Dana,21.335447,95.074351,9899981335,,,,,
MR004,Magway Division,Seik Phyu,Electronic Store,Win Moe,20.93751,94.788056,9783609969,,,,,
MR004,Magway Division,Myaing,Electronic Store,Yadanar WIn,21.612988,94.853862,9790169699,,,,,
MR004,Magway Division,Myaing,Electronic Store,Hna Lone Hla,21.612765,94.854249,6240104,,,,,
MR004,Magway Division,Pauk,Electronic Store,Shwe MinThar,21.449245,94.47445,,,,,,
MR004,Magway Division,GanGaw,Electronic Store,Lin Yaung Shin,22.1625544,94.129565,9442001028,,,,,
MR004,Magway Division,AungLan,Electronic Store,Sein Dollar,19.368837,95.212196,,,,,,
MR004,Magway Division,AungLan,Electronic Store,Dollar,19.375411,95.212112,,,,,,
MR004,Magway Division,AungLan,Electronic Store,Thiri Gayhar,19.372878,95.211703,69200217,,,,,
MR004,Magway Division,AungLan,Electronic Store,Zainul Zaw Lwin,19.360279,95.21884,9256332786,,,,,
MR004,Magway Division,AungLan,Electronic Store,Aein Phyu Taw,19.345461,95.217149,9260007311,,,,,
MR005,Mandalay Division,Pyin Oo Lwin,Electronic Store,Shwe Thiha ,21.972377,96.404366,09 790 160288,,,,,
MR005,Mandalay Division,Pyin Oo Lwin,Electronic Store,Padauk War,22.026411,96.465553,085 224 56,,,,,
MR005,Mandalay Division,Pyin Oo Lwin,Electronic Store,Ngwe Sandar,22.026479,96.465588,09 402 559 955,,,,,
MR005,Mandalay Division,Pyin Oo Lwin,Electronic Store,NSTAR,22.032576,96.470312,085 28366,,,,,
MR005,Mandalay Division,Pyin Oo Lwin,Electronic Store,Shwe La Win,22.028687,96.457472,09 964334882,,,,,
MR005,Mandalay Division,Pyin Oo Lwin,Electronic Store,ShuLat,21.984707,96.430699,09 798618382,,,,,
MR005,Mandalay Division,Pyin Oo Lwin,Electronic Store,Aung Tharaphu,21.894834,96.357801,,,,,,
MR005,Mandalay Division,Pyin Oo Lwin,Electronic Store,Ngwe Zin Yaw,21.89368,96.35823,,,,,,
MR005,Mandalay Division,Pyin Oo Lwin,Electronic Store,Light,22.033831,96.492717,09 40252 2387,,,,,
MR005,Mandalay Division,Pyin Oo Lwin,Electronic Store,Htun Tauk Kyal,22.032197,96.474656,09 256 113 381,,,,,
MR005,Mandalay Division,Pyin Oo Lwin,Electronic Store,Net Point,22.038432,96.489816,09 961 178881,,,,,
MR005,Mandalay Division,Pyin Oo Lwin,Electronic Service,Soe Kabar ,21.947242,96.397398,09 791 142354,,,,,
MR005,Mandalay Division,Pyin Oo Lwin,Electronic Store,Bo Bo Rai,22.074165,96.507831,09 777 701948,,,,,
MR005,Mandalay Division,Pyin Oo Lwin,Electronic Store,Unity,22.0286,96.464442,09 204 4451,,,,,
MR005,Mandalay Division,Pyin Oo Lwin,Electronic Store,Htoo,21.896052,96.35849,09 970 868734,,,,,
MR005,Mandalay Division,Pyin Oo Lwin,Electronic Store,Kyaw,22.024795,96.46384,,,,,,
MR005,Mandalay Division,Pyin Oo Lwin,Electronic Store,Rose,22.027638,96.464641,085 23 047,,,,,
MR005,Mandalay Division,Pyin Oo Lwin,Electronic Store,Yaung Pyan,22.026731,96.462829,09 785 232937,,,,,
MR005,Mandalay Division,Pyin Oo Lwin,Electrical Substation,Dey Family,22.025745,96.467045,09 42228 4118,,,,,
MR005,Mandalay Division,Pyin Oo Lwin,Electronic Service,Yaung Ni Oo,22.029952,96.495496,,,,,,
MR005,Mandalay Division,Pyin Oo Lwin,Electronic Security Co.Ltd,LUSiS,22.025089,96.488737,09 509 4247,,,,,
MR005,Mandalay Division,Patheingyi,Electrical Substation,Electronic and Ministry,22.002025,96.163391,,,,,,
MR005,Mandalay Division,Patheingyi,Electronic Store,SKY,21.99727,96.160293,09 44400 7448,,,,,
MR005,Mandalay Division,Patheingyi,Electronic Store,Shine,21.989208,96.157333,09 696 933245,,,,,
MR005,Mandalay Division,Patheingyi,Electronic Store,Hein,21.989193,96.159544,09 40004 3213,,,,,
MR005,Mandalay Division,Patheingyi,Electronic Store,PROACTIVE,21.991898,96.1582146,09 91023120,,,,,
MR005,Mandalay Division,Patheingyi,Electronic Store,HtakeTan,21.991172,96.158067,09 973 008228,,,,,
MR005,Mandalay Division,ChanMyaThaZi,Electrical Power Office,Electric Office,21.919308,96.131622,,,,,,
MR005,Mandalay Division,ChanMyaThaZi,Electrical Power Office,ChanMyaTharZi EPC ,21.928696,96.11617,09 431 01787,,,,,
MR005,Mandalay Division,ChanMyaThaZi,Electronic Service,KyiKhineTun,21.936776,96.110197,09 44103 8155,,,,,
MR005,Mandalay Division,ChanMyaThaZi,Electronic Service,LaMinThar,21.936924,96.104536,09 259 607 205,,,,,
MR005,Mandalay Division,ChanMyaThaZi,Electronic Service,NiYon,21.934327,96.106246,09 978 501134,,,,,
MR005,Mandalay Division,ChanMyaThaZi,Electronic Store,Solar,21.933187,96.109247,09 42680 2461,,,,,
MR005,Mandalay Division,ChanMyaThaZi,Electronic Store,Than Htike Aung,21.900675,96.107935,09 261 337 559,,,,,
MR005,Mandalay Division,ChanMyaThaZi,Electronic Store,Philips,21.950493,96.111139,09 44231 1169,,,,,
MR005,Mandalay Division,ChanMyaThaZi,Electronic Store,Shine Moon,21.941089,96.106264,09 790 130187,,,,,
MR005,Mandalay Division,ChanMyaThaZi,Electronic Store,Lin Htet Electronic,21.944786,96.076779,09 42025 3253,,,,,
MR005,Mandalay Division,ChanMyaThaZi,Electronic Store,Green Electronic Store,21.941761,96.133738,09 765 406747,,,,,
MR005,Mandalay Division,ChanMyaThaZi,Electronic Store,Khaing Shwe War Electric Shop,21.934884,96.10917,09 263 120 005,,,,,
MR005,Mandalay Division,ChanMyaThaZi,Electronic Store,MT,21.942637,96.09311,02 200 0075,,,,,
MR005,Mandalay Division,ChanMyaThaZi,Electronic Store,Aung,21.933138,96.108859,02 82 082,,,,,
MR005,Mandalay Division,ChanMyaThaZi,Electronic Store,Top Light,21.927501,96.112191,09 44102 0038,,,,,
MR005,Mandalay Division,ChanMyaThaZi,Electronic Store,Ko Khin Zaw,21.933121,96.109928,02 80 764,,,,,
MR005,Mandalay Division,ChanMyaThaZi,Electronic Store,"Khin Oo Gabar Co.,Ltd",21.933142,96.10881,02 82 082,,,,,
MR005,Mandalay Division,ChanMyaThaZi,Electronic Store,Laxmi,21.931321,96.107913,,,,,,
MR005,Mandalay Division,ChanMyaThaZi,Electronic Store,Yaung Chi Thit,21.922068,96.123538,,,,,,
MR005,Mandalay Division,ChanMyaThaZi,Electronic Store,Shine,21.920878,96.12326,09 40365 5696,,,,,
MR005,Mandalay Division,ChanMyaThaZi,Electronic Store,Modern,21.923404,96.12186,09 798 655330,,,,,
MR005,Mandalay Division,ChanMyaThaZi,Electronic Store,Dragon II,21.938602,96.09758,09 767 677102,,,,,
MR005,Mandalay Division,ChanMyaThaZi,Electronic Store,"Takumura(Myanmar)Technology Co.,Ltd",21.944125,96.076735,09 767 665368,,,,,
MR005,Mandalay Division,ChanMyaThaZi,Electronic Store,Kaung Min,21.943314,96.074799,09 431 00908,,,,,
MR005,Mandalay Division,ChanMyaThaZi,Electronic Store,Moe Myint San,21.94366,96.084851,09 44870 0870,,,,,
MR005,Mandalay Division,ChanMyaThaZi,Electronic Store,Neo Light,21.946049,96.085604,09 257 205 111,,,,,
MR005,Mandalay Division,ChanMyaThaZi,Electronic Store,Sein Nu Wai,21.953376,96.085512,09 256 119 176,,,,,
MR005,Mandalay Division,ChanMyaThaZi,Electronic Store,Soe Soe,21.939281,96.098886,09 44420 6604,,,,,
MR005,Mandalay Division,ChanMyaThaZi,Electronic Store,Ko Yee,21.928729,96.10794,09 259 023 764,,,,,
MR005,Mandalay Division,ChanMyaThaZi,Electronic Store,Mother's Home,21.9302,96.071665,09 40257 1255,,,,,
MR005,Mandalay Division,ChanMyaThaZi,Electronic Store,Sky,21.919761,96.130852,,,,,,
MR005,Mandalay Division,ChanMyaThaZi,Electronic Store,Mandalar,21.946319,96.085823,09 430 62951,,,,,
MR005,Mandalay Division,ChanMyaThaZi,Electronic Store,Nibban,21.912929,96.110388,09 44259 9919,,,,,
MR005,Mandalay Division,ChanMyaThaZi,Electronic Store,Shwe Myint Mo,21.947749,96.123918,09 259 471 747,,,,,
MR005,Mandalay Division,ChanMyaThaZi,Electronic Store,PuTone Family,21.946703,96.121283,09 977 345956,,,,,
MR005,Mandalay Division,ChanMyaThaZi,Electronic Store,A.K.T,21.932676,96.133518,09 259 063 564,,,,,
MR005,Mandalay Division,ChanMyaThaZi,Electronic Store,Linn,21.945195,96.07872,09 40251 0400,,,,,
MR005,Mandalay Division,ChanMyaThaZi,Electronic Store,Ngwe Soe Lin,21.979947,96.076831,09 974 418118,,,,,
MR005,Mandalay Division,ChanMyaThaZi,Electronic Store,Ko Kin Zaw Branch(2),21.932765,96.123941,02 81 824,,,,,
MR005,Mandalay Division,ChanMyaThaZi,Electronic Store,Ngwe Kyal Phyu,21.940393,96.107847,09 45829 7855,,,,,
MR005,Mandalay Division,ChanMyaThaZi,Electronic Store,Light House,21.931496,96.110772,02 82 001,,,,,
MR005,Mandalay Division,ChanMyaThaZi,Electronic Store,Power,21.931321,96.110724,09 964 035034,,,,,
MR005,Mandalay Division,ChanMyaThaZi,Electronic Store,Super Top,21.929292,96.110254,09 979 731186,,,,,
MR005,Mandalay Division,ChanMyaThaZi,Electronic Store,KyiKhineTun,21.936776,96.110197,09 44103 8155,,,,,
MR005,Mandalay Division,ChanMyaThaZi,Electronic Store,Multi Than Oo,21.933189,96.109207,02 403 4753,,,,,
MR005,Mandalay Division,ChanMyaThaZi,Electronic Store,Sky Moe,21.934456,96.105787,09 431 53000,,,,,
MR005,Mandalay Division,ChanMyaThaZi,Electronic Store,Lion,21.923614,96.094916,09 202 0355,,,,,
MR005,Mandalay Division,ChanMyaThaZi,Electronic Store,Pyae Shin,21.939211,96.103802,09 787 878805,,,,,
MR005,Mandalay Division,ChanMyaThaZi,Electronic Store,MingalarMandalay,21.94175,96.092618,,,,,,
MR005,Mandalay Division,ChanAyeTharZan,Electrical Substation,"Khin Maung Nyunt Trading Co.,Ltd",21.982775,96.085899,02 406 8423,,,,,
MR005,Mandalay Division,ChanAyeTharZan,Electrical Substation,War Khin Kone Sub-Station,21.969479,96.121401,02 77 330,,,,,
MR005,Mandalay Division,ChanAyeTharZan,Electronic Service,81 Electronic,21.973774,96.089002,09 789 818181,,,,,
MR005,Mandalay Division,ChanAyeTharZan,Electronic Service,Lote Thar,21.983169,96.07918,09 431 56112,,,,,
MR005,Mandalay Division,ChanAyeTharZan,Electronic Service,ZEP Electronic Sales and Service Center,21.97672,96.079271,09 910 53283,,,,,
MR005,Mandalay Division,ChanAyeTharZan,Electronic Service,Dream Electronic Service,21.978994,96.07984,09 40260 1385,,,,,
MR005,Mandalay Division,ChanAyeTharZan,Electronic Store,ZEP Electronic Sales and Service Center,21.97672,96.079271,09 910 53283,,,,,
MR005,Mandalay Division,ChanAyeTharZan,Electronic Store,Zarni,21.959956,96.077006,02 68 133,,,,,
MR005,Mandalay Division,ChanAyeTharZan,Electronic Store,Technoland,21.96232,96.085741,09 976 018386,,,,,
MR005,Mandalay Division,ChanAyeTharZan,Electronic Store,Toshiba,21.982855,96.084191,02 402 4760,,,,,
MR005,Mandalay Division,ChanAyeTharZan,Electronic Store,Ko Naing Naing and Brothers,21.979958,96.079066,02 64 424,,,,,
MR005,Mandalay Division,ChanAyeTharZan,Electronic Store,Kedia Light,21.982423,96.082852,02 36 242,,,,,
MR005,Mandalay Division,ChanAyeTharZan,Electronic Store,Htun Linn Aung ,21.974889,96.088211, ,,,,,
MR005,Mandalay Division,ChanAyeTharZan,Electronic Store,"VSK International Co.,Ltd",21.974351,96.088145,09 45718 6031,,,,,
MR005,Mandalay Division,ChanAyeTharZan,Electronic Store,Shwe Linn Yaung,21.977816,96.078963,02 64 381,,,,,
MR005,Mandalay Division,ChanAyeTharZan,Electronic Store,Lin Lin Naing,21.981563,96.07784,09 790 132841,,,,,
MR005,Mandalay Division,ChanAyeTharZan,Electronic Store,Farfalla,21.970893,96.086192,09 788 914814,,,,,
MR005,Mandalay Division,ChanAyeTharZan,Electronic Store,Electrolux,21.971074,96.086312,02 72 575,,,,,
MR005,Mandalay Division,ChanAyeTharZan,Electronic Store,Hein Fa,21.971458,96.087011,09 976 980506,,,,,
MR005,Mandalay Division,ChanAyeTharZan,Electronic Store,Thein Nyutt,21.920727,96.089984,02 23 376,,,,,
MR005,Mandalay Division,ChanAyeTharZan,Electronic Store,e City Square,21.969454,96.090283,09 910 13461,,,,,
MR005,Mandalay Division,ChanAyeTharZan,Electronic Store,Myo Thein Electronic,21.978769,96.079086,02 406 7175,,,,,
MR005,Mandalay Division,ChanAyeTharZan,Electronic Store,Myo Thein,21.97851,96.079075,02 403 5332,,,,,
MR005,Mandalay Division,ChanAyeTharZan,Electronic Store,Happy Sales Pos Supply,21.980231,96.079643,09 45597 7515,,,,,
MR005,Mandalay Division,ChanAyeTharZan,Electronic Store,Omega,21.979821,96.079085,09 534 0711,,,,,
MR005,Mandalay Division,ChanAyeTharZan,Electronic Store,Circuit World Electronic,21.979551,96.079054,02 402 1839,,,,,
MR005,Mandalay Division,ChanAyeTharZan,Electronic Store,Aung Takon,21.978457,96.079394,09 777 772757,,,,,
MR005,Mandalay Division,ChanAyeTharZan,Electronic Store,MgMg Hman Sine(Lashio),21.980064,96.07944,02 35 703,,,,,
MR005,Mandalay Division,ChanAyeTharZan,Electronic Store,Ko Tun Tun and Ma Chaw Su Electronic Store,21.981728,96.079228,,,,,,
MR005,Mandalay Division,ChanAyeTharZan,Electronic Store,Power,21.982579,96.078712,09 202 1915,,,,,
MR005,Mandalay Division,ChanAyeTharZan,Electronic Store,H Har San,21.983245,96.07932,09 203 1784,,,,,
MR005,Mandalay Division,ChanAyeTharZan,Electronic Store,BanDarPinKoLay,21.984128,96.079314,02 406 0463,,,,,
MR005,Mandalay Division,ChanAyeTharZan,Electronic Store,Shwe War Win,21.982707,96.07835,09 44402 3558,,,,,
MR005,Mandalay Division,ChanAyeTharZan,Electronic Store,Leader,21.98366,96.078751,09 40254 0745,,,,,
MR005,Mandalay Division,ChanAyeTharZan,Electronic Store,Mg Myint Aye,22,96.079237,02 32 321,,,,,
MR005,Mandalay Division,ChanAyeTharZan,Electronic Store,Ngwe Kyar Tite,21.983162,96.07905,,,,,,
MR005,Mandalay Division,ChanAyeTharZan,Electronic Store,Asia,21.981945,96.078132,09 430 02119,,,,,
MR005,Mandalay Division,ChanAyeTharZan,Electronic Store,Great Wall,21.982673,96.077909,09 204 4322,,,,,
MR005,Mandalay Division,ChanAyeTharZan,Electronic Store,Panasonic,21.967428,96.08612,02 60 488,,,,,
MR005,Mandalay Division,ChanAyeTharZan,Electronic Store,Panasonic ShowRoom,21.973625,96.087985,02 60 488,,,,,
MR005,Mandalay Division,ChanAyeTharZan,Electronic Store,81 Electronic,21.973774,96.089002,09 789 818181,,,,,
MR005,Mandalay Division,ChanAyeTharZan,Electronic Store,Midea Showroom,21.974272,96.088267,09 45718 5967,,,,,
MR005,Mandalay Division,ChanAyeTharZan,Electronic Store,Home Aid,21.974956,96.077031,02 406 8877,,,,,
MR005,Mandalay Division,ChanAyeTharZan,Electronic Store,Wai Yan Electronics,21.976966,96.080454,09 951 829907,,,,,
MR005,Mandalay Division,ChanAyeTharZan,Electronic Store,Whan Thet Ma Kyu,21.979127,96.0791,09 789 320023,,,,,
MR005,Mandalay Division,ChanAyeTharZan,Electronic Store,Aung Aung ,21.97916,96.079394,02 23 780,,,,,
MR005,Mandalay Division,ChanAyeTharZan,Electronic Store,SeinBrother,21.97935,96.079025,09 40259 9319,,,,,
MR005,Mandalay Division,ChanAyeTharZan,Electronic Store,KhineWin,21.971055,96.082143,02 407 2535,,,,,
MR005,Mandalay Division,ChanAyeTharZan,Electronic Store,United Electronic,21.970058,96.080902,09 202 2083,,,,,
MR005,Mandalay Division,ChanAyeTharZan,Electronic Store,"Vision Max Co.,Ltd",21.969262,96.081062,02 402 2860,,,,,
MR005,Mandalay Division,ChanAyeTharZan,Electronic Store,KyinLonnMyanmar,21.968424,96.080444,02 35 001,,,,,
MR005,Mandalay Division,ChanAyeTharZan,Electronic Store,Htay Gabar,21.983238,96.07978,02 406 6095,,,,,
MR005,Mandalay Division,ChanAyeTharZan,Electronic Store,City Light,21.983304,96.079328,02 403 4951,,,,,
MR005,Mandalay Division,ChanAyeTharZan,Electronic Store,Nadi Lwin,21.98328,96.079218,02 406 9476,,,,,
MR005,Mandalay Division,ChanAyeTharZan,Electronic Store,ParWell,21.972038,96.083544,09 797 389505,,,,,
MR005,Mandalay Division,ChanAyeTharZan,Electronic Store,Su Electrical Supply Store,21.970866,96.06373,09 40269 2483,,,,,
MR005,Mandalay Division,ChanAyeTharZan,Electronic Store,Myo Electrical Supply Store,21.971506,96.066822,02 409 9876,,,,,
MR005,Mandalay Division,ChanAyeTharZan,Electronic Store,IE,21.970951,96.078061,09 975 160578,,,,,
MR005,Mandalay Division,ChanAyeTharZan,Electronic Store,Angel,21.970594,96.091076,09 44403 1620,,,,,
MR005,Mandalay Division,ChanAyeTharZan,Electronic Store,Padauk War,21.983575,96.078862,09 201 6538,,,,,
MR005,Mandalay Division,ChanAyeTharZan,Electronic Store,SiThu,21.983634,96.079289,02 403 1378,,,,,
MR005,Mandalay Division,ChanAyeTharZan,Electronic Store,KyalSinPhyo,21.972711,96.074559,09 960 880880,,,,,
MR005,Mandalay Division,ChanAyeTharZan,Electronic Store,Thein Than,21.975726,96.06555,09 40188 8900,,,,,
MR005,Mandalay Division,ChanAyeTharZan,Electronic Store,Shwe Hnin Si,21.976044,96.071547,09 792 050342,,,,,
MR005,Mandalay Division,ChanAyeTharZan,Electronic Store,Nilar,21.978526,96.063941,09 783 099820,,,,,
MR005,Mandalay Division,ChanAyeTharZan,Electronic Store,KaungThantThar,21.977111,96.066341,09 44463 8843,,,,,
MR005,Mandalay Division,ChanAyeTharZan,Electronic Store,Power Light,21.974222,96.077116,,,,,,
MR005,Mandalay Division,ChanAyeTharZan,Electronic Store,Aung Kyal Sin,21.972848,96.098125,02 22 323,,,,,
MR005,Mandalay Division,ChanAyeTharZan,Electronic Store,PHOTON ELECTRONIC,21.980385,96.081716,09 965 028615,,,,,
MR005,Mandalay Division,ChanAyeTharZan,Electronic Store,Glote Electronic,21.980161,96.081262,02 403 3650,,,,,
MR005,Mandalay Division,ChanAyeTharZan,Electronic Store,Dream Electronic,21.978994,96.07984,09 40260 1385,,,,,
MR005,Mandalay Division,ChanAyeTharZan,Electronic Store,San Light,21.970726,96.099941,09 256 248 580,,,,,
MR005,Mandalay Division,ChanAyeTharZan,Electronic Store,Mitsubishi        ,21.955036,96.113512,09 42171 6037,,,,,
MR005,Mandalay Division,ChanAyeTharZan,Electronic Store,P T Electrical,21.983092,96.079266,09 431 45646,,,,,
MR005,Mandalay Division,ChanAyeTharZan,Electronic Store,Star Light,21.983257,96.079808,02 73 749,,,,,
MR005,Mandalay Division,ChanAyeTharZan,Electronic Store,"Par Well Holding Co.,Ltd",21.976729,96.078825,02 24 841,,,,,
MR005,Mandalay Division,ChanAyeTharZan,Electronic Store,Jan ,21.977588,96.079003,02 407 2534,,,,,
MR005,Mandalay Division,ChanAyeTharZan,Electronic Store,TZE,21.977759,96.079229,09 898 849562,,,,,
MR005,Mandalay Division,ChanAyeTharZan,Electronic Store,Shwe La Win,21.977615,96.078058,02 406 0041,,,,,
MR005,Mandalay Division,ChanAyeTharZan,Electronic Store,"Myanmar New Power Motors Co.,Ltd",21.895624,96.094402,09 40251 0661,,,,,
MR005,Mandalay Division,PyiGyiTaGon,Electrical Power Office,Electric and Power Ministry,21.899324,96.103677,02 515 3500,,,,,
MR005,Mandalay Division,PyiGyiTaGon,Electrical Substation,"Pacific Electric Company Co.,Ltd",21.89948,96.104055,09 797 593484,,,,,
MR005,Mandalay Division,PyiGyiTaGon,Electrical Substation,MESC,21.885989,96.127191,,,,,,
MR005,Mandalay Division,PyiGyiTaGon,Electrical Substation,MESC,21.913569,96.122627,,,,,,
MR005,Mandalay Division,PyiGyiTaGon,Electrical Substation,TakonTai MainElectrical Substation,21.917048,96.081096,,,,,,
MR005,Mandalay Division,PyiGyiTaGon,Electrical Substation,Win General Electric,21.886851,96.10388,09 202 1046,,,,,
MR005,Mandalay Division,PyiGyiTaGon,Electronic Store,BaWaThit,21.92786,96.086549,09 40252 7791,,,,,
MR005,Mandalay Division,PyiGyiTaGon,Electronic Store,Zwe Marn,21.901771,96.08272,09 681 5705,,,,,
MR005,Mandalay Division,PyiGyiTaGon,Electronic Store,Ko Win Htay,21.895123,96.094556,09 798 788123,,,,,
MR005,Mandalay Division,PyiGyiTaGon,Electronic Store,AungKyalSinn,21.909516,96.115066,09 44853 6090,,,,,
MR005,Mandalay Division,PyiGyiTaGon,Electronic Store,Htun Shwe,21.887539,96.109886,02 515 4081,,,,,
MR005,Mandalay Division,PyiGyiTaGon,Electronic Store,DuWon Kyal,21.903414,96.081667,09 974 348118,,,,,
MR005,Mandalay Division,PyiGyiTaGon,Electronic Store,Hein,21.902871,96.082239,09 203 0593,,,,,
MR005,Mandalay Division,PyiGyiTaGon,Electronic Store,Lwin Yati,21.904258,96.081672,09 910 47971,,,,,
MR005,Mandalay Division,PyiGyiTaGon,Electronic Store,SwanHtet,21.905069,96.081766,09 910 02575,,,,,
MR005,Mandalay Division,PyiGyiTaGon,Electronic Store,735 Electronic,21.901608,96.083577,09 44401 1735,,,,,
MR005,Mandalay Division,PyiGyiTaGon,Electronic Store,Hein Electronic Store,21.922606,96.088731,09 40249 3002,,,,,
MR005,Mandalay Division,PyiGyiTaGon,Electronic Store,Miba Myittar,21.912544,96.126004,09 789 600852,,,,,
MR005,Mandalay Division,PyiGyiTaGon,Electronic Store,HtooAungKyaw,21.914655,96.116904,09 792 055526,,,,,
MR005,Mandalay Division,MaharAungMyay,Electrical Substation,"Linear Power Internationsl Co.,Ltd",21.955746,96.115018,09 44404 3793,,,,,
MR005,Mandalay Division,MaharAungMyay,Electronic Service,Pyae Sone,21.96865,96.09593,09 40252 1915,,,,,
MR005,Mandalay Division,MaharAungMyay,Electronic Service,Win ,21.964201,96.075077,09 910 08356,,,,,
MR005,Mandalay Division,MaharAungMyay,Electronic Store,UPK,21.9569572,96.101831,09 40256 9339,,,,,
MR005,Mandalay Division,MaharAungMyay,Electronic Store,PhuGyi,21.964673,96.108164,09 259 143 028,,,,,
MR005,Mandalay Division,MaharAungMyay,Electronic Store,Myo Zaw,21.964823,96.099794,09 910 05959,,,,,
MR005,Mandalay Division,MaharAungMyay,Electronic Store,Cadi Light,21.965817,96.111922,09 766 288388,,,,,
MR005,Mandalay Division,MaharAungMyay,Electronic Store,Moon Light,21.967834,96.084179,,,,,,
MR005,Mandalay Division,MaharAungMyay,Electronic Store,MateSat,21.962543,96.080001,09 40257 5782,,,,,
MR005,Mandalay Division,MaharAungMyay,Electronic Store,Golden Light,21.96281,96.085676,02 407 2741,,,,,
MR005,Mandalay Division,MaharAungMyay,Electronic Store,Royal Light Electric,21.968792,96.094221,09 44401 3945,,,,,
MR005,Mandalay Division,MaharAungMyay,Electronic Store,"T&T Sine International Co.,Ltd",21.95388,96.101099,09 964 844885,,,,,
MR005,Mandalay Division,MaharAungMyay,Electronic Store,Shwe Myanamar,21.959273,96.110924,09 40270 4475,,,,,
MR005,Mandalay Division,MaharAungMyay,Electronic Store,Myit War,21.967643,96.113719,09 777 755622,,,,,
MR005,Mandalay Division,MaharAungMyay,Electronic Store,HomePlus,21.967108,96.119768,09 975 032000,,,,,
MR005,Mandalay Division,MaharAungMyay,Electronic Store,Moe,21.962764,96.059149,09 44101 3289,,,,,
MR005,Mandalay Division,MaharAungMyay,Electronic Store,Schneider Electric,21.955236,96.088118,09 977 904550,,,,,
MR005,Mandalay Division,MaharAungMyay,Electronic Store,"ThitsarMyanmar Co.,Ltd",21.955465,96.105075,09 969 776680,,,,,
MR005,Mandalay Division,MaharAungMyay,Electronic Store,Min Thiha,21.963616,96.101562,09 960 182790,,,,,
MR005,Mandalay Division,MaharAungMyay,Electronic Store,Hlaing Thit,21.967174,96.101119,09 256 118 823,,,,,
MR005,Mandalay Division,MaharAungMyay,Electronic Store,Yaung Chi Thit,21.963963,96.101408,09 44418 4334,,,,,
MR005,Mandalay Division,MaharAungMyay,Electronic Store,Ko Swe,21.955377,96.073465,09 430 62987,,,,,
MR005,Mandalay Division,MaharAungMyay,Electronic Store,Kaung Myat,21.965766,96.088125,09 410 01688,,,,,
MR005,Mandalay Division,MaharAungMyay,Electronic Store,ASTO,21.963676,96.097093,09 695 311431,,,,,
MR005,Mandalay Division,MaharAungMyay,Electronic Store,Apex and Meiling,21.968556,96.096531,09 978 113998,,,,,
MR005,Mandalay Division,MaharAungMyay,Electronic Store,Emperor,21.967011,96.098856,09 779 559377,,,,,
MR005,Mandalay Division,MaharAungMyay,Electronic Store,Shwe Li Tun,21.962341,96.094804,09 910 50340,,,,,
MR005,Mandalay Division,MaharAungMyay,Electronic Store,Win War,21.96089,96.095575,09 40225 2052,,,,,
MR005,Mandalay Division,MaharAungMyay,Electronic Store,Myanmar Kagroo,21.969044,96.083428,09 40024 0033,,,,,
MR005,Mandalay Division,MaharAungMyay,Electronic Store,25 LuHtu Electric,21.968311,96.076252,09 203 8316,,,,,
MR005,Mandalay Division,MaharAungMyay,Electronic Store,Shwe Pin Lon,21.967807,96.091032,09 44101 4070,,,,,
MR005,Mandalay Division,MaharAungMyay,Electronic Store,Chan Sein,21.967581,96.090469,09 259 119 868,,,,,
MR005,Mandalay Division,MaharAungMyay,Electronic Store,Coolexe's Home,21.965629,96.08182,09 44229 9998,,,,,
MR005,Mandalay Division,MaharAungMyay,Electronic Store,U Aung Naing Home,21.965152,96.109276,09 430 02223,,,,,
MR005,Mandalay Division,MaharAungMyay,Electronic Store,"Natron Myanmar Trading Co.,Ltd",21.965601,96.115557,09 253 021 622,,,,,
MR005,Mandalay Division,MaharAungMyay,Electronic Store,National,21.968563,96.093151,09 431 59025,,,,,
MR005,Mandalay Division,MaharAungMyay,Electronic Store,MM(III) Electronic,21.969336,96.079203,09 202 1146,,,,,
MR005,Mandalay Division,MaharAungMyay,Electronic Store,Zin,21.970147,96.08847,02 402 2318,,,,,
MR005,Mandalay Division,AungMyayThaZan,Electrical Substation,AungMyayTharSan Electric Manager Office,21.017782,96.097147,02 39 163,,,,,
MR005,Mandalay Division,AungMyayThaZan,Electronic Service,Aung Theitdi Electronic Service(U Aung Gyi),22.001751,96.119584,09 334 14347,,,,,
MR005,Mandalay Division,AungMyayThaZan,Electronic Service,ShalLatYar,21.981528,96.061749,09 42802 7742,,,,,
MR005,Mandalay Division,AungMyayThaZan,Electronic Service,Master ,21.988831,96.076145,09 910 06198,,,,,
MR005,Mandalay Division,AungMyayThaZan,Electronic Store,Ko Min Min,21.997035,96.079974,09 973 577796,,,,,
MR005,Mandalay Division,AungMyayThaZan,Electronic Store,SMM and MMT Electric,21.993062,96.079289,09 40324 6323,,,,,
MR005,Mandalay Division,AungMyayThaZan,Electronic Store,Tz Electronic,21.992904,96.079238,09 910 02569,,,,,
MR005,Mandalay Division,AungMyayThaZan,Electronic Store,LaMinKyal(22)Street,21.988953,96.075827,09 44402 4446,,,,,
MR005,Mandalay Division,AungMyayThaZan,Electronic Store,Master ,21.988831,96.076145,09 910 06198,,,,,
MR005,Mandalay Division,AungMyayThaZan,Electronic Store,U Win Tin,21.98603,96.08132,09 975 311787,,,,,
MR005,Mandalay Division,AungMyayThaZan,Electronic Store,ThitSarPhyu,21.983764,96.078756,02 406 6340,,,,,
MR005,Mandalay Division,AungMyayThaZan,Electronic Store,Ngu War,21.983044,96.082305,02 403 4439,,,,,
MR005,Mandalay Division,AungMyayThaZan,Electronic Store,TAKATHO Electric Shop,21.983417,96.078958,,,,,,
MR005,Mandalay Division,AungMyayThaZan,Electronic Store,"Css Co.,Ltd",21.985758,96.079791,02 403 6271,,,,,
MR005,Mandalay Division,AungMyayThaZan,Electronic Store,T.T.H,21.983977,96.078827,09 259 004 049,,,,,
MR005,Mandalay Division,AungMyayThaZan,Electronic Store,Crown Electronic,21.982184,96.100818,,,,,,
MR005,Mandalay Division,AungMyayThaZan,Electronic Store,K T,21.991151,96.112028,09 977 903712,,,,,
MR005,Mandalay Division,AungMyayThaZan,Electronic Store,Nilar,21.991837,96.111715,09 40251 9966,,,,,
MR005,Mandalay Division,AungMyayThaZan,Electronic Store,Shwe Pyi Kyaw,21.991737,96.111197,09 257 772 080,,,,,
MR005,Mandalay Division,AungMyayThaZan,Electronic Store,Aung Theitdi Electronic Service(U Aung Gyi),22.001751,96.119584,09 334 14347,,,,,
MR005,Mandalay Division,AungMyayThaZan,Electronic Store,Nandar Electric and Electronic,21.991317,96.06988,09 203 0079,,,,,
MR005,Mandalay Division,AungMyayThaZan,Electronic Store,Activate Electronic,21.987396,96.062105,,,,,,
MR005,Mandalay Division,AungMyayThaZan,Electronic Store,KZN,22.005379,96.106963,09 910 16978,,,,,
MR005,Mandalay Division,AungMyayThaZan,Electronic Store,CW Electronic,21.983042,96.082224,09 200 4486,,,,,
MR005,Mandalay Division,AungMyayThaZan,Electronic Store,P T Electrical,21.983092,96.079266,09 431 45646,,,,,
MR005,Mandalay Division,AungMyayThaZan,Electronic Store,Star Light,21.983257,96.079808,02 73 749,,,,,
MR005,Mandalay Division,AungMyayThaZan,Electronic Store,Man Aung Aung,22.010196,96.092215,09 40264 2524,,,,,
MR005,Mandalay Division,AungMyayThaZan,Electronic Store,Fancy Light,21.008061,96.091961,09 731 77607,,,,,
MR005,Mandalay Division,AungMyayThaZan,Electronic Store,May Lin,22.007965,96.0858,09 966 248597,,,,,
MR005,Mandalay Division,AungMyayThaZan,Electronic Store,PyitTineHtaung,22.003776,98.084617,09 40259 5902,,,,,
MR005,Mandalay Division,AungMyayThaZan,Electronic Store,AungNaingThu,22.000871,96.081456,09 263 648 990,,,,,
MR005,Mandalay Division,AungMyayThaZan,Electronic Store,Sam Sam,21.99372,96.071548,09 200 3793,,,,,
MR005,Mandalay Division,AungMyayThaZan,Electronic Store,SEIN,21.983621,96.072856,02 407 1155,,,,,
MR005,Mandalay Division,AungMyayThaZan,Electronic Store,KuminMingChao Electrical Cable Group,21.983659,96.078442,09 968 660650,,,,,
MR005,Mandalay Division,AungMyayThaZan,Electronic Store,Wai Yan ,21.005043,96.109267,09 333 13721,,,,,
MR005,Mandalay Division,AungMyayThaZan,Electronic Store,Sitt Thee,21.992566,96.113485,09 44404 3139,,,,,
MR005,Mandalay Division,AungMyayThaZan,Electronic Store,OK 2000,21.992468,96.11349,09 200 6293,,,,,
MR005,Mandalay Division,AungMyayThaZan,Electronic Store,Taw Win,21.992379,96.11803,09 40276 6217,,,,,
MR005,Mandalay Division,AungMyayThaZan,Electronic Store,Kaung Htet,21.991618,96.125409,09 973 781222,,,,,
MR005,Mandalay Division,AungMyayThaZan,Electronic Store,A.K.Z Laminate Floor and Wall Paper,21.984351,96.078309,09 202 1690,,,,,
MR005,Mandalay Division,AungMyayThaZan,Electronic Store,HtainHtain,21.983376,96.083238,02 61 681,,,,,
MR005,Mandalay Division,AungMyayThaZan,Electronic Store,Dagon,21.903012,96.083295,02 31 394,,,,,
MR005,Mandalay Division,KyaukSe,Hydroelectric Power Plant,Myo Gyi Hydro Power Plant,21.465067,96.380941,,,,,,
MR005,Mandalay Division,KyaukSe,Hydroelectric Power Plant,Yeywa Hydro Power Plant,21.672905,96.474053,,,,,,
MR005,Mandalay Division,KyaukSe,Electronic Store,U Thaung Electronic ,21.599284,96.135523,,,,,,
MR005,Mandalay Division,KyaukSe,Electronic Store,Ant Phwe Mobile & Electronic,21.609662,96.134166,09 253 590 005,,,,,
MR005,Mandalay Division,KyaukSe,Electronic Store,Shwe Yati,21.609035,96.135395,066 50 485,,,,,
MR005,Mandalay Division,KyaukSe,Electronic Store,TharOo,21.605585,96.136857,09 797 914420,,,,,
MR005,Mandalay Division,KyaukSe,Electronic Store,Sakarwar,21.597246,96.130006,,,,,,
MR005,Mandalay Division,KyaukSe,Electronic Store,LwinLwin,21.611782,96.134398,066 205 0066,,,,,
MR005,Mandalay Division,Kyaukpadaung,Electronic Store,LaMinSoe Electronic,20.849239,95.131882,,,,,,
MR005,Mandalay Division,Kyaukpadaung,Electronic Store,Ywal Doe Electronic,20.844373,95.127592,,,,,,
MR005,Mandalay Division,Kyaukpadaung,Electronic Store,Sea Light,20.84587,95.122917,061 50 128,,,,,
MR006,Yangon Division,East Dagon,Electronic Service,Nay Min Tun,16.89311,96.236305,,,,,,
MR006,Yangon Division,Ahlone,Electronic Store,Hitachi,16.788289,96.124095,012301267,,,,,
MR006,Yangon Division,Ahlone,Electronic Store,Gold Star Diamond,16.78297,96.128888,,,,,,
MR006,Yangon Division,Ahlone,Electronic Store,Shwe Bagyi,16.78838,96.124379,,,,,,
MR006,Yangon Division,Ahlone,Electronic Store,Sandisolar,16.788491,96.124471,09 44341 4499,,,,,
MR006,Yangon Division,Ahlone,Electronic Store,Friend,16.803645,96.130922,01505483,,,,,
MR006,Yangon Division,Ahlone,Electronic Service,Panasonic,16.785787,96.125255,,,,,,
MR006,Yangon Division,Ahlone,Electronic Store,Myint Than,16.793448,96.12343,09966559228,,,,,
MR006,Yangon Division,Ahlone,Electronic Store,Unified,16.791158,96.127629,09450450706,,,,,
MR006,Yangon Division,Ahlone,Electronic Store,Galaxy,16.787385,96.128085,,,,,,
MR006,Yangon Division,Ahlone,Electronic Store,Media,16.775151,96.1448,012303014,,,,,
MR006,Yangon Division,Ahlone,Electronic Store,Shwe Duon,16.791683,96.124226,01216703,,,,,
MR006,Yangon Division,Ahlone,Electronic Store,Mr. Air,16.786117,96.128268,0973052628,,,,,
MR006,Yangon Division,Ahlone,Electronic Store,Automation,16.7919428,96.1234937,09425301536,,,,,
MR006,Yangon Division,Ahlone,Electronic Store,Mahar Mate,16.7846786,96.1284446,09775570253,,,,,
MR006,Yangon Division,Ahlone,Electronic Store,Philips,16.803599,96.133948,01510635,,,,,
MR006,Yangon Division,Ahlone,Electronic Store,ZEC,16.796201,96.126711,09974604255,,,,,
MR006,Yangon Division,Ahlone,Electronic Store,Hlaminzu,16.788149,96.124112,012314140,,,,,
MR006,Yangon Division,Ahlone,Electronic Store,Aung Yadanar,16.788339,96.126874,,,,,,
MR006,Yangon Division,Ahlone,Electronic Store,Htoo Nay,16.789229,96.126522,09786024153,,,,,
MR006,Yangon Division,Ahlone,Electronic Store,Yaung Ni Oo,16.790697,96.126222,09789456103,,,,,
MR006,Yangon Division,Ahlone,Electronic Store,Sin Minn,16.792349,96.126736,,,,,,
MR006,Yangon Division,Ahlone,Electronic Store,Soe San,16.791999,96.123484,012301108,,,,,
MR006,Yangon Division,Bahan,Electronic Store,San Thit (U Min Thu),16.781928,96.130791,09420136547,,,,,
MR006,Yangon Division,Kyauk Ta Da,Electronic Store,Myint Mho,16.777489,96.160256,01374589,,,,,
MR006,Yangon Division,Kyauk Ta Da,Electronic Store,Master,16.772563,96.164082,09443045742,,,,,
MR006,Yangon Division,Kyauk Ta Da,Electronic Store,Smile,16.775718,96.162941,018392853,,,,,
MR006,Yangon Division,Kyauk Ta Da,Electronic Store,TA,16.776584,96.161886,095091165,,,,,
MR006,Yangon Division,Kyauk Ta Da,Electronic Store,Wai Yan,16.775456,96.161468,01250596,,,,,
MR006,Yangon Division,Kyauk Ta Da,Electronic Store,NS,16.776428,96.161508,01379147,,,,,
MR006,Yangon Division,Kyauk Ta Da,Electronic Store,F@X,16.774488,96.163013,09972433449,,,,,
MR006,Yangon Division,Kyauk Ta Da,Electronic Store,A.T,16.772949,96.161788,09422354563,,,,,
MR006,Yangon Division,Kyauk Ta Da,Electronic Store,Smiths Detection,16.77888,96.164383,01245581,,,,,
MR006,Yangon Division,Kyauk Ta Da,Electronic Store,Myat Noe Thu,16.778233,96.160588,01246424,,,,,
MR006,Yangon Division,Kyauk Ta Da,Electronic Store,Excellence,16.776213,96.161939,,,,,,
MR006,Yangon Division,Kyauk Ta Da,Electronic Service,JBS,16.777487,96.159867,,,,,,
MR006,Yangon Division,Kyauk Ta Da,Electronic Store,200 Electronic,16.775276,96.163224,01252275,,,,,
MR006,Yangon Division,Kyauk Ta Da,Electronic Store,Equal,16.777861,96.159843,09963666680,,,,,
MR006,Yangon Division,Kyauk Ta Da,Electronic Store,Auto,16.778047,96.163325,095178346,,,,,
MR006,Yangon Division,Kyauk Ta Da,Electronic Store,Golden Dragon,16.776492,96.161506,09254898112,,,,,
MR006,Yangon Division,Kyauk Ta Da,Electronic Store,Via Myanmar,16.7735471,96.1657198,09263726330,,,,,
MR006,Yangon Division,Kyauk Ta Da,Electronic Store,Panda,16.777777,96.160255,095008898,,,,,
MR006,Yangon Division,Kyauk Ta Da,Electronic Store,OTTO,16.7787317,96.1617155,09421163941,,,,,
MR006,Yangon Division,Kyauk Ta Da,Electronic Store,Yamaha,16.777771,96.159869,09450026507,,,,,
MR006,Yangon Division,Kyauk Ta Da,Electronic Store,Yazana,16.776961,96.163285,018380970,,,,,
MR006,Yangon Division,Kyauk Ta Da,Electronic Store,AA,16.774563,96.160846,01249592,,,,,
MR006,Yangon Division,Kyauk Ta Da,Electronic Store,Technoland,16.775986,96.161295,09254839225,,,,,
MR006,Yangon Division,Kyauk Ta Da,Electronic Store,MC,16.776201,96.161523,01256136,,,,,
MR006,Yangon Division,Kyauk Ta Da,Electronic Store,Myo Win,16.772342,96.164182,09965107191,,,,,
MR006,Yangon Division,Botahtaung,Electronic Store,Winter Loop,16.774683,96.163203,01385504,,,,,
MR006,Yangon Division,Botahtaung,Electronic Store,Wai Yan,16.771187,96.164464,01398571,,,,,
MR006,Yangon Division,Botahtaung,Electronic Store,Zettabyte Plus,16.776341,96.170686,09967115831,,,,,
MR006,Yangon Division,Botahtaung,Electronic Store,JPl,16.773467,96.169617,09979522629,,,,,
MR006,Yangon Division,Botahtaung,Electronic Store,Tcl,16.773897,96.167872,018398931,,,,,
MR006,Yangon Division,Botahtaung,Electronic Store,Digital,16.77399,96.165032,095186809,,,,,
MR007,Ayeyarwady Division,Pathein,Electronic Store,Aung,16.778364,94.732458,042 23442,,,,,
MR007,Ayeyarwady Division,Pathein,Electronic Store,Kyaw,16.778364,94.738081,09 5200387,,,,,
MR007,Ayeyarwady Division,Pathein,Electronic Store,Aung Kyaw Thein,16.778364,94.731431,042 21268,,,,,
MR007,Ayeyarwady Division,Pathein,Electronic Store,TET Pathein,16.778364,94.726941,09 400212018,,,,,
MR007,Ayeyarwady Division,Kyaunggon,Electronic Store,Light,16.778364,95.187286,09 422513919,,,,,
MR007,Ayeyarwady Division,Lebutta,Electronic Store,Tun,16.778364,94.760746,,,,,,
MR007,Ayeyarwady Division,Maubin,Electronic Store,Shwe La Woon,16.778364,95.642083,,,,,,
MR007,Ayeyarwady Division,Maubin,Electronic Store,Ko Myo Myint,16.778364,95.655092,045 30920,,,,,
MR007,Ayeyarwady Division,Maubin,Electronic Store,Myat Mahar,16.778364,95.652823,09 960808089,,,,,
MR007,Ayeyarwady Division,Danubyu,Electronic Store,Zaw Gyi Mg Mg,16.778364,95.592823,,,,,,
MR007,Ayeyarwady Division,HinThaDa,Electronic Store,Nay Thurain,16.778364,95.460417,09 796931099,,,,,
MR007,Ayeyarwady Division,HinThaDa,Electronic Store,Zwe,16.778364,95.459671,,,,,,
MR007,Ayeyarwady Division,HinThaDa,Electronic Store,Ko Moe aung,16.778364,95.461065,09 422485359,,,,,
MR007,Ayeyarwady Division,HinThaDa,Electronic Store,Pyit Tine Htaung,16.778364,96.462918,044 21428,,,,,
MR007,Ayeyarwady Division,Myan Aung,Electronic Store,Zwe,16.778364,95.303297,09 792465877,,,,,
MR007,Ayeyarwady Division,Myaung Mya,Electronic Store,Ko San Win Htay Si Thu,16.778364,94.929753,09 777770082,,,,,
MR007,Ayeyarwady Division,Pyapon,Electronic Store,GRAND,16.778364,95.681252,09 252029655,,,,,
MR007,Ayeyarwady Division,Yegyi,Electronic Store,Nawarat,16.778364,95.118576,046 52190,,,,,
MR007,Ayeyarwady Division,Zalon,Electronic Store,Tun Mahar,16.778364,95.548481,09 799835496,,,,,
MR007,Ayeyarwady Division,Nyaung Don,Electronic Store,Thein Oo,17.046021,95.637762,,,,,,
MR015,Nay Pyi Taw Union Territory,Nay Pyi Taw,Electrical Power Office,Ministry of Electricity and Energy,19.770493,96.133497,,,,,,
MR015,Nay Pyi Taw Union Territory,Nay Pyi Taw,Electrical Power Office,Ministry of Electricity and Energy No.(2),19.787382,96.095751,067410207,,,,,
MR015,Nay Pyi Taw Union Territory,Ottarathiri,Electrical Power Office,Ottarathiri Electrical Power Office,19.825714,96.158025,,,,,,
MR015,Nay Pyi Taw Union Territory,Tatkone,Electrical Power Office,Tatkone Electrical Power Office,20.134925,96.198461,,,,,,
MR015,Nay Pyi Taw Union Territory,Zabuthiri,Electronic Store,Shwe Tharapy,19.7252349,96.1412743,09250106957,,,,,
MR015,Nay Pyi Taw Union Territory,Zabuthiri,Electronic Store,Krislite,19.725407,96.097639,,,,,,
MR015,Nay Pyi Taw Union Territory,Zabuthiri,Electronic Store,Thein Ayar,19.7260104,96.1441043,0931950925,,,,,
MR015,Nay Pyi Taw Union Territory,Lewe,Electronic Store,Linn Let,19.638185,96.111069,,,,,,
MR015,Nay Pyi Taw Union Territory,Lewe,Electronic Store,Aung Hein,19.641821,96.113181,09971344588,,,,,
MR015,Nay Pyi Taw Union Territory,Thar Wut Hti,Electronic Store,Yaung Chi Oo,19.527759,96.247351,09797908623,,,,,
MR015,Nay Pyi Taw Union Territory,Thar Wut Hti,Electronic Store,Shin Thant Aung,19.532509,96.254104,,,,,,
MR015,Nay Pyi Taw Union Territory,Pyinmana,Electronic Store,Ko Phoe Ni-Tine Chit,19.739862,96.206684,06721080,,,,,
MR015,Nay Pyi Taw Union Territory,Pyinmana,Electronic Store,La Pyae Wun(I),19.73898,96.210793,06721111,,,,,
MR015,Nay Pyi Taw Union Territory,Pyinmana,Electronic Store,La Pyae Wun(II),19.7388877,96.2084365,06722957,,,,,
MR015,Nay Pyi Taw Union Territory,Pyinmana,Electronic Store,Pyae Phyo,19.73937,96.206808,06723305,,,,,
MR015,Nay Pyi Taw Union Territory,Pyinmana,Electronic Store,Theik Di Pyae,19.75313,96.203218,06725591,,,,,
MR015,Nay Pyi Taw Union Territory,Pyinmana,Electronic Store,Silver Moon,19.740566,96.204124,06721568,,,,,
MR015,Nay Pyi Taw Union Territory,Pyinmana,Electronic Store,Nay Tagon,19.750853,96.198356,09402602307,,,,,
MR015,Nay Pyi Taw Union Territory,Pyinmana,Electronic Store,U Tin Shwe,19.753636,96.201062,,,,,,
MR015,Nay Pyi Taw Union Territory,Pyinmana,Electronic Store,Phyo Phyo Kywel,19.739562,96.207349,,,,,,
MR015,Nay Pyi Taw Union Territory,Nay Pyi Taw,Electronic Store,"Lighting Specialist Co.,Ltd",19.7322538,96.1065336,067420644,,,,,
MR015,Nay Pyi Taw Union Territory,Nay Pyi Taw,Electronic Store,Gandamar,19.7305564,96.106939,067421212,,,,,
MR015,Nay Pyi Taw Union Territory,Nay Pyi Taw,Electronic Store,Diamond Stm,19.738425,96.11868,,,,,,
MR015,Nay Pyi Taw Union Territory,Nay Pyi Taw,Electronic Store,Kabar Kyaw,19.731747,96.107329,,,,,,
MR015,Nay Pyi Taw Union Territory,Nay Pyi Taw,Electronic Store,Pwint Thit Sa,19.75114,96.086218,09973189963,,,,,
MR015,Nay Pyi Taw Union Territory,Nay Pyi Taw,Electronic Store,Phyo Phyo Kywel,19.743689,96.120414,,,,,,
MR015,Nay Pyi Taw Union Territory,Nay Pyi Taw,Electronic Store,Universal,19.741831,96.120115,09259271771,,,,,
MR015,Nay Pyi Taw Union Territory,Pobbathiri,Electronic Store,Kyaw Nan Taw,16.8218169,96.1458035,09420752832,,,,,
MR015,Nay Pyi Taw Union Territory,Pobbathiri,Electronic Store,Soe Myittar,19.871006,96.192934,09448545622,,,,,
MR015,Nay Pyi Taw Union Territory,Pobbathiri,Electronic Store,TTE Global,19.865536,96.175213,,,,,,
MR015,Nay Pyi Taw Union Territory,Pobbathiri,Electronic Store,Kyaw Star,19.871439,96.194775,,,,,,
MR015,Nay Pyi Taw Union Territory,Pobbathiri,Electronic Store,A Linn Yaung,19.877679,96.19534,0943048007,,,,,
MR015,Nay Pyi Taw Union Territory,Pobbathiri,Electronic Store,Wa Lin Han,19.90955,96.205256,09420721751,,,,,
MR015,Nay Pyi Taw Union Territory,Pyinmana,Electronic Service,Ye` Naing,19.749116,96.203448,09976638555,,,,,
MR015,Nay Pyi Taw Union Territory,Pyinmana,Electronic Service,Nyein Sat Khaing,19.755811,96.204669,09420739660,,,,,
MR015,Nay Pyi Taw Union Territory,Lewe,Electronic Service,Sunn Thit,19.639593,96.112472,,,,,,
MR015,Nay Pyi Taw Union Territory,Pobbathiri,Electrical Substation,Pobbathiri Electrical Sub-station,19.863335,96.183919,,,,,,
MR015,Nay Pyi Taw Union Territory,Pobbathiri,Electrical Substation,"Min Min San Com.,Ltd",19.88102,96.181029,,,,,,
MR015,Nay Pyi Taw Union Territory,Pyinmana,Electrical Substation,Pyinmana Substation (230kv),19.734674,96.233257,,,,,,
MR015,Nay Pyi Taw Union Territory,Pyinmana,Hydroelectric Power Plant,Upper Paung Laung Hydropower Station,19.756673,96.59094,,,,,,
